FID,Name,Address,City,State,ZipCode1,ZipCode2,Suite,geom
Food_Establishments_Health.1,HEARTLANDS SENIOR LIVING VILLAGE AT ELLICOTT CITY,3004 NORTH RIDGE RD,Ellicott City,MD,21043,,,POINT (1362723.3499524489 591614.0426752372)
Food_Establishments_Health.2,SUBWAY,9275 BALTIMORE NATIONAL  PK,Ellicott City,MD,21042,,,POINT (1360053.668551099 586474.8620780325)
Food_Establishments_Health.3,BOTTOM OF THE BAY SEAFOOD,9590 NORTH LAUREL RD,LAUREL,MD,20707,,,POINT (1357916.9283722725 524676.5080606884)
Food_Establishments_Health.4,COLUMBIA LANES,7100 CARVED STONE RD,COLUMBIA,MD,21046,,,POINT (1357512.7593287225 549796.7408738931)
Food_Establishments_Health.5,CIRCLE D FARM,15535 CARRS MILL RD,WOODBINE,MD,21797,,,POINT (1298248.29059672 598681.00132448)
Food_Establishments_Health.6,COLUMBIA ICE RINK,5876 THUNDERHILL RD,COLUMBIA,MD,21045,,,POINT (1356531.4567921378 562221.207496509)
Food_Establishments_Health.7,DANIELS RESTAURANT,5854 WASHINGTON BLVD,ELKRIDGE,MD,21075,,,POINT (1393894.9971852666 564280.3917039083)
Food_Establishments_Health.8,MORGAN INN,15400 FREDERICK RD,WOODBINE,MD,21797,,,POINT (1298267.0210954798 606455.9142940325)
Food_Establishments_Health.9,TOBY'S DINNER THEATRE,5900 SYMPHONY WOODS RD,COLUMBIA,MD,21044,,,POINT (1352425.087603107 561714.8987019096)
Food_Establishments_Health.10,HUNAN MANOR RESTAURANT,7091 DEEPAGE DR,COLUMBIA,MD,21045,,,POINT (1357712.063542088 550255.3454294638)
Food_Establishments_Health.11,HAMMOND PARK RECREATION INC,8034 HELMART DR,LAUREL,MD,20723,,,POINT (1345815.2701892194 539612.9101654117)
Food_Establishments_Health.12,SHANNON'S SALOON,9338 BALTIMORE NATIONAL PK,ELLICOTT CITY,MD,21042,,,POINT (1359464.2431682535 586911.516830369)
Food_Establishments_Health.13,THE JOHNS HOPKINS UNIVERSITY APPLIED PHYSICS LAB. LLC ( CAFETERIA 1 ),11100 JOHNS HOPKINS RD,LAUREL,MD,20723,,,POINT (1341138.791444189 545444.8265526838)
Food_Establishments_Health.14,KAHLER HALL,5440  OLD TUCKER ROW,COLUMBIA,MD,21044,,,POINT (1343975.5840141606 566559.9519357778)
Food_Establishments_Health.15,THE JOHNS HOPKINS UNIVERSITY APPLIED PHYSICS LAB LLC ( APL KOSSIKOFF ),11100 JOHNS HOPKINS RD,LAUREL,MD,20723,,,POINT (1341138.791444189 545444.8265526838)
Food_Establishments_Health.16,THE KINGS CONTRIVANCE RESTAURANT,10150 SHAKER DR,COLUMBIA,MD,21046,,,POINT (1350867.82222966 551438.2934917588)
Food_Establishments_Health.17,LAUREL SKATING CENTER,9890 BREWERS CT,LAUREL,MD,20706,,,POINT (1359725.5921587604 526871.4883840958)
Food_Establishments_Health.18,MA'S KETTLE INC.,8949 BALTIMORE ST,SAVAGE,MD,20763,,PO BOX 52,POINT (1362252.160843024 535764.9633264567)
Food_Establishments_Health.19,MCDONALD'S,7878 POCOMOKE AVE,JESSUP,MD,20794,,,POINT (1373686.5450077616 546941.5104692046)
Food_Establishments_Health.20,MERRIWEATHER PT. PAV.-#3,10475 LITTLE PATUXENT PKWY,COLUMBIA,MD,21044,,,POINT (1351260.8700395718 561709.3380850903)
Food_Establishments_Health.21,MERRIWEATHER PT. PAV.-#5,10475 LITTLE PATUXENT PKWY,COLUMBIA,MD,21044,,,POINT (1351260.8700395718 561709.3380850903)
Food_Establishments_Health.22,MERRIWEATHER PT. PAV.-#1,10475 LITTLE PATUXENT PKWY,COLUMBIA,MD,21044,,,POINT (1351260.8700395718 561709.3380850903)
Food_Establishments_Health.23,BELLA MIA,4900 WATERLOO RD,ELLICOTT CITY,MD,21043,,STE B,POINT (1369333.7526944228 571667.8174803685)
Food_Establishments_Health.24,NIXON'S FARM,2800 NIXONS FARM LN,WEST FRIENDSHIP,MD,21794,,,POINT (1323830.932598056 592703.9235718198)
Food_Establishments_Health.25,BRUNSWICK ZONE NORMANDY,8419 BALTIMORE NATIONAL PK,ELLICOTT CITY,MD,21043,,,POINT (1367914.9174133723 589685.3866310698)
Food_Establishments_Health.26,ATHOLTON SWIM CLUB SNACK BAR,6731 SENECA DR,COLUMBIA,MD,21046,,,POINT (1352170.1772215487 552939.9526970127)
Food_Establishments_Health.27,PIZZA HUT,10120 BALTIMORE NATIONAL PK,ELLICOTT CITY,MD,21042,,,POINT (1351777.4220756802 587592.2533946685)
Food_Establishments_Health.28,PHOENIX EMPORIUM,8049 MAIN STREET,Ellicott City,MD,21043,,,POINT (1370244.2305325724 583111.859558529)
Food_Establishments_Health.29,ELKRIDGE YOUTH ORGANIZATION CONCESSION STAND @ ROCKBURN PARK,5400 LANDING RD,Elkridge,MD,21075,,,POINT (1380538.9809133965 566198.5118425234)
Food_Establishments_Health.30,SLAYTON HOUSE,10400 CROSS FOX LN,COLUMBIA,MD,21044,,,POINT (1348131.1207624357 565426.171432727)
Food_Establishments_Health.31,OTHER BARN,5851 ROBERT OLIVER PL,COLUMBIA,MD,21045,,,POINT (1355726.630673555 562306.080069014)
Food_Establishments_Health.32,TURF VALLEY COUNTRY CLUB BANQUETS,2700 TURF VALLEY RD,ELLICOTT CITY,MD,21042,,,POINT (1344805.5792404518 593490.604519729)
Food_Establishments_Health.33,TRATTORIA E PIZZERIA,8630 GUILFORD RD,COLUMBIA,MD,21046,,,POINT (1350561.4029765124 547425.5767965268)
Food_Establishments_Health.34,WENDY'S #52,6355 DOBBIN RD,COLUMBIA,MD,21044,,,POINT (1363458.8146928118 557510.1943943902)
Food_Establishments_Health.35,WENDY'S #70,9150 RT 108,Columbia,MD,21045,,,POINT (1360470.7148125465 571062.8809032375)
Food_Establishments_Health.36,WOODSTOCK INN,1415 WOODSTOCK RD,WOODSTOCK,MD,21163,,,POINT (1349047.1592174044 606011.3576125316)
Food_Establishments_Health.37,ATHOLTON ELEMENTARY SCHOOL,6700 SENECA DR,COLUMBIA,MD,21046,,,POINT (1351105.4654326744 553286.4669240679)
Food_Establishments_Health.38,BRYANT WOODS ELEMENTARY SCHOOL,5450 BLUE HERON LN,COLUMBIA,MD,21044,,,POINT (1349955.2957432088 566105.4446768109)
Food_Establishments_Health.39,CENTENNIAL HIGH SCHOOL,4300 CENTENNIAL LN,Ellicott City,MD,21042,,,POINT (1349521.8602953467 577681.1855743758)
Food_Establishments_Health.40,CENTENNIAL LANE ELEM. SCHOOL,3825 CENTENNIAL LN,ELLICOTT CITY,MD,21042,,,POINT (1351523.9750143376 582579.5036640919)
Food_Establishments_Health.41,CLARKSVILLE ELEMENTARY SCHOOL,12041 CLARKSVILLE PK,CLARKSVILLE,MD,21029,,,POINT (1332420.3295996143 565228.3305395772)
Food_Establishments_Health.42,CLARKSVILLE MIDDLE SCHOOL,6535 SOUTH TROTTER RD,CLARKSVILLE,MD,21029,,,POINT (1334029.3965086935 554984.2110382129)
Food_Establishments_Health.43,CLEMENS CROSSING ELEMENTARY SCHOOL,10320 QUARTERSTAFF RD,COLUMBIA,MD,21044,,,POINT (1348282.1354086862 556326.6610040088)
Food_Establishments_Health.44,DUNLOGGIN MIDDLE SCHOOL,9129 NORTHFIELD RD,ELLICOTT CITY,MD,21042,,,POINT (1359907.6291935816 579026.2695165599)
Food_Establishments_Health.45,ELKRIDGE ELEMENTARY SCHOOL,7075 MONTGOMERY RD,ELKRIDGE,MD,21075,,,POINT (1389141.2551328521 563519.7578558368)
Food_Establishments_Health.46,ELLICOTT MILLS MIDDLE SCHOOL,4445 MONTGOMERY RD,ELLICOTT CITY,MD,21043,,,POINT (1365970.4575108762 576711.2969354728)
Food_Establishments_Health.47,GLENELG HIGH SCHOOL,14025 BURNTWOODS RD,GLENELG,MD,21737,,,POINT (1311751.2242182367 585890.1193198767)
Food_Establishments_Health.48,CVS/PHARMACY #1517,8640 GUILFORD RD,COLUMBIA,MD,21046,,,POINT (1350653.8848141388 547261.684932379)
Food_Establishments_Health.49,GLENWOOD MIDDLE SCHOOL,2680 RT 97,GLENWOOD,MD,21738,,,POINT (1305478.2631179811 593971.74420662)
Food_Establishments_Health.50,GUILFORD ELEMENTARY SCHOOL,7335 OAKLAND MILLS RD,COLUMBIA,MD,21046,,,POINT (1360600.364983649 547322.2663893051)
Food_Establishments_Health.51,HAMMOND MIDDLE SCHOOL,8100 ALADDIN DR,Laurel,MD,20723,,,POINT (1346655.5086570196 539660.6144044404)
Food_Establishments_Health.52,HAMMOND ELEMENTARY SCHOOL,8110 ALADDIN DR,LAUREL,MD,20723,,,POINT (1346825.8391301162 539546.1827635801)
Food_Establishments_Health.53,HARPER'S CHOICE MIDDLE SCHOOL,5450 BEAVERKILL RD,Columbia,MD,21044,,,POINT (1344079.4797494686 567416.2869259499)
Food_Establishments_Health.54,HOWARD HIGH SCHOOL,8700 OLD ANNAPOLIS RD,ELLICOTT CITY,MD,21043,,,POINT (1365391.568033583 568098.779474508)
Food_Establishments_Health.55,JEFFERS HILL ELEMENTARY SCHOOL,6001 TAMAR DR,COLUMBIA,MD,21045,,,POINT (1361560.8883731721 560435.3715053846)
Food_Establishments_Health.56,LISBON ELEMENTARY SCHOOL,15901 FREDERICK RD,Woodbine,MD,21797,,,POINT (1292793.3254969877 607167.0879188165)
Food_Establishments_Health.57,LONGFELLOW ELEMENTARY SCHOOL,5470 HESPERUS DR,COLUMBIA,MD,21044,,,POINT (1345890.1921842583 568118.095301354)
Food_Establishments_Health.58,MT. HEBRON HIGH SCHOOL,9440 OLD FREDERICK RD,ELLICOTT CITY,MD,21042,,,POINT (1357580.3647226836 594579.6074241824)
Food_Establishments_Health.59,NORTHFIELD ELEMENTARY SCHOOL,9125 NORTHFIELD RD,ELLICOTT CITY,MD,21042,,,POINT (1360389.646872602 578798.5768910118)
Food_Establishments_Health.60,OAKLAND MILLS HIGH SCHOOL,9410 KILIMANJARO RD,Columbia,MD,21045,,,POINT (1357881.2233590118 561565.3473758748)
Food_Establishments_Health.61,CRADLEROCK ELEMENTARY  SCHOOL,6700 CRADLEROCK WAY,Columbia,MD,21045,,,POINT (1356882.653643883 555563.9785076355)
Food_Establishments_Health.62,PATUXENT VALLEY MIDDLE SCHOOL,9151 VOLLMERHAUSEN RD,JESSUP,MD,20794,,,POINT (1360999.8514025093 539112.7473157179)
Food_Establishments_Health.63,PHELPS LUCK ELEMENTARY SCHOOL,5370 OLDSTONE CT,Columbia,MD,21045,,,POINT (1363860.3497599738 566522.4909382582)
Food_Establishments_Health.64,RUNNING BROOK ELEMENTARY SCHOOL,5215 WEST RUNNING BROOK RD,COLUMBIA,MD,21044,,,POINT (1352685.2659374417 568966.8210264049)
Food_Establishments_Health.65,ST. JOHN'S LANE ELEM. SCHOOL,2960 SAINT JOHNS LN,ELLICOTT CITY,MD,21042,,,POINT (1359416.2462651816 591462.1500368575)
Food_Establishments_Health.66,STEVENS FOREST ELEMENTARY SCHOOL,6045 STEVENS FOREST RD,COLUMBIA,MD,21045,,,POINT (1356243.76803775 560207.9715438796)
Food_Establishments_Health.67,SWANSFIELD ELEMENTARY SCHOOL,5610 CEDAR LN,COLUMBIA,MD,21044,,,POINT (1343862.323029473 564527.6928203455)
Food_Establishments_Health.68,TALBOTT SPRINGS ELEMENTARY SCHOOL,9550 BASKET RING RD,COLUMBIA,MD,21045,,,POINT (1356652.61970599 563234.703077837)
Food_Establishments_Health.69,THUNDER HILL ELEMENTARY SCHOOL,9357 MELLENBROOK RD,Columbia,MD,21045,,,POINT (1359206.1134822206 569009.2573126574)
Food_Establishments_Health.70,WATERLOO ELEMENTARY SCHOOL,5940 WATERLOO RD,Columbia,MD,21045,,,POINT (1369630.5140341476 561122.2540145896)
Food_Establishments_Health.71,WEST FRIENDSHIP ELEMENTARY SCHOOL,12500 FREDERICK RD,WEST FRIENDSHIP,MD,21794,,,POINT (1327637.3211428877 595481.012676995)
Food_Establishments_Health.72,LAUREL WOODS ELEMENTARY SCHOOL,9250 NORTH LAUREL RD,LAUREL,MD,20723,,,POINT (1357149.8559152526 528468.5560674071)
Food_Establishments_Health.73,WILDE LAKE MIDDLE SCHOOL,10481 CROSS FOX LN,COLUMBIA,MD,21044,,,POINT (1347299.662215929 565005.0278746759)
Food_Establishments_Health.74,WORTHINGTON ELEMENTARY SCHOOL,4570 ROUNDHILL RD,ELLICOTT CITY,MD,21043,,,POINT (1370297.2027243772 574824.1991854286)
Food_Establishments_Health.75,JESSUP BP  AMOCO,8810 WASHINGTON BLVD,JESSUP,MD,20794,,,POINT (1366173.5663568024 537994.4780069526)
Food_Establishments_Health.76,BOARMAN'S MEAT MARKET,13402 CLARKSVILLE PK,HIGHLAND,MD,20777,,BOX 280,POINT (1324214.6151585877 550840.6735157057)
Food_Establishments_Health.77,STONEHOUSE,8775 CLOUDLEAP CT,Columbia,MD,21045,,,POINT (1364498.6500380207 560935.8270191215)
Food_Establishments_Health.78,BOB EVANS FARMS INC #274,8325 BENSON DR,COLUMBIA,MD,21045,21045,,POINT (1368888.6106848358 553427.2383288092)
Food_Establishments_Health.79,HICKORY RIDGE MOBIL FOOD MART,6440 FREETOWN RD,COLUMBIA,MD,21044,,,POINT (1345834.000687979 556639.8115301484)
Food_Establishments_Health.80,TGI FRIDAYS #238,8330 BENSON DR,COLUMBIA,MD,21045,,,POINT (1368430.8841213945 553617.7626208809)
Food_Establishments_Health.81,HAWTHORN POOL SNACK BAR,6175 SUNNY SPRING,COLUMBIA,MD,21044,,,POINT (1345257.4525230306 561052.5999723268)
Food_Establishments_Health.82,BJ'S WHOLESALE CLUB #60,9011 SNOWDEN RIVER PKWY,COLUMBIA,MD,21045,,,POINT (1363874.9829621299 551735.0548314835)
Food_Establishments_Health.83,BERTUCCI'S,9081 SNOWDEN RIVER PKWY,COLUMBIA,MD,21045,,,POINT (1362619.746881184 551536.0432821612)
Food_Establishments_Health.84,CATTAIL CREEK COUNTRY CLUB,3600 CATTAIL CREEK DR,GLENWOOD,MD,21738,,,POINT (1299951.302663641 584826.8708512181)
Food_Establishments_Health.85,LARRILAND FARM,2415 RT 94,WOODBINE,MD,21797,,,POINT (1283054.6367980933 600255.533876471)
Food_Establishments_Health.86,GIANT FOOD STORE #136,9220 BALTIMORE NATIONAL PK,ELLICOTT CITY,MD,21043,,,POINT (1360122.7372652756 587132.4781829254)
Food_Establishments_Health.87,GIANT FOOD STORE #155,7200 CRADLEROCK WAY,COLUMBIA,MD,21045,,,POINT (1356830.8521082506 553467.0406386736)
Food_Establishments_Health.88,HIGH'S #89,13605 TRIADELPHIA RD,Glenelg,MD,21737,,,POINT (1316127.1369909819 581500.7440011479)
Food_Establishments_Health.89,RITE AID #314,9150 BALTIMORE NATIONAL PK,ELLICOTT CITY,MD,21042,,,POINT (1361195.9363114003 586944.2952031986)
Food_Establishments_Health.90,SAFEWAY #1281,10000 BALTIMORE NATIONAL PK,ELLICOTT CITY,MD,21042,,,POINT (1353230.7917138191 587578.4981846417)
Food_Establishments_Health.91,SYSCO'S DISCOUNT FOOD CENTER,7540 WASHINGTON BLVD,Elkridge,MD,21075,,,POINT (1377128.8594829508 551056.6595795291)
Food_Establishments_Health.92,WEIS MARKETS #122,9270 ALL SAINTS RD,Laurel,MD,20707,,,POINT (1354309.8440408064 529528.2925675482)
Food_Establishments_Health.93,RUBY TUESDAY #3969,9071 SNOWDEN RIVER PKWY,COLUMBIA,MD,21046,,,POINT (1362495.0719988144 551373.0294101428)
Food_Establishments_Health.94,ROCKBURN ELEMENTARY SCHOOL,6145 MONTGOMERY RD,ELKRIDGE,MD,21075,,,POINT (1377887.4446827204 563969.5824901138)
Food_Establishments_Health.95,THE JOHNS HOPKINS UNIVERSITY APPLIED PHYSICS LAB. LLC,11100 JOHNS HOPKINS RD,LAUREL,MD,20723,20723,STATION BR,POINT (1341138.791444189 545444.8265526838)
Food_Establishments_Health.96,WOCKENFUSS CANDIES,10300 LITTLE PATUXENT PKWY,COLUMBIA,MD,21044,,,POINT (1351971.1656722263 564203.7137246106)
Food_Establishments_Health.97,MOUNT VIEW MIDDLE SCHOOL,12101 WOODFORD DR,MARRIOTTSVILLE,MD,21104,,,POINT (1330198.7168482826 602486.8045412254)
Food_Establishments_Health.98,LONGWOOD SENIOR CENTER,6150 FORELAND GARTH,COLUMBIA,MD,21045,,,POINT (1363979.7566895674 560398.2031719083)
Food_Establishments_Health.99,SUSHI KING,6490 DOBBIN RD,COLUMBIA,MD,21045,,,POINT (1363224.976122358 555785.232524235)
Food_Establishments_Health.100,SNOWDEN RIVER SHELL,9101 SNOWDEN RIVER PKWY,COLUMBIA,MD,21046,,,POINT (1363204.7823033829 552217.9505026331)
Food_Establishments_Health.101,GENERAL NUTRITION CENTER #1628,9210 BALTIMORE NATIONAL PK,ELLICOTT CITY,MD,21042,,,POINT (1360097.8608216103 587450.6039977978)
Food_Establishments_Health.102,DUNKIN DONUTS,8455 BALTIMORE NATIONAL PK,Ellicott City,MD,21043,,,POINT (1367297.396282387 589330.6778108071)
Food_Establishments_Health.103,EL AZTECA INC,12210 CLARKSVILLE PK,CLARKSVILLE,MD,21029,,,POINT (1330141.9400239172 563125.5393897528)
Food_Establishments_Health.104,LEDO PIZZA,6955 OAKLAND MILLS RD SUITE H,COLUMBIA,MD,21045,,,POINT (1361232.5193167904 551144.7514565084)
Food_Establishments_Health.105,ELKRIDGE FURNACE INN,5745 FURNACE AVENUE,ELKRIDGE,MD,21075,,,POINT (1396509.0724184234 563378.6937870525)
Food_Establishments_Health.106,STAPLES THE OFFICE SUPERSTORE,9091 SNOWDEN RIVER PKWY,COLUMBIA,MD,21045,,,POINT (1362840.4155696973 551880.5088609146)
Food_Establishments_Health.107,HIGH'S #65,12780 FREDERICK RD,West Friendship,MD,21794,,,POINT (1325118.9470518315 596087.4125743416)
Food_Establishments_Health.108,LOCUST PARK POOL SNACK BAR,8995 LAMBSKIN LN,Columbia,MD,21045,,,POINT (1362551.2634950937 562610.1580098168)
Food_Establishments_Health.109,DORSEY SEARCH POOL SNACK BAR,4649 COLUMBIA RD,Ellicott City,MD,21043,,,POINT (1357866.5901568558 576727.3934578444)
Food_Establishments_Health.110,DICKINSON POOL SNACK BAR,7425 WEATHERWORN WAY,COLUMBIA,MD,21046,,,POINT (1348789.9075235012 546139.0256629669)
Food_Establishments_Health.111,CLEMENS CROSSING POOL SNACK BAR,6400 MARTIN RD,Columbia,MD,21044,,,POINT (1349104.521369856 556347.4401510705)
Food_Establishments_Health.112,CLARY'S FOREST POOL SNACK BAR,11615 LITTLE PATUXENT PKWY,COLUMBIA,MD,21044,,,POINT (1341287.4647780943 560424.5429357891)
Food_Establishments_Health.113,MCDONALD'S #2610,702 LISBON CENTER DR,WOODBINE,MD,21797,,,POINT (1293105.598030998 613067.1950281359)
Food_Establishments_Health.114,STANLEY ZANDICK @ U.S.#1 FLEA MKT,7540 WASHINGTON BLVD,Elkridge,MD,21075,,,POINT (1377128.8594829508 551056.6595795291)
Food_Establishments_Health.115,MERRIWEATHER POST TENT #4,10475 LITTLE PATUXENT PKWY,COLUMBIA,MD,21044,,,POINT (1351260.8700395718 561709.3380850903)
Food_Establishments_Health.116,MARSHALLS #530,9031 SNOWDEN RIVER PKWY,COLUMBIA,MD,21046,,,POINT (1363586.4162156126 551339.0803811408)
Food_Establishments_Health.117,KELSEY'S RESTAURANT INC,8480 BALTIMORE NATIONAL PK,ELLICOTT CITY,MD,21043,21043,,POINT (1366475.8883133463 590080.4830892831)
Food_Establishments_Health.118,MANOR WOODS ELEMENTARY SCHOOL,11575 FREDERICK RD,ELLICOTT CITY,MD,21042,,,POINT (1336731.5636188297 591238.8473719561)
Food_Establishments_Health.119,RIVER HILL HIGH SCHOOL,12101 CLARKSVILLE PK,Clarksville,MD,21029,,,POINT (1332510.4701248955 563958.168592432)
Food_Establishments_Health.120,MCDONALD'S,8305 BENSON DR,COLUMBIA,MD,21045,,,POINT (1369401.3580883837 553743.900823466)
Food_Establishments_Health.121,ELKRIDGE VOLUNTEER FIRE DEPT.,6275 OLD WASHINGTON BLVD,ELKRIDGE,MD,21075,,,POINT (1390300.2047436112 560691.1598790723)
Food_Establishments_Health.122,MARYLAND SCHOOL FOR THE DEAF,8169 OLD MONTGOMERY RD,COLUMBIA,MD,21044,21044,PO BOX 894,POINT (1370488.3123445353 561119.9127022446)
Food_Establishments_Health.123,EAST COLUMBIA 50 CENTER,6600 CRADLEROCK WAY,COLUMBIA,MD,21045,,,POINT (1355755.897077867 555074.6442275372)
Food_Establishments_Health.124,MERRIWEATHER PT. PAV.-#6,10475 LITTLE PATUXENT PKWY,Columbia,MD,21044,,,POINT (1351260.8700395718 561709.3380850903)
Food_Establishments_Health.125,PIZZA BOLI'S,10451 TWIN RIVERS RD,COLUMBIA,MD,21044,,,POINT (1347846.358648479 565651.2300818871)
Food_Establishments_Health.126,FRANKS DINER,7395 CEDAR AVE,Jessup,MD,20794,,,POINT (1371917.390867095 546830.5907968618)
Food_Establishments_Health.127,WATERLOO EXXON,7930 WASHINGTON BLVD,JESSUP,MD,20794,,,POINT (1372768.4579044909 547990.4183997503)
Food_Establishments_Health.128,UNITED METHODIST CHURCH OF SAVAGE,9050 BALTIMORE ST,SAVAGE,MD,20763,,,POINT (1361675.6126780757 535913.9293244054)
Food_Establishments_Health.129,CHAPLEGATE PRESBYTERIAN CHURCH,2600 MARRIOTTSVILLE RD,MARRIOTTSVILLE,MD,21104,,,POINT (1339310.5191668118 594886.02667733)
Food_Establishments_Health.130,HARPERS FARM CAR CARE,5485 HARPERS FARM RD,COLUMBIA,MD,21044,,,POINT (1343555.903776325 566670.5789440775)
Food_Establishments_Health.131,BURGER KING  9129,7106 MINSTREL WAY,COLUMBIA,MD,21045,,,POINT (1356731.6389976325 550385.8735926957)
Food_Establishments_Health.132,LEELYNN'S DINING ROOM AND LOUNGE,9495 OLD ANNAPOLIS RD,ELLICOTT CITY,MD,21042,,,POINT (1357637.7268751352 573232.9847829797)
Food_Establishments_Health.133,ELKRIDGE LANDING MIDDLE SCHOOL,7085 MONTGOMERY RD,ELKRIDGE,MD,21075,,,POINT (1389147.1084137144 563041.8374734202)
Food_Establishments_Health.134,ELKRIDGE SENIOR CENTER,6540 WASHINGTON BLVD,ELKRIDGE,MD,21075,,,POINT (1387123.629219576 559231.644296028)
Food_Establishments_Health.135,C. PETERSON ACTIVITY CENTER,5042 ILCHESTER RD,ELLICOTT CITY,MD,21043,,,POINT (1375820.943874243 570376.8763861619)
Food_Establishments_Health.136,APNA BAZAR,10119 WASHINGTON BLVD,LAUREL,MD,20707,,C,POINT (1357830.885143595 524524.3227582654)
Food_Establishments_Health.137,FAST WOK,9150 BALTIMORE NATIONAL PK,Ellicott City,MD,21042,,5,POINT (1361195.9363114003 586944.2952031986)
Food_Establishments_Health.138,THE MEETING HOUSE,5885 ROBERT OLIVER PL,COLUMBIA,MD,21045,,,POINT (1356086.0221185077 561850.1094898315)
Food_Establishments_Health.139,PIZZA HUT,7106 MINSTREL WAY,COLUMBIA,MD,21045,,UNIT #6,POINT (1356731.6389976325 550385.8735926957)
Food_Establishments_Health.140,CVS/PHARMACY #2043,3300 CENTENNIAL LN,ELLICOTT CITY,MD,21042,,A,POINT (1351505.829843664 587155.891306375)
Food_Establishments_Health.141,JOES PLACE,7130 MINSTREL WAY,COLUMBIA,MD,21045,,,POINT (1355829.6484167336 551046.1236739766)
Food_Establishments_Health.142,CIRCLE D TENNIS CLUB,15535 CARRS MILL RD,WOODBINE,MD,21797,,,POINT (1298248.29059672 598681.00132448)
Food_Establishments_Health.143,MCDONALD'S #2978,9261 ALL SAINTS RD,LAUREL,MD,20723,,,POINT (1354715.769068615 529072.6146524089)
Food_Establishments_Health.144,HIGH'S #12,2465 RT 97,GLENWOOD,MD,21738,,,POINT (1306722.3779652885 596025.9531252863)
Food_Establishments_Health.145,SYMPHONY WOODS LOBBY SHOP,5950 SYMPHONY WOODS RD,COLUMBIA,MD,21044,,,POINT (1352535.1292833206 561344.9713514047)
Food_Establishments_Health.146,LA FIESTA RESTAURANT,8825 CENTRE PARK DR,COLUMBIA,MD,21045,,,POINT (1364566.2554319818 568574.0658805365)
Food_Establishments_Health.147,CHINA VILLAGE,4882 MONTGOMERY RD,ELLICOTT CITY,MD,21043,,,POINT (1369130.0585204107 571815.9054861878)
Food_Establishments_Health.148,TIMBERS AT TROY GOLF CLUB,6100 MARSHALEE DR,ELKRIDGE,MD,21075,,,POINT (1377212.8540633265 559557.0867119784)
Food_Establishments_Health.149,ST.  AUGUSTINE HALL,5990 OLD WASHINGTON RD,Elkridge,MD,21075,,,POINT (1392728.7309734293 562654.3502803281)
Food_Establishments_Health.150,HUNAN LEGEND,4725 DORSEY HALL DR,Ellicott City,MD,21042,,,POINT (1356993.865980269 573988.0580142319)
Food_Establishments_Health.151,7-ELEVEN,5740 COLUMBIA RD,COLUMBIA,MD,21044,,,POINT (1352977.3446524765 568661.2797653865)
Food_Establishments_Health.152,BARE BONES,9150 BALTIMORE NATIONAL PK,Ellicott City,MD,21043,,,POINT (1361195.9363114003 586944.2952031986)
Food_Establishments_Health.153,STATION HOUSE - LEDO PIZZA,11845 SCAGGSVILLE RD,Fulton,MD,20759,,,POINT (1333766.5841979708 541036.7207351953)
Food_Establishments_Health.154,BOLLMAN BRIDGE ELEMENTARY SCHOOL,8200 SAVAGE GUILFORD RD,JESSUP,MD,20794,,,POINT (1361103.161809731 538799.5967895784)
Food_Establishments_Health.155,CALVARY LUTHERAN CHURCH,16151 OLD FREDERICK RD,MT. AIRY,MD,21771,21771,,POINT (1290893.3505290463 612785.3595546103)
Food_Establishments_Health.156,PIZZA HUT,9160 RT 108,COLUMBIA,MD,21045,,,POINT (1360623.1927790125 571214.4808775742)
Food_Establishments_Health.157,ALEXANDRA'S,2700 TURF VALLEY RD,Ellicott City,MD,21042,,,POINT (1344805.5792404518 593490.604519729)
Food_Establishments_Health.158,PIZZA HUT,706 LISBON CENTER DR,WOODBINE,MD,21797,,,POINT (1293037.9926370368 612693.7557091134)
Food_Establishments_Health.159,PIZZA HUT,9155 MAIER RD,LAUREL,MD,20707,,,POINT (1361730.0481900962 529855.4909677575)
Food_Establishments_Health.160,ICE KREME MILL LTD PORK HOUSE,2210 FAIRGROUNDS RD,WEST FRIENDSHIP,MD,21794,21794,,POINT (1321511.277392279 598764.4105767695)
Food_Establishments_Health.161,HONEYBAKED HAM & CAFE CO.,4725 DORSEY HALL DR,ELLICOTT CITY,MD,21043,,,POINT (1356993.865980269 573988.0580142319)
Food_Establishments_Health.162,WINTER GROWTH INC.,5460 RUTH KEETON WAY,COLUMBIA,MD,21044,,,POINT (1344243.6642776595 567044.8962552293)
Food_Establishments_Health.163,GLENELG COUNTRY SCHOOL,12793 FOLLY QUARTER RD,Ellicott City,MD,21042,,,POINT (1323151.074025886 577279.6505072138)
Food_Establishments_Health.164,JENNY CRAIG WEIGHT LOSS CTR,5570 STERRETT PL,COLUMBIA,MD,21044,,,POINT (1352604.7833255834 566018.816120047)
Food_Establishments_Health.165,DOMINO'S PIZZA  #4688,9400 SNOWDEN RIVER PKWY,COLUMBIA,MD,21045,,STE 123,POINT (1358484.6966159274 549984.0458614905)
Food_Establishments_Health.166,WATERLOO PIZZA,6590 OLD WATERLOO RD,Elkridge,MD,21075,,,POINT (1371129.8319270564 554543.1663252295)
Food_Establishments_Health.167,SUBWAY,6240 WASHINGTON BLVD,ELKRIDGE,MD,21075,,,POINT (1390222.9414362274 561978.5890047617)
Food_Establishments_Health.168,CHINA DRAGON,8610 WASHINGTON BLVD,JESSUP,MD,20794,,STE #105,POINT (1366534.1284579274 539137.3310953401)
Food_Establishments_Health.169,ARIRANG HILL CARRY OUT,10750 HICKORY RIDGE RD #101,COLUMBIA,MD,21044,,,POINT (1345044.3930996386 562629.4738366627)
Food_Establishments_Health.170,COLUMBIA VANTAGE HOUSE (Main Kitchen),5400 VANTAGE POINT RD,COLUMBIA,MD,21044,,,POINT (1353299.8604279957 566990.1680791656)
Food_Establishments_Health.171,FRANKS SEAFOOD,7901 OCEANO AVE,JESSUP,MD,20794,,B,POINT (1373812.6832103466 542706.6617652437)
Food_Establishments_Health.172,DEEP RUN ELEMENTARY SCHOOL,6925 OLD WATERLOO RD,ELKRIDGE,MD,21075,,,POINT (1372807.0895581827 552907.7596522693)
Food_Establishments_Health.173,WAVERLY ELEMENTARY SCHOOL,10220 WETHERBURN RD,ELLICOTT CITY,MD,21042,,,POINT (1349495.2278674226 596714.59161875)
Food_Establishments_Health.174,TERSIGUEL'S INC,8293 MAIN ST,ELLICOTT CITY,MD,21043,21043,,POINT (1369096.1094914086 583144.6379313585)
Food_Establishments_Health.175,GIANT FOOD STORE #143,4715 DORSEY HALL DR,ELLICOTT CITY,MD,21043,,,POINT (1356832.0227644232 574263.4548788087)
Food_Establishments_Health.176,RITE AID #2253,7270 MONTGOMERY RD,Elkridge,MD,21075,,,POINT (1388962.144738462 561215.3211803021)
Food_Establishments_Health.177,PIZZA HUT,7260 MONTGOMERY RD,ELKRIDGE,MD,21075,,,POINT (1389066.0404737701 561380.9690287085)
Food_Establishments_Health.178,HISTORIC OAKLAND,5430 VANTAGE POINT RD,COLUMBIA,MD,21044,,,POINT (1353208.549246542 566566.3905447264)
Food_Establishments_Health.179,COLUMBIA VANTAGE HOUSE CONV.,5400 VANTAGE POINT RD,COLUMBIA,MD,21044,,,POINT (1353299.8604279957 566990.1680791656)
Food_Establishments_Health.180,COLUMBIA COURTYARD HOTEL,8910 STANFORD BLVD,COLUMBIA,MD,21045,,,POINT (1364657.5666134355 556191.4502160869)
Food_Establishments_Health.181,WILLOW SPRINGS GOLF COURSE,12980 LIVESTOCK RD,W. FRIENDSHIP,MD,21794,21794,PO BOX 55,POINT (1322681.0555726336 600035.1578520009)
Food_Establishments_Health.182,SUPREME SPORTS CLUB,7080 DEEPAGE DR,COLUMBIA,MD,21045,,,POINT (1358102.4773756114 549975.5586042401)
Food_Establishments_Health.183,MAYFIELD WOODS MIDDLE SCHOOL,7950 RED BARN WAY,ELKRIDGE,MD,21075,,,POINT (1372836.3559624949 557618.480090345)
Food_Establishments_Health.184,HOWARD COUNTY YOUTH PROGRAM INC.,3300 NORBERTS WAY,ELLICOTT CITY,MD,21042,,,POINT (1347699.7339628753 587620.6418068511)
Food_Establishments_Health.185,PATUXENT INSTITUTION WOMENS,7555 WATERLOO RD,JESSUP,MD,20794,,,POINT (1375344.4868120418 545705.5902151046)
Food_Establishments_Health.186,BURLEIGH MANOR MIDDLE SCHOOL,4200 CENTENNIAL LN,ELLICOTT CITY,MD,21042,,,POINT (1349856.667960677 578560.9336879975)
Food_Establishments_Health.187,BAUGHER'S PRODUCE & SNOWBALLS,4775 BAUGHER FARM RD,ELLICOTT CITY,MD,21043,,,POINT (1369068.5990713553 572964.3191913946)
Food_Establishments_Health.188,HIGH'S #40,3095 ROGERS AVE,Ellicott City,MD,21043,,,POINT (1366365.5539690896 590244.6676174741)
Food_Establishments_Health.189,TODAY'S CATCH INC,10451 TWIN RIVERS RD,COLUMBIA,MD,21044,21044,,POINT (1347846.358648479 565651.2300818871)
Food_Establishments_Health.190,GIANT FOOD STORE #111,6480 FREETOWN RD,COLUMBIA,MD,21044,,,POINT (1345235.5027197965 556454.8478548959)
Food_Establishments_Health.191,MCDONALD'S,5485 HARPERS FARM RD,COLUMBIA,MD,21044,,,POINT (1343555.903776325 566670.5789440775)
Food_Establishments_Health.192,DOMINO'S PIZZA L.L.C.#6076,6470 FREETOWN RD,Columbia,MD,21044,,,POINT (1345339.6911191477 556329.5876444401)
Food_Establishments_Health.193,CLYDES OF COLUMBIA,10221 WINCOPIN CIR,COLUMBIA,MD,21044,,,POINT (1353116.945401045 564174.4473202985)
Food_Establishments_Health.194,MANDARIN HOUSE RESTAURANT,9105 ALL SAINTS ROAD,LAUREL,MD,20723,,C,POINT (1356059.3896905836 529943.2901806938)
Food_Establishments_Health.195,OLIVE GARDEN ITALIAN RESTAURANT #1261,8315 BENSON DR,Columbia,MD,21045,,,POINT (1369157.861604507 553410.5564783512)
Food_Establishments_Health.196,TOMATO PALACE,10221 WINCOPIN CIR,Columbia,MD,21044,,,POINT (1353116.945401045 564174.4473202985)
Food_Establishments_Health.197,NORTH ST JOHNS LANE SWIM  & TENNIS CLUB,9200 MARYDELL RD,Ellicott City,MD,21043,,,POINT (1360636.9479890391 592629.8795689102)
Food_Establishments_Health.198,PIZZA HUT,12268 CLARKSVILLE PK,CLARKSVILLE,MD,21029,,,POINT (1329387.4521207514 562213.5982313878)
Food_Establishments_Health.199,RETREAT & CONF CTR. @ BON SECOURS,1525 MARRIOTTSVILLE RD,MARRIOTTSVILLE,MD,21104,,,POINT (1341593.5913671989 605677.1352752876)
Food_Establishments_Health.200,FOREST RIDGE ELEMENTARY SCHOOL,9550 GORMAN RD,Laurel,MD,20723,,,POINT (1357724.355431899 534826.9750682539)
Food_Establishments_Health.201,OAKLAND MILLS MIDDLE SCHOOL,9540 KILIMANJARO RD,Columbia,MD,21045,,,POINT (1356659.936307068 561185.4694479037)
Food_Establishments_Health.202,PATAPSCO MIDDLE SCHOOL,8885 OLD FREDERICK RD,ELLICOTT CITY,MD,21043,,,POINT (1364085.1157450909 594172.8044042441)
Food_Establishments_Health.203,POINTERS RUN ELEMENTARY SCHOOL,6600 SOUTH TROTTER RD,CLARKSVILLE,MD,21029,,,POINT (1333199.4012824022 555111.5198969705)
Food_Establishments_Health.204,LINWOOD CENTER,3421 MARTHA BUSH DR,ELLICOTT CITY,MD,21043,,,POINT (1368582.4840957313 586382.6729044493)
Food_Establishments_Health.205,CLIFTON T. PERKINS HOSPITAL,8450 DORSEY RUN RD,JESSUP,MD,20794,,,POINT (1370382.6606249686 536543.4496811586)
Food_Establishments_Health.206,HOWARD COUNTY DETENTION CENTER,7301 WATERLOO RD,JESSUP,MD,20794,,BOX 250,POINT (1374189.6344978865 547292.1219928636)
Food_Establishments_Health.207,PATUXENT INSTITUTION,7555 WATERLOO RD,JESSUP,MD,20794,,,POINT (1375344.4868120418 545705.5902151046)
Food_Establishments_Health.208,HARMONY HALL,6336 CEDAR LN,Columbia,MD,21044,,,POINT (1344179.8635162592 557390.7874647968)
Food_Establishments_Health.209,LORIEN NURSING AND REHABILITATION,6334 CEDAR LN,COLUMBIA,MD,21044,,,POINT (1344866.746025464 557567.5565468419)
Food_Establishments_Health.210,MEALS ON WHEELS OF CENTRAL MD,5470 RUTH KEETON WAY,COLUMBIA,MD,21044,,,POINT (1344003.6797623003 566976.705533182)
Food_Establishments_Health.211,HOWARD COUNTY GENERAL HOSPITAL,5755 CEDAR LN,COLUMBIA,MD,21044,,,POINT (1344671.5391087024 563652.6273314138)
Food_Establishments_Health.212,LONG REACH HIGH SCHOOL,6101 OLD DOBBIN LN,COLUMBIA,MD,21045,,,POINT (1365833.7834027389 560609.7992750847)
Food_Establishments_Health.213,GREAT ROOM AT SAVAGE MILL,8600 FOUNDRY ST,SAVAGE,MD,20763,,,POINT (1361596.0080583468 535040.6198197323)
Food_Establishments_Health.214,WILDE LAKE HIGH SCHOOL,5460 TRUMPETER RD,COLUMBIA,MD,21044,,,POINT (1348330.1323117581 564770.0186480497)
Food_Establishments_Health.215,ILCHESTER ELEMENTARY SCHOOL,4981 ILCHESTER RD,ELLICOTT CITY,MD,21043,,,POINT (1376378.1762123452 569838.9598749054)
Food_Establishments_Health.216,ROYAL FARMS #75,8686 WASHINGTON BLVD,SAVAGE,MD,20763,,,POINT (1366390.1377487117 538711.2122485559)
Food_Establishments_Health.217,TARGET T1042,4390 MONTGOMERY RD,ELLICOTT CITY,MD,21043,,,POINT (1364078.3844720991 576675.0065941258)
Food_Establishments_Health.218,TARGET T1044,6111 DOBBIN RD,Columbia,MD,21045,,,POINT (1365261.039870351 557530.6808774087)
Food_Establishments_Health.219,PHILLIPS SCHOOL-LAUREL,8920 WHISKEY BOTTOM RD,LAUREL,MD,20723,,,POINT (1361264.7123615337 526759.3980555804)
Food_Establishments_Health.220,BARNES & NOBLE BOOKSELLERS,4300 MONTGOMERY RD,ELLICOTT CITY,MD,21043,,,POINT (1363788.3544053661 577901.2689348027)
Food_Establishments_Health.221,JUNCTION DELI,10010 JUNCTION DR,ANNAPOLIS JUNCTION,MD,20701,,STE # 106,POINT (1369471.0121306465 530625.1974011657)
Food_Establishments_Health.222,SAFEWAY #1459,4370 MONTGOMERY RD,ELLICOTT CITY,MD,21043,,,POINT (1363702.6038407318 577063.9571074336)
Food_Establishments_Health.223,ST. PAULS CHURCH,3755 SAINT PAUL ST,ELLICOTT CITY,MD,21043,,,POINT (1370009.5139699893 582782.3198459748)
Food_Establishments_Health.224,SUNRISE OF COLUMBIA,6500 FREETOWN RD,COLUMBIA,MD,21044,,,POINT (1345964.528851211 556249.1050325818)
Food_Establishments_Health.225,SILVER ARROW,8167 MAIN ST #101,ELLICOTT CITY,MD,21043,,,POINT (1369714.5086145233 583007.0858310917)
Food_Establishments_Health.226,JOHN'S DELI,10630 LITTLE PATUXENT PKWY,COLUMBIA,MD,21044,,,POINT (1348921.3136788625 563688.9176727608)
Food_Establishments_Health.227,HIGH'S #25,2091 ROXBURY MILL RD,COOKSVILLE,MD,21723,,,POINT (1306756.0343302474 599645.0366825205)
Food_Establishments_Health.228,CHURCH OF THE RESURRECTION,3175 PAULSKIRK DR,ELLICOTT CITY,MD,21042,,,POINT (1360148.7843651134 588285.281848779)
Food_Establishments_Health.229,BONAPARTE BREADS,8600 FOUNDRY ST,SAVAGE,MD,20763,,,POINT (1361596.0080583468 535040.6198197323)
Food_Establishments_Health.230,PEKING CHEF,6420 FREETOWN RD,COLUMBIA,MD,21044,,,POINT (1345362.5189145112 556584.7906900416)
Food_Establishments_Health.231,CARRABBA'S ITALIAN GRILL OF HOWARD COUNTY INC,4430 LONG GATE PKWY,ELLICOTT CITY,MD,21043,21043,,POINT (1364689.1743300925 576850.8976840415)
Food_Establishments_Health.232,SNAX CONVENIENCE,6305 WASHINGTON BLVD,ELKRIDGE,MD,21075,,STE #A,POINT (1389646.100607236 560962.7521110886)
Food_Establishments_Health.233,FREESTATE GAS,12160 RT 108,CLARKSVILLE,MD,21029,,,POINT (1331280.403151658 563824.4211247257)
Food_Establishments_Health.234,BURGER KING #10478,7940 WASHINGTON BLVD,JESSUP,MD,20794,,,POINT (1372591.1034943596 547765.6524146334)
Food_Establishments_Health.235,GIANT FOOD STORE #344,6020 MARSHALEE DR,Elkridge,MD,21075,,,POINT (1375079.9185170606 562041.2191099895)
Food_Establishments_Health.236,CHECKERS FAST FOOD,9441 BALTIMORE NATIONAL PK,ELLICOTT CITY,MD,21042,,,POINT (1358564.3012356563 586621.4867636361)
Food_Establishments_Health.237,MCDONALD'S,4396 MONTGOMERY RD,ELLICOTT CITY,MD,21043,,,POINT (1364443.6291979142 577369.4983684518)
Food_Establishments_Health.238,WAL-MART STORE #2412,3200 NORTH RIDGE RD,ELLICOTT CITY,MD,21043,,,POINT (1363045.280399882 588596.9690547028)
Food_Establishments_Health.239,FOREST HILL SWIM CLUB INC.,4310 COLUMBIA RD,Ellicott City,MD,21042,,,POINT (1361173.9865081662 577686.1608631088)
Food_Establishments_Health.240,HUNAN DIAMOND,5485 HARPERS FARM RD,COLUMBIA,MD,21044,,,POINT (1343555.903776325 566670.5789440775)
Food_Establishments_Health.241,ELLICOTT MILLS BREWING CO,8308 MAIN ST,ELLICOTT CITY,MD,21043,,,POINT (1369106.938061004 583273.4101103318)
Food_Establishments_Health.242,SONOMA'S BAR & GRILLE,7284 CRADLEROCK WAY,COLUMBIA,MD,21045,,,POINT (1356604.330138875 553545.7672662731)
Food_Establishments_Health.243,LUCKYS CHINA INN,5865 ROBERT OLIVER PL,COLUMBIA,MD,21045,,D,POINT (1355943.7873935509 562352.9063159134)
Food_Establishments_Health.244,MURRAY HILL MIDDLE SCHOOL,9989 WINTER SUN RD,LAUREL,MD,20723,,,POINT (1352725.0682473062 538545.5644001494)
Food_Establishments_Health.245,HOLLIFIELD STATION ELEMENTARY SCHOOL,8701 STONEHOUSE DR,ELLICOTT CITY,MD,21043,,,POINT (1363862.3984082758 595797.967835695)
Food_Establishments_Health.246,FULTON ELEMENTARY SCHOOL,11600 SCAGGSVILLE RD,FULTON,MD,20759,,,POINT (1336175.5019368997 540619.9671377911)
Food_Establishments_Health.247,TACO BELL #5547,8620 WASHINGTON BLVD,JESSUP,MD,20794,,,POINT (1366540.8597309191 538842.6184039172)
Food_Establishments_Health.248,TACO BELL #4780,7102 MINSTREL WAY,Columbia,MD,21045,,,POINT (1356852.5092474415 549963.8520425152)
Food_Establishments_Health.249,TACO BELL #16769,6281 WASHINGTON BLVD,Elkridge,MD,21075,,,POINT (1390023.0518947756 561338.2400784129)
Food_Establishments_Health.250,EINSTEIN BROS. BAGELS #2714,9250 BALTIMORE NATIONAL PK,ELLICOTT CITY,MD,21042,,,POINT (1360354.5271874275 586838.6434836319)
Food_Establishments_Health.251,GIANT FOOD STORE #348,6050 DAYBREAK CIR,Clarksville,MD,21029,,,POINT (1330508.648069948 562620.1085872828)
Food_Establishments_Health.252,UNO PIZZERIA & GRILL,4470 LONG GATE PKWY,ELLICOTT CITY,MD,21043,,,POINT (1364334.4655098298 576473.6537324585)
Food_Establishments_Health.253,ST. JOSEPH CUPERTINO FRIARY,12290 FOLLY QUARTER RD,ELLICOTT CITY,MD,21042,,,POINT (1329901.0775164287 579294.0571160156)
Food_Establishments_Health.254,7-ELEVEN,9398 BALTIMORE NATIONAL PK,ELLICOTT CITY,MD,21043,,,POINT (1358875.1104494508 586909.175518024)
Food_Establishments_Health.255,UA SNOWDEN SQUARE 14,9161 COMMERCE CENTER DR,COLUMBIA,MD,21046,,,POINT (1363490.129745426 550321.487503209)
Food_Establishments_Health.256,P.W.'S PLACE,9855 WASHINGTON BLVD SUITE N,LAUREL,MD,20723,,,POINT (1360052.7905589696 527594.953898691)
Food_Establishments_Health.257,MI CASA,3355 SAINT JOHNS LN,ELLICOTT CITY,MD,21042,,,POINT (1361832.7732692317 586802.9384703711)
Food_Establishments_Health.258,WENDY'S #151,7311 WASHINGTON BLVD,ELKRIDGE,MD,21075,,,POINT (1379294.8660660891 552316.870949208)
Food_Establishments_Health.259,SUSHI SONO INC,10215 WINCOPIN CIR,COLUMBIA,MD,21044,,,POINT (1353236.3523306386 564319.6086856865)
Food_Establishments_Health.260,DOUBLETREE COLUMBIA,5485 TWIN KNOLLS RD,COLUMBIA,MD,21045,,,POINT (1357152.1972275975 566668.5302957756)
Food_Establishments_Health.261,SAFEWAY #1553,5485 HARPERS FARM RD,COLUMBIA,MD,21044,,,POINT (1343555.903776325 566670.5789440775)
Food_Establishments_Health.262,PAPA JOHNS PIZZA #1725,6030 MARSHALEE DR,Elkridge,MD,21075,,UNIT #110,POINT (1375247.615013769 562141.0175486938)
Food_Establishments_Health.263,COLUMBIA TEEN CENTER,5851 ROBERT OLIVER PL,COLUMBIA,MD,21045,,,POINT (1355726.630673555 562306.080069014)
Food_Establishments_Health.264,COLUMBIA SPORTS PARK,5453 HARPERS FARM RD,COLUMBIA,MD,21044,,,POINT (1343449.3740646292 567332.8776736603)
Food_Establishments_Health.265,ROYAL FARMS #76,3901 TEN OAKS RD,GLENELG,MD,21737,,,POINT (1316328.7825166923 581937.1060894413)
Food_Establishments_Health.266,PIZZERIA SANTA LUCIA,8610 WASHINGTON BLVD #112,JESSUP,MD,20794,,,POINT (1366534.1284579274 539137.3310953401)
Food_Establishments_Health.267,HANAMURA JAPANESE RESTAURANT,8865 STANFORD BLVD #105,Columbia,MD,21045,,,POINT (1363852.1551667666 555168.296721336)
Food_Establishments_Health.268,WENDY'S #154,8850 GORMAN RD,LAUREL,MD,20723,,,POINT (1363583.4895751814 533536.0339740473)
Food_Establishments_Health.269,ALL SAINTS EXXON,9275 ALL SAINTS RD,LAUREL,MD,20723,,,POINT (1354520.5621518535 528944.720465565)
Food_Establishments_Health.270,HIGH'S #32,11840 LIME KILN RD,FULTON,MD,20759,,,POINT (1333835.3602481042 540714.7902877623)
Food_Establishments_Health.271,GORMAN CROSSING ELEM. SCHOOL,9999 WINTER SUN RD,LAUREL,MD,20723,,,POINT (1352149.398074487 538486.4462634389)
Food_Establishments_Health.272,TRIADELPHIA RIDGE ELEMENTARY SCHOOL,13400 TRIADELPHIA RD,ELLICOTT CITY,MD,21042,,,POINT (1318097.6439933155 582589.4542415581)
Food_Establishments_Health.273,LISBON AUTO CENTER INC,15943 FREDERICK RD,LISBON,MD,21765,,,POINT (1292288.772686647 607728.7102175658)
Food_Establishments_Health.274,BURGER KING #11793,6241 WASHINGTON BLVD,ELKRIDGE,MD,21075,,,POINT (1390470.2425526646 561792.1620092936)
Food_Establishments_Health.275,ROYAL FARMS #85,8755 CENTRE PARK DR,COLUMBIA,MD,21045,,,POINT (1364124.9180549553 568195.3586087379)
Food_Establishments_Health.276,HUNAN EXPRESS,6030 MARSHALEE DR #120,ELKRIDGE,MD,21075,,,POINT (1375247.615013769 562141.0175486938)
Food_Establishments_Health.277,LA MADELEINE,6211 COLUMBIA CROSSING CIR,Columbia,MD,21045,,,POINT (1364469.9689617949 557341.3272415093)
Food_Establishments_Health.278,ASEAN BISTRO,8775 CENTRE PARK DR,COLUMBIA,MD,21045,,,POINT (1363877.9096025613 568243.0628477667)
Food_Establishments_Health.279,MAGELLAN HEALTH SERVICES,6950 COLUMBIA GATEWAY DR,COLUMBIA,MD,21046,,,POINT (1368827.4438998236 551449.4147253974)
Food_Establishments_Health.280,ABSOLUTELY PERFECT CATERING,7391 WASHINGTON BLVD,ELKRIDGE,MD,21075,,STE 103,POINT (1379185.702378005 551180.7491338124)
Food_Establishments_Health.281,LYNDWOOD EXXON,6070 MARSHALEE DR,ELKRIDGE,MD,21075,,,POINT (1375283.6126910727 561577.931929729)
Food_Establishments_Health.282,RITE AID #384,8601 BALTIMORE NATIONAL PK,ELLICOTT CITY,MD,21043,,,POINT (1365987.1393613343 588338.2540405839)
Food_Establishments_Health.283,FOOD LION  #1529,6551 WATERLOO RD,ELKRIDGE,MD,21075,,,POINT (1370635.2296941818 555149.5662225762)
Food_Establishments_Health.284,WEIS MARKETS #45,9250 WASHINGTON BLVD,LAUREL,MD,20723,,,POINT (1362936.994703927 533100.5498778832)
Food_Establishments_Health.285,MORNINGSIDE HOUSE OF  E.C.,5330 DORSEY HALL DR,ELLICOTT CITY,MD,21042,,,POINT (1360084.3982756268 575685.5094643336)
Food_Establishments_Health.286,HIGH'S #38,708 LISBON CENTER DR,LISBON,MD,21765,,G,POINT (1293164.130839622 612593.0792782798)
Food_Establishments_Health.287,NOTTINGHAM'S,8850 STANFORD BLVD,COLUMBIA,MD,21045,,,POINT (1364698.2469154294 555001.478216757)
Food_Establishments_Health.288,DOUBLE T DINER,10055 BALTIMORE NATIONAL PK,ELLICOTT CITY,MD,21042,,,POINT (1352351.0436001974 587129.5515424941)
Food_Establishments_Health.289,SUBWAY SANDWICHES,8610 WASHINGTON BLVD,JESSUP,MD,20794,,,POINT (1366534.1284579274 539137.3310953401)
Food_Establishments_Health.290,KENDALL RIDGE POOL SNACK BAR,8245 TAMAR DR,COLUMBIA,MD,21045,,,POINT (1368255.578359565 559428.6071970484)
Food_Establishments_Health.291,RIVER HILL POOL SNACK BAR,6330 TROTTER RD,CLARKSVILLE,MD,21029,,,POINT (1334156.9980314942 557275.7704958502)
Food_Establishments_Health.292,LOTTE PLAZA,8801 BALTIMORE NATIONAL PK,ELLICOTT CITY,MD,21043,,,POINT (1363947.270980781 586658.6550971124)
Food_Establishments_Health.293,APPLICATIONS RESEARCH LAB.,10920 CLARKSVILLE PK,Ellicott City,MD,21042,,,POINT (1342781.514718227 571276.5256547158)
Food_Establishments_Health.294,CHINA YEE,710 LISBON CENTER DR #G,Woodbine,MD,21797,,,POINT (1293357.8744361682 612761.9464311607)
Food_Establishments_Health.295,PETE'S SNOWBALL,9220 OLD MONTGOMERY RD,COLUMBIA,MD,21045,,,POINT (1360301.2623315793 561377.164396148)
Food_Establishments_Health.296,DORSEY HALL SHELL,4755 DORSEY HALL DR,ELLICOTT CITY,MD,21043,,,POINT (1357495.4921501784 573939.768447117)
Food_Establishments_Health.297,MAD CITY COFFEE,10801 HICKORY RIDGE RD,COLUMBIA,MD,21044,,,POINT (1344742.0711430947 561912.4469310163)
Food_Establishments_Health.298,HUMANIM,6355 WOODSIDE CT,COLUMBIA,MD,21046,,,POINT (1354143.3182002704 556048.0448349577)
Food_Establishments_Health.299,RAM'S HEAD TAVERN @ SAVAGE MILL,8600 FOUNDRY ST,SAVAGE,MD,20763,,BOX 2065,POINT (1361596.0080583468 535040.6198197323)
Food_Establishments_Health.300,BURGER KING,8775 WASHINGTON BLVD,JESSUP,MD,20794,,,POINT (1366531.7871455825 538163.6378238765)
Food_Establishments_Health.301,TEN OAKS BALLROOM,5000 SIGNAL BELL LN,CLARKSVILLE,MD,21029,,,POINT (1329376.623551156 561374.823083803)
Food_Establishments_Health.302,GODIVA CHOCOLATIER,10300 LITTLE PATUXENT PKWY,COLUMBIA,MD,21044,,,POINT (1351971.1656722263 564203.7137246106)
Food_Establishments_Health.303,LA PALAPA GRILL & CANTINA,8307 MAIN STREET,Ellicott City,MD,21043,,,POINT (1369037.5766827844 583154.0031807384)
Food_Establishments_Health.304,NORDSTROM ESPRESSO BAR,10300 LITTLE PATUXENT PKWY,COLUMBIA,MD,21044,,STE 1,POINT (1351971.1656722263 564203.7137246106)
Food_Establishments_Health.305,CAFE NORDSTROM,10300 LITTLE PATUXENT PKWY,COLUMBIA,MD,21044,,STE 1,POINT (1351971.1656722263 564203.7137246106)
Food_Establishments_Health.306,PANERA BREAD,10300 LITTLE PATUXENT PKWY,COLUMBIA,MD,21044,,UNIT 3561,POINT (1351971.1656722263 564203.7137246106)
Food_Establishments_Health.307,BONNIE BRANCH MIDDLE SCHOOL,4979 ILCHESTER RD,ELLICOTT CITY,MD,21043,,,POINT (1376690.4487463555 570278.5412676731)
Food_Establishments_Health.308,LIME KILN MIDDLE SCHOOL,11650 SCAGGSVILLE RD,FULTON,MD,20759,,,POINT (1336220.2795354973 541824.5723392771)
Food_Establishments_Health.309,COLUMBIA CHEF,9693 GERWIG LN,Columbia,MD,21046,,F,POINT (1355440.697903426 549942.1949033242)
Food_Establishments_Health.310,SOLANA PIZZA & SUBS,9150 BALTIMORE NATIONAL PK,Ellicott City,MD,21042,,4,POINT (1361195.9363114003 586944.2952031986)
Food_Establishments_Health.311,DOLLAR TREE #1088,7182 CRADLEROCK WAY,COLUMBIA,MD,21045,,,POINT (1357170.342398271 553709.3664663777)
Food_Establishments_Health.312,WAVERLY WOODS GOLF CLUB,2100 WARWICK WAY,MARRIOTTSVILLE,MD,21104,,,POINT (1342571.6745993092 598179.3751545706)
Food_Establishments_Health.313,SONESTA ES SUITES COLUMBIA,8844 COLUMBIA 100 PKWY,COLUMBIA,MD,21045,,,POINT (1365068.7595940204 569986.7552166815)
Food_Establishments_Health.314,ROSALINA MARIN @ FLEA MKT,7540 WASHINGTON BLVD,ELKRIDGE,MD,21075,,,POINT (1377128.8594829508 551056.6595795291)
Food_Establishments_Health.315,WENDY'S #164,5801 CLARKSVILLE SQUARE DR,CLARKSVILLE,MD,21029,,,POINT (1329853.3732774 562751.5147426442)
Food_Establishments_Health.316,CVS PHARMACY #1909,6480 OLD WATERLOO RD,Elkridge,MD,21075,,,POINT (1370661.862122106 555786.6958444506)
Food_Establishments_Health.317,BOB EVANS FARMSLLC #376,4900 BEAVER RUN,ELLICOTT CITY,MD,21043,21043,,POINT (1364728.6839759138 571557.7758001551)
Food_Establishments_Health.318,MERRIWEATHER PT. PAV.-VIP,10475 LITTLE PATUXENT PKWY,COLUMBIA,MD,21044,,,POINT (1351260.8700395718 561709.3380850903)
Food_Establishments_Health.319,COUNTRY PRIDE,7541 ASSATEAGUE DR,JESSUP,MD,20794,,,POINT (1374028.66927417 545879.1399926754)
Food_Establishments_Health.320,SUBWAY @ TRAVEL CENTER,7401 ASSATEAGUE DR,JESSUP,MD,20794,,,POINT (1373889.3611896443 546347.6951257121)
Food_Establishments_Health.321,BOSTON MARKET #0153,9380 BALTIMORE NATIONAL PK,Ellicott City,MD,21043,,,POINT (1359101.6324188265 586956.2944289665)
Food_Establishments_Health.322,BOSTON MARKET #0331,9061 SNOWDEN RIVER PKWY,COLUMBIA,MD,21046,,,POINT (1362452.3430485188 551157.3360103626)
Food_Establishments_Health.323,LU & JOE'S INC,1024 RIDGE RD,MOUNT AIRY,MD,21771,21771,,POINT (1261088.4443776035 611259.7018978206)
Food_Establishments_Health.324,ROOTS MARKET,5805 CLARKSVILLE SQUARE  DR,CLARKSVILLE,MD,21029,,,POINT (1329645.8744708272 562980.9633524511)
Food_Establishments_Health.325,MCDONALD'S,8700 WASHINGTON BLVD,JESSUP,MD,20794,,,POINT (1366331.0196120015 538543.5157518475)
Food_Establishments_Health.326,MCDONALD'S,8600 GUILFORD RD,COLUMBIA,MD,21046,,,POINT (1350820.1179906316 547794.0408268161)
Food_Establishments_Health.327,PUPUSERIA VICTORIA -1,7540 WASHINGTON BLVD,ELKRIDGE,MD,21075,,,POINT (1377128.8594829508 551056.6595795291)
Food_Establishments_Health.328,QUICK STOP FOOD MART,10750 HICKORY RIDGE RD,COLUMBIA,MD,21044,,,POINT (1345044.3930996386 562629.4738366627)
Food_Establishments_Health.329,FAMOUS DAVES,6201 COLUMBIA CROSSING CIR,Columbia,MD,21044,,,POINT (1364641.762755107 557057.443119682)
Food_Establishments_Health.330,IN GRAND STYLE @ KAHLER HALL,5440 OLD TUCKER ROW,COLUMBIA,MD,21044,,,POINT (1343975.5840141606 566559.9519357778)
Food_Establishments_Health.331,COLUMBIA PRESBYTERIAN CHURCH,10001 ROUTE 108,Columbia,MD,21044,,,POINT (1352600.6860289797 571877.3649352432)
Food_Establishments_Health.332,LUCERO'S PIZZA,11200 SCAGGSVILLE RD,LAUREL,MD,20723,,,POINT (1340588.5830431213 539202.8878409992)
Food_Establishments_Health.333,HARBIN FARM,9944 OLD FREDERICK RD,Ellicott City,MD,21042,,,POINT (1352971.491371614 594550.6336839133)
Food_Establishments_Health.334,SEOUL SOONDAE,8801 BALTIMORE NATIONAL PK,ELLICOTT CITY,MD,21043,21043,,POINT (1363947.270980781 586658.6550971124)
Food_Establishments_Health.335,JAVA CITY MICROS SYSTEMS,7031 COLUMBIA GATEWAY DR,COLUMBIA,MD,21046,,,POINT (1368585.1180721193 548835.0468281975)
Food_Establishments_Health.336,CHICK FIL A,4905 EXECUTIVE PARK DR,COLUMBIA,MD,21045,,,POINT (1364795.1187137023 571278.5743030177)
Food_Establishments_Health.337,COLUMBIA SWIM CENTER,10400 CROSS FOX LN,COLUMBIA,MD,21044,,,POINT (1348131.1207624357 565426.171432727)
Food_Establishments_Health.338,LEDO PIZZA,8480 BALTIMORE NATIONAL PK,ELLICOTT CITY,MD,21043,,,POINT (1366475.8883133463 590080.4830892831)
Food_Establishments_Health.339,DUNKIN DONUTS,8765 CENTRE PARK DR,COLUMBIA,MD,21045,,,POINT (1364057.6053250374 568245.6968241547)
Food_Establishments_Health.340,TACO LADY,7540 WASHINGTON BLVD,ELKRIDGE,MD,21075,,,POINT (1377128.8594829508 551056.6595795291)
Food_Establishments_Health.341,DUNKIN DONUTS,7106 MINSTREL WAY,COLUMBIA,MD,21045,,F,POINT (1356731.6389976325 550385.8735926957)
Food_Establishments_Health.342,DUNKIN DONUTS,5485 HARPERS FARM RD,COLUMBIA,MD,21044,,,POINT (1343555.903776325 566670.5789440775)
Food_Establishments_Health.343,MAIWAND KABOB,5467 HARPERS FARM RD,COLUMBIA,MD,21044,,,POINT (1343279.3362555758 566636.0445869892)
Food_Establishments_Health.344,SAVAGE EXXON,8850 GORMAN RD,LAUREL,MD,20723,,,POINT (1363583.4895751814 533536.0339740473)
Food_Establishments_Health.345,FOOD LION #2501,8300 ICE CRYSTAL DR,LAUREL,MD,20723,,,POINT (1340724.0864950863 538072.3266424227)
Food_Establishments_Health.346,AUNTIE ANNE'S PRETZELS,10300 LITTLE PATUXENT PKWY,COLUMBIA,MD,21044,,,POINT (1351971.1656722263 564203.7137246106)
Food_Establishments_Health.347,BISTRO SENSATIONS,10300 LITTLE PATUXENT PKWY,COLUMBIA,MD,21044,,,POINT (1351971.1656722263 564203.7137246106)
Food_Establishments_Health.348,NOVEDADES EL MEXICANO,7540 WASHINGTON BLVD,ELKRIDGE,MD,21075,,,POINT (1377128.8594829508 551056.6595795291)
Food_Establishments_Health.349,HOMEGOODS INC #192,9041 SNOWDEN RIVER PKWY,COLUMBIA,MD,21046,21046,,POINT (1363395.5992594978 551137.1421913872)
Food_Establishments_Health.350,HOPEWELL EXXON,7100 MINSTREL WAY,COLUMBIA,MD,21045,,,POINT (1356594.379561409 550108.7207438601)
Food_Establishments_Health.351,NIKO JAPANESE RESTAURANT INC,8450 BALTIMORE NATIONAL PK,ELLICOTT CITY,MD,21043,21043,,POINT (1367060.9237355452 590033.0715142975)
Food_Establishments_Health.352,BRIAN'S CATERING,11310 BARLEYFIELD WAY,MARRIOTTSVILLE,MD,21104,21104,,POINT (1339082.2412131776 606035.0634000244)
Food_Establishments_Health.353,WEIS MARKETS #62,10825 BIRMINGHAM WAY,Woodstock,MD,21163,,,POINT (1343200.6096279763 597750.3296673552)
Food_Establishments_Health.354,CINDYS SOFT SERVE,6330 WASHINGTON BLVD,Elkridge,MD,21075,,,POINT (1389015.40959431 560714.8656665651)
Food_Establishments_Health.355,HAMPTON INN,8880 COLUMBIA 100 PKWY,COLUMBIA,MD,21045,,,POINT (1364643.2260753226 570709.9280672335)
Food_Establishments_Health.356,STARBUCKS COFFEE #7643,10300 LITTLE PATUXENT PKWY,Columbia,MD,21044,,,POINT (1351971.1656722263 564203.7137246106)
Food_Establishments_Health.357,SARKU JAPAN,10300 LITTLE PATUXENT PKWY,COLUMBIA,MD,21044,,,POINT (1351971.1656722263 564203.7137246106)
Food_Establishments_Health.358,ARBYS RESTAURANT  #7188,3290 CENTENNIAL LN,ELLICOTT CITY,MD,21042,,,POINT (1351695.7688076496 587253.9337608205)
Food_Establishments_Health.359,J & T SEAFOOD INC,408 WOODBINE RD,WOODBINE,MD,21797,,,POINT (1294477.0217370628 616624.8191363148)
Food_Establishments_Health.360,P.F. CHANG'S CHINA BISTRO,10300 LITTLE PATUXENT PKWY,COLUMBIA,MD,21044,,STE 302,POINT (1351971.1656722263 564203.7137246106)
Food_Establishments_Health.361,BOURBON STREET CAF,10300 LITTLE PATUXENT PKWY,COLUMBIA,MD,21044,,,POINT (1351971.1656722263 564203.7137246106)
Food_Establishments_Health.362,LA PRIMA,10983 GUILFORD RD,ANNAPOLIS JUNCTION,MD,20701,,H,POINT (1371850.0781371773 533083.2826993391)
Food_Establishments_Health.363,TURF VALLEY RESORT POOL SHACK,2700 TURF VALLEY ROAD,Ellicott City,MD,21042,,,POINT (1344805.5792404518 593490.604519729)
Food_Establishments_Health.364,MAMA MIA,5823 WASHINGTON BLVD,Elkridge,MD,21075,,,POINT (1394437.5963212128 564457.7461140396)
Food_Establishments_Health.365,DOMINO'S PIZZA #4623,9469 BALTIMORE NATIONAL PK,ELLICOTT CITY,MD,21043,,,POINT (1358111.549960948 586585.4890863321)
Food_Establishments_Health.366,COLUMBIA WINGS,8765 CENTRE PARK DR,COLUMBIA,MD,21045,,,POINT (1364057.6053250374 568245.6968241547)
Food_Establishments_Health.367,SOMERFORD PLACE,8220 SNOWDEN RIVER PKWY,Columbia,MD,21045,,,POINT (1368514.586037727 562599.3294402213)
Food_Establishments_Health.368,PIZZA BOLI'S,9065 FREDERICK RD,ELLICOTT CITY,MD,21042,,#C,POINT (1361584.594160665 584386.411466321)
Food_Establishments_Health.369,WATERLOO SHELL,7894 WASHINGTON BLVD,ELKRIDGE,MD,21075,,,POINT (1373306.6670797905 548543.8461052921)
Food_Establishments_Health.370,RESTAURANT PARK EXXON,8300 BENSON DR,COLUMBIA,MD,21045,,,POINT (1369174.543454965 553903.6953910101)
Food_Establishments_Health.371,TRATTORIA AMORE,4725 DORSEY HALL DR,ELLICOTT CITY,MD,21042,,STE L,POINT (1356993.865980269 573988.0580142319)
Food_Establishments_Health.372,STARBUCKS COFFEE #7714,9251 BALTIMORE NATIONAL PK,Ellicott City,MD,21042,,,POINT (1360204.9758613927 586431.2551356074)
Food_Establishments_Health.373,SHADOWLAND LASER ADVENTURES,9179 RED BRANCH RD,COLUMBIA,MD,21045,,A,POINT (1362589.0171566564 569649.6062390062)
Food_Establishments_Health.374,PUTTING ON THE RITZ,9115 WHISKEY BOTTOM RD,LAUREL,MD,20723,,STE,POINT (1360385.5495759982 526736.5702602171)
Food_Establishments_Health.375,MCDONALD'S #11998,6225 WASHINGTON BLVD,ELKRIDGE,MD,21075,,,POINT (1390593.4541148185 561880.546550316)
Food_Establishments_Health.376,GOLDEN COAST,8851 GORMAN RD,LAUREL,MD,20723,,STE 200,POINT (1363332.0911621405 533151.4734213862)
Food_Establishments_Health.377,CAF DE PARIS,8808 CENTRE PARK DR,COLUMBIA,MD,21045,,STE 100,POINT (1364471.4322820106 568020.0528469085)
Food_Establishments_Health.378,HUNAN LION,6500 OLD WATERLOO RD,ELKRIDGE,MD,21075,,STE #1,POINT (1370614.7432111634 555577.7337176623)
Food_Establishments_Health.379,ELKRIDGE CAF,6325 WASHINGTON BLVD,ELKRIDGE,MD,21075,,G,POINT (1389291.3917869732 560533.4139598302)
Food_Establishments_Health.380,MCDONALD'S,3200 NORTH RIDGE RD,ELLICOTT CITY,MD,21043,,,POINT (1363045.280399882 588596.9690547028)
Food_Establishments_Health.381,ASARCO INT'L FOOD STORE INC.,8610 WASHINGTON BLVD,JESSUP,MD,20794,,STE 103,POINT (1366534.1284579274 539137.3310953401)
Food_Establishments_Health.382,MEETING POINT BOOKSTORE,7750 MONTPELIER RD,Laurel,MD,20723,,,POINT (1344065.1392113557 546002.6442188725)
Food_Establishments_Health.383,ELLICOTT CITY SENIOR CENTER,9401 FREDERICK RD,ELLICOTT CITY,MD,21042,,,POINT (1358040.725262513 584624.9326614646)
Food_Establishments_Health.384,SAM'S MART,5801 STEVENS FOREST ROAD,Columbia,MD,21045,,,POINT (1355592.5905418056 562412.3171166669)
Food_Establishments_Health.385,RESERVOIR HIGH SCHOOL,11550 SCAGGSVILLE RD,FULTON,MD,20759,,,POINT (1336971.840798232 540814.8813905097)
Food_Establishments_Health.386,EGGSPECTATION,6010 UNIVERSITY BLVD,ELLICOTT CITY,MD,21043,,,POINT (1369807.8684442788 561843.3782168397)
Food_Establishments_Health.387,CHARTER DELI,10700 CHARTER DR,COLUMBIA,MD,21044,,STE 130,POINT (1345786.8817770365 562842.2405960117)
Food_Establishments_Health.388,HOMEWOOD CENTER,10914 CLARKSVILLE PK,ELLICOTT CITY,MD,21042,,,POINT (1343271.4343264115 571992.3819041897)
Food_Establishments_Health.389,BOARDROOM CAF   SALAZAR SERV. BD OF ED,10910 RT 108,ELLICOTT CITY,MD,21042,,,POINT (1343581.3655480766 571427.8329650094)
Food_Establishments_Health.390,GLENWOOD LIONS SNACK BAR,2210 FAIRGROUNDS RD,WEST FRIENDSHIP,MD,21794,,,POINT (1321511.277392279 598764.4105767695)
Food_Establishments_Health.391,MCDONALD'S,9303 BALTIMORE NATIONAL PK,Ellicott City,MD,21043,,,POINT (1359708.3249802163 586510.2744272501)
Food_Establishments_Health.392,BEAN HOLLOW LLC,8059 MAIN ST,Ellicott City,MD,21043,,,POINT (1370201.5015822765 583092.543731683)
Food_Establishments_Health.393,SHEPPARD PRATT AT ELLICOTT CITY,4100 COLLEGE AVENUE,ELLICOTT CITY,MD,21043,,,POINT (1370984.9632257116 579582.6238625329)
Food_Establishments_Health.394,ISLAND LIQUORS,10055 WASHINGTON BLVD,LAUREL,MD,20723,,,POINT (1358434.6510645538 525392.0716461191)
Food_Establishments_Health.395,MCDONALD'S #4519,8211 SNOWDEN RIVER PKWY,Columbia,MD,21045,,,POINT (1369108.4013812197 561965.126458778)
Food_Establishments_Health.396,HOUSE OF INDIA,9350 SNOWDEN RIVER PKWY,COLUMBIA,MD,21045,,F2,POINT (1358844.9660530093 549950.9748246178)
Food_Establishments_Health.397,SOCCER DOME,7330 MONTEVIDEO RD,JESSUP,MD,20794,,,POINT (1376137.3137048567 547146.0826353462)
Food_Establishments_Health.398,THE CANOPY,9319 BALTIMORE NATIONAL PK,ELLICOTT CITY,MD,21042,,,POINT (1359578.0894810273 586547.7354247696)
Food_Establishments_Health.399,SHORT STOP NEWS,10300 LITTLE PATUXENT PKWY,COLUMBIA,MD,21044,,,POINT (1351971.1656722263 564203.7137246106)
Food_Establishments_Health.400,JAE'S DELI,7085 SAMUEL MORSE DR#300,COLUMBIA,MD,21046,,,POINT (1366063.817340632 546698.306649371)
Food_Establishments_Health.401,OUTBACK STEAKHOUSE,4420 LONG GATE PKWY,ELLICOTT CITY,MD,21043,,,POINT (1364833.7503673944 577016.8381964911)
Food_Establishments_Health.402,VOLLEYBALL HOUSE,5635 FURNACE AVE,ELKRIDGE,MD,21075,,,POINT (1395465.1397766108 564233.5654570089)
Food_Establishments_Health.403,LONGHORN STEAKHOUSE #5183,8650 SNOWDEN RIVER PKWY,COLUMBIA,MD,21045,,,POINT (1366350.6281028904 557269.3318869016)
Food_Establishments_Health.404,BANGKOK DELIGHT RESTAURANT,8825 CENTRE PARK DR,COLUMBIA,MD,21045,,,POINT (1364566.2554319818 568574.0658805365)
Food_Establishments_Health.405,CENTENNIAL CUE & KARAOKE,10045 BALTIMORE NATIONAL PK,ELLICOTT CITY,MD,21042,,,POINT (1352141.7888093658 586856.7886543054)
Food_Establishments_Health.406,BAIN CENTER,5470 RUTH KEETON WAY,COLUMBIA,MD,21044,,,POINT (1344003.6797623003 566976.705533182)
Food_Establishments_Health.407,PEPPERJACK SUBS & SANDWICHES,10919 SCAGGSVILLE RD,LAUREL,MD,20723,,,POINT (1343283.4335521795 537752.1521792484)
Food_Establishments_Health.408,VANTAGE HOUSE (Cafe),5400 VANTAGE POINT RD,COLUMBIA,MD,21044,,,POINT (1353299.8604279957 566990.1680791656)
Food_Establishments_Health.409,PASTA BLITZ,6010 UNIVERSITY BLVD,ELLICOTT CITY,MD,21043,,,POINT (1369807.8684442788 561843.3782168397)
Food_Establishments_Health.410,SAKURA JAPANESE STEAK HOUSE,10040 BALTIMORE NATIONAL PK,ELLICOTT CITY,MD,21042,,,POINT (1352715.7029979262 588049.3946300234)
Food_Establishments_Health.411,RED ROBIN OF HOWARD COUNTY  INC.,8640 SNOWDEN RIVER PKWY,COLUMBIA,MD,21045,,,POINT (1366397.4543497898 557377.6175828563)
Food_Establishments_Health.412,ST. JOHNS PARISH DAY SCHOOL,9130 FREDERICK RD,ELLICOTT CITY,MD,21042,,,POINT (1360626.1194194437 585470.4390820411)
Food_Establishments_Health.413,T-BONZ STEAK HOUSE,4910 WATERLOO RD,ELLICOTT CITY,MD,21043,,,POINT (1369220.7843737782 571714.3510632248)
Food_Establishments_Health.414,PANDA KITCHEN,6030 DAYBREAK CIR,CLARKSVILLE,MD,21029,,STE 350,POINT (1330669.0279655783 562295.5441634617)
Food_Establishments_Health.415,ELKRIDGE BP,5816 WASHINGTON BLVD,ELKRIDGE,MD,21075,,,POINT (1394429.9870560917 564653.8310229307)
Food_Establishments_Health.416,HILTON GARDEN INN,8241 SNOWDEN RIVER PKWY,COLUMBIA,MD,21045,,,POINT (1368780.9103169672 561599.5890689199)
Food_Establishments_Health.417,IRON BRIDGE WINE CO,10435 CLARKSVILLE PK,COLUMBIA,MD,21044,,,POINT (1348184.6782823268 571401.7858651716)
Food_Establishments_Health.418,ARBY'S,7410 ASSATEAGUE DR,JESSUP,MD,20794,,,POINT (1372616.5652661112 547081.9892099027)
Food_Establishments_Health.419,BELLOWS SPRING ELEM. SCHOOL,8125 OLD STOCKBRIDGE RD,ELLICOTT CITY,MD,21043,,,POINT (1372825.2347288565 559999.5947451774)
Food_Establishments_Health.420,FOLLY QUARTER MIDDLE SCHOOL,13500 TRIADELPHIA RD,ELLICOTT CITY,MD,21042,,,POINT (1316923.4758523141 582544.9693070037)
Food_Establishments_Health.421,SUBWAY,10300 LITTLE PATUXENT PKWY,COLUMBIA,MD,21044,,,POINT (1351971.1656722263 564203.7137246106)
Food_Establishments_Health.422,GIANT FOOD STORE #300,8805 CENTRE PARK DR,COLUMBIA,MD,21045,,,POINT (1364122.2840785673 568610.0635578404)
Food_Establishments_Health.423,HOMEWOOD SUITES COLUMBIA,8320 BENSON DR,Columbia,MD,21045,,,POINT (1368883.0500680164 553805.9456006077)
Food_Establishments_Health.424,MARS SUPER MARKETS INC #19,9150 BALTIMORE NATIONAL PK,ELLICOTT CITY,MD,21042,21042,,POINT (1361195.9363114003 586944.2952031986)
Food_Establishments_Health.425,SEE'S CANDIES,10300 LITTLE PATUXENT PKWY,COLUMBIA,MD,21044,,,POINT (1351971.1656722263 564203.7137246106)
Food_Establishments_Health.426,7-ELEVEN,10930 GUILFORD RD,ANNAPOLIS JUNCTION,MD,20701,,,POINT (1370886.3354431798 532717.7453094809)
Food_Establishments_Health.427,VFW,4225 VFW LN,ELLICOTT CITY,MD,21043,,,POINT (1364799.216010306 578567.6649609893)
Food_Establishments_Health.428,AMC THEATRES COLUMBIA MALL 14,10300 LITTLE PATUXENT PKWY,COLUMBIA,MD,21044,,,POINT (1351971.1656722263 564203.7137246106)
Food_Establishments_Health.429,WAL-MART STORE #5228,6405 DOBBIN RD,COLUMBIA,MD,21045,,,POINT (1363371.0154798755 556922.5249958033)
Food_Establishments_Health.430,PANERA BREAD,6435 DOBBIN RD,Columbia,MD,21045,,STE 6,POINT (1363551.5891944813 556604.6918449738)
Food_Establishments_Health.431,ST. MICHAELS CATHOLIC CHURCH,1125 SAINT MICHAELS RD,MT. AIRY,MD,21771,,,POINT (1282486.2832263524 609218.0775330085)
Food_Establishments_Health.432,CHICK FIL A,6375 DOBBIN RD,COLUMBIA,MD,21045,,,POINT (1363765.2339459595 557569.6051951437)
Food_Establishments_Health.433,CHIPOTLE MEXICAN GRILL #429,6181 OLD DOBBIN LN,COLUMBIA,MD,21045,,,POINT (1365640.3324702359 558656.5594512952)
Food_Establishments_Health.434,THE MELTING POT,10451 TWIN RIVERS RD #124,COLUMBIA,MD,21044,,,POINT (1347846.358648479 565651.2300818871)
Food_Establishments_Health.435,UNO CHICAGO GRILL,10300 LITTLE PATUXENT PKWY,COLUMBIA,MD,21044,,,POINT (1351971.1656722263 564203.7137246106)
Food_Establishments_Health.436,THREE BROTHERS ITALIAN RESTAURANT,7090 DEEPAGE DR,Columbia,MD,21045,,,POINT (1357860.1515479072 549770.6937740553)
Food_Establishments_Health.437,GREAT SAGE,5809 CLARKSVILLE SQ DR,Clarksville,MD,21029,,,POINT (1329584.1223577287 563188.754823067)
Food_Establishments_Health.438,NOODLES CORNER,8865 STANFORD BLVD #103,Columbia,MD,21045,,,POINT (1363852.1551667666 555168.296721336)
Food_Establishments_Health.439,NOODLES & COMPANY,6191 OLD DOBBIN LN,Columbia,MD,21045,,STE 930,POINT (1365450.6861702935 558282.5348041866)
Food_Establishments_Health.440,PINE ORCHARD LIQUOR,10281 BALTIMORE NATIONAL PK,ELLICOTT CITY,MD,21042,,,POINT (1349911.981464827 587480.7483942393)
Food_Establishments_Health.441,THE JOHNS HOPKINS UNIVERSITY APPLIED PHYSICS LAB. LLC CAFETERIA 17,11100 JOHNS HOPKINS RD,LAUREL.,MD,20723,20723,,POINT (1341138.791444189 545444.8265526838)
Food_Establishments_Health.442,RITA'S ITALIAN ICE,9095 FREDERICK RD,ELLICOTT CITY,MD,21043,,,POINT (1361467.2358793735 584429.1404166167)
Food_Establishments_Health.443,TEMPLE ISAIAH,12200 SCAGGSVILLE RD,FULTON,MD,20759,,,POINT (1330247.2990794408 545800.9986931621)
Food_Establishments_Health.444,ST. PAULS LUTHERAN CHURCH,11795 SCAGGSVILLE RD,FULTON,MD,20759,,,POINT (1334335.2304337549 540445.832032134)
Food_Establishments_Health.445,SUBWAY,4725 DORSEY HALL DR,ELLICOTT CITY,MD,21042,,E,POINT (1356993.865980269 573988.0580142319)
Food_Establishments_Health.446,DUNKIN DONUTS,12210 CLARKSVILLE PK,CLARKSVILLE,MD,21029,,,POINT (1330141.9400239172 563125.5393897528)
Food_Establishments_Health.447,THAI AROMA RESTAURANT,8815 BALTIMORE NATIONAL PK,Ellicott City,MD,21043,,,POINT (1364209.4979634173 586801.7678141986)
Food_Establishments_Health.448,TUESDAY MORNING #96,8492 BALTIMORE NATIONAL PK,ELLICOTT CITY,MD,21043,,,POINT (1366413.8435362047 589731.0422217967)
Food_Establishments_Health.449,SMOKEYS N UNCLE GRUBER,7300 ROOSEVELT BLVD,ELKRIDGE,MD,21075,,,POINT (1378901.2329280914 552949.0252823494)
Food_Establishments_Health.450,RAINPIA CAF,10194 BALTIMORE NATIONAL PK,ELLICOTT CITY,MD,21042,,,POINT (1350757.1952213605 587818.7753640441)
Food_Establishments_Health.451,KELLYS LIQUORS,4882 MONTGOMERY ROAD,ELLICOTT CITY,MD,21043,,,POINT (1369130.0585204107 571815.9054861878)
Food_Establishments_Health.452,CASPIAN SUPERMARKET INC.,9191 BALTIMORE NATIONAL PK,ELLICOTT CITY,MD,21042,,,POINT (1360762.5008635381 586373.8929831557)
Food_Establishments_Health.453,BLUE SKY CAF LLC,9065 FREDERICK RD,Ellicott City,MD,21042,,STE D,POINT (1361584.594160665 584386.411466321)
Food_Establishments_Health.454,PHILLYS BEST PIZZA & SUBS,6501 HUNTSHIRE DR,ELKRIDGE,MD,21075,,,POINT (1376535.3368035012 555837.6193879537)
Food_Establishments_Health.455,FOOD LION #2598,5896 ROBERT OLIVER PL,COLUMBIA,MD,21045,,,POINT (1356237.9147568874 562289.9835466424)
Food_Establishments_Health.456,HICKORY FARMS #11283,10300 LITTLE PATUXENT PKWY,COLUMBIA,MD,21044,,,POINT (1351971.1656722263 564203.7137246106)
Food_Establishments_Health.457,THE CAKE LADY'S PLACE INC,10070 WASHINGTON BLVD,LAUREL.,MD,20723,20723,,POINT (1358044.5298950733 525332.9535094087)
Food_Establishments_Health.458,ROMAS BREAKFAST & PIZZERIA,10400 SHAKER DR,COLUMBIA,MD,21046,,UNIT 2,POINT (1348888.535306033 552797.4253080128)
Food_Establishments_Health.459,TEAVANA,10300 LITTLE PATUXENT PKWY,COLUMBIA,MD,21044,,UNIT 1315,POINT (1351971.1656722263 564203.7137246106)
Food_Establishments_Health.460,BRIGHTON GARDENS,7110 MINSTREL WAY,COLUMBIA,MD,21045,,,POINT (1356456.8274611419 550548.8874647141)
Food_Establishments_Health.461,HOWARD COUNTY FOOD BANK,8920 RTE 108,COLUMBIA,MD,21045,,A,POINT (1362885.1931682946 568793.2712488341)
Food_Establishments_Health.462,EXTENDED STAY DELUXE #9817,8890 STANFORD BLVD,COLUMBIA,MD,21045,,,POINT (1364603.131101415 555543.492024617)
Food_Establishments_Health.463,OUR LADY OF PERPETUAL HELP,4801 ILCHESTER RD,ELLICOTT CITY,MD,21043,,,POINT (1377905.5898533938 572494.3007381422)
Food_Establishments_Health.464,7-ELEVEN,9651 WASHINGTON BLVD,LAUREL,MD,20723,,,POINT (1361511.720813928 529561.656268464)
Food_Establishments_Health.465,LONG REACH EXXON,6000 FORELAND GARTH,COLUMBIA,MD,21045,,,POINT (1364877.3573098194 561093.2802743206)
Food_Establishments_Health.466,HICKORY RIDGE GRILL,6420 FREETOWN RD,Columbia,MD,21044,,,POINT (1345362.5189145112 556584.7906900416)
Food_Establishments_Health.467,SUBWAY,8640 GUILFORD RD,COLUMBIA,MD,21046,,,POINT (1350653.8848141388 547261.684932379)
Food_Establishments_Health.468,THE COLUMBIA INN AT PERALYNNA,10605 CLARKSVILLE PK,COLUMBIA,MD,21044,,,POINT (1346555.1248902292 571176.4345519685)
Food_Establishments_Health.469,SHIN CHON GARDEN,8801 BALTIMORE NATIONAL PK,ELLICOTT CITY,MD,21043,,STE 25,POINT (1363947.270980781 586658.6550971124)
Food_Establishments_Health.470,IKKYU JAPANESE RESTAURANT,8801 BALTIMORE NATIONAL PK,ELLICOTT CITY,MD,21043,,,POINT (1363947.270980781 586658.6550971124)
Food_Establishments_Health.471,COLUMBIA ACADEMY,10350 OLD COLUMBIA RD,COLUMBIA,MD,21046,,,POINT (1348454.2218660414 550823.4063371615)
Food_Establishments_Health.472,COLUMBIA LIBERTY,6425 DOBBIN RD,COLUMBIA,MD,21045,,,POINT (1362876.120582958 557326.9867033964)
Food_Establishments_Health.473,DUNKIN DONUTS/BASKIN ROBBINS,8305 ICE CRYSTAL DR,LAUREL,MD,20723,,STE 101,POINT (1341331.6570486056 537971.0648835029)
Food_Establishments_Health.474,SUBWAY,8305 ICE CRYSTAL DR,LAUREL,MD,20723,,STE 103,POINT (1341331.6570486056 537971.0648835029)
Food_Establishments_Health.475,FOOD LION #2611,705 LISBON CENTER DR,WOODBINE,MD,21797,,,POINT (1293511.5230588065 613304.2529030639)
Food_Establishments_Health.476,MAD CITY @ HO. CO.GEN.HOSPITAL,5755 CEDAR LN,Columbia,MD,21046,,,POINT (1344671.5391087024 563652.6273314138)
Food_Establishments_Health.477,BAGEL BIN & DELI,10040 BALTIMORE NATIONAL PK,ELLICOTT CITY,MD,21042,,,POINT (1352715.7029979262 588049.3946300234)
Food_Establishments_Health.478,CATTAIL CREEK SNACK BAR,3600 CATTAIL CREEK DR,Glenwood,MD,21738,,,POINT (1299951.302663641 584826.8708512181)
Food_Establishments_Health.479,CACAO LANE,8066 MAIN STREET,Ellicott City,MD,21043,,,POINT (1370106.093104219 583134.9800179356)
Food_Establishments_Health.480,HUNAN CHINA,8305 ICE CRYSTAL DR,LAUREL,MD,20723,,STE 102,POINT (1341331.6570486056 537971.0648835029)
Food_Establishments_Health.481,PEKING CHINESE RESTAURANT,7060 OAKLAND MILLS RD,COLUMBIA,MD,21046,,A,POINT (1360648.9472148072 549673.8219757823)
Food_Establishments_Health.482,GRACE EPISCOPAL CHURCH CHILD CARE CENTER,6725 MONTGOMERY RD,ELKRIDGE,MD,21075,,,POINT (1383654.6823164627 562909.8459899727)
Food_Establishments_Health.483,VENICE PIZZA,6305 WASHINGTON BLVD,ELKRIDGE,MD,21075,,B,POINT (1389646.100607236 560962.7521110886)
Food_Establishments_Health.484,2 GO CONVENIENCE & DELI,9016 WASHINGTON BLVD,SAVAGE,MD,20763,,,POINT (1364637.0801304171 535239.6313690546)
Food_Establishments_Health.485,MARRIOTTS RIDGE HIGH SCHOOL,12100 WOODFORD DR,Marriottsville,MD,21104,,,POINT (1330935.0595807752 602791.7604741575)
Food_Establishments_Health.486,CARRYOUT MENU INC.,6440 DOBBIN RD,Columbia,MD,21045,,UNIT A,POINT (1362757.5916454939 556409.4849282121)
Food_Establishments_Health.487,COZY CAF,10440 LITTLE PATUXENT PKWY,COLUMBIA,MD,21044,,,POINT (1351682.8915897522 562911.0166461451)
Food_Establishments_Health.488,HEALTHY ISLAND,10300 LITTLE PATUXENT PKWY,COLUMBIA,MD,21044,,SPACE 5604,POINT (1351971.1656722263 564203.7137246106)
Food_Establishments_Health.489,DUNKIN DONUTS   BASKIN ROBBINS,7916 DORSEY RUN RD,JESSUP,MD,20794,,,POINT (1374928.3185427238 541842.4248459075)
Food_Establishments_Health.490,HUNTINGTON DELI,7635 MURRAY HILL RD,COLUMBIA,MD,21046,,,POINT (1355046.1867732988 544535.2267066637)
Food_Establishments_Health.491,WAY STATION,9030 RT 108,COLUMBIA,MD,21045,,STE A,POINT (1362110.2187821104 568656.0118126103)
Food_Establishments_Health.492,CHOPSTIXX,7260 MONTGOMERY  RD,ELKRIDGE,MD,21075,,D,POINT (1389066.0404737701 561380.9690287085)
Food_Establishments_Health.493,LA PALAPA TOO,7500 MONTPELIER RD # 101 & 102,LAUREL,MD,20723,,,POINT (1342955.0644957977 544090.9626892061)
Food_Establishments_Health.494,BAGEL BIN & DELI,8630 GUILFORD RD,Columbia,MD,21046,,,POINT (1350561.4029765124 547425.5767965268)
Food_Establishments_Health.495,BOARDWALK FRIES,9220 RUMSEY RD,Columbia,MD,21045,,STE 101,POINT (1362739.1538107772 571259.8438042579)
Food_Establishments_Health.496,ELTERNHAUS INC,4201 LINTHICUM RD,DAYTON,MD,21036,21036,,POINT (1313599.397650546 579386.5389536418)
Food_Establishments_Health.497,SUBWAY,6030 DAYBREAK CIR,CLARKSVILLE,MD,21029,,,POINT (1330669.0279655783 562295.5441634617)
Food_Establishments_Health.498,CONVENIENCE CATERING,2210 FAIRGROUNDS RD,WEST FRIENDSHIP,MD,21794,,,POINT (1321511.277392279 598764.4105767695)
Food_Establishments_Health.499,CHICK N FRIENDS,8775 CLOUDLEAP CT,COLUMBIA,MD,21045,,,POINT (1364498.6500380207 560935.8270191215)
Food_Establishments_Health.500,YAMAHAMA JAPANESE RESTAURANT,10775 BIRMINGHAM WAY,WOODSTOCK,MD,21163,,STE # 7,POINT (1343829.2519926003 597621.557488382)
Food_Establishments_Health.501,SLEEP INN,8145 WASHINGTON BLVD,Jessup,MD,20794,,,POINT (1371322.9901955163 545115.2868401296)
Food_Establishments_Health.502,THE CHEESECAKE FACTORY,10300 LITTLE PATUXENT PKWY,COLUMBIA,MD,21046,,SPACE 3070,POINT (1351971.1656722263 564203.7137246106)
Food_Establishments_Health.503,PEI WEI ASIAN DINER,6478 DOBBIN CENTER WAY,Columbia,MD,21045,,STE A,POINT (1363594.0254807337 557976.4082150819)
Food_Establishments_Health.504,KOKO FOOD MART,7185 COLUMBIA GATEWAY DR,COLUMBIA,MD,21046,,,POINT (1367592.1089738098 552472.8608841916)
Food_Establishments_Health.505,SERGIO DURAN REYES @ FLEA MKT.,7540 WASHINGTON BLVD,ELKRIDGE,MD,21075,,,POINT (1377128.8594829508 551056.6595795291)
Food_Establishments_Health.506,BALTIMORE AIR COIL,7600 DORSEY RUN RD,JESSUP,MD,20794,,,POINT (1376622.2580243081 544387.7240289308)
Food_Establishments_Health.507,LETS DISH!,6925 OAKLAND MILLS RD,COLUMBIA,MD,21045,,STE G,POINT (1361631.1277435212 551402.0031504118)
Food_Establishments_Health.508,NEW  WORLD DELI,6810 DEERPATH RD,ELKRIDGE,MD,21075,,,POINT (1382410.8601331986 553106.7712015916)
Food_Establishments_Health.509,HARVEST FRIED CHICKEN,710 LISBON CENTER DR,Woodbine,MD,21797,,,POINT (1293357.8744361682 612761.9464311607)
Food_Establishments_Health.510,VOCELLI PIZZA,3355 SAINT JOHNS LN,ELLICOTT CITY,MD,21042,,STE E,POINT (1361832.7732692317 586802.9384703711)
Food_Establishments_Health.511,WOODBINE INN,401 WOODBINE RD,WOODBINE,MD,21797,21797,,POINT (1294570.6742308615 616561.8963670437)
Food_Establishments_Health.512,SUBWAY,8300 BALTIMORE NATIONAL PK,ELLICOTT CITY,MD,21043,,,POINT (1369080.8909611662 591091.9300223093)
Food_Establishments_Health.513,SUBWAY @ COLUMBIA MOBIL,7248 CRADLEROCK WAY,COLUMBIA,MD,21045,,,POINT (1356059.6823546267 553436.3109141459)
Food_Establishments_Health.514,LIFE TIME FITNESS LIFE CAF,7220 LEE DEFOREST DR,COLUMBIA,MD,21046,,,POINT (1363116.9830904466 549251.5077615588)
Food_Establishments_Health.515,LIFE TIME FITNESS BISTRO,7220 LEE DEFOREST DR,COLUMBIA,MD,21046,,,POINT (1363116.9830904466 549251.5077615588)
Food_Establishments_Health.516,FABIOLAS FOOD DELIGHT,7540 WASHINGTON BLVD,ELKRIDGE,MD,21075,,,POINT (1377128.8594829508 551056.6595795291)
Food_Establishments_Health.517,ACE SUSHI @ GIANT STORE #348,6050 DAYBREAK CIR,CLARKSVILLE,MD,21029,,,POINT (1330508.648069948 562620.1085872828)
Food_Establishments_Health.518,ACE SUSHI @ GIANT STORE #300,8805 CENTRE PARK DR,COLUMBIA,MD,21045,,,POINT (1364122.2840785673 568610.0635578404)
Food_Establishments_Health.519,ELLICOTT CITY EXXON,4235 MONTGOMERY RD,ELLICOTT CITY,MD,21043,,,POINT (1363746.7961112428 578663.951431176)
Food_Establishments_Health.520,CAF BAGEL,6010 MARSHALEE DR,ELKRIDGE,MD,21075,,,POINT (1374887.0529126439 562122.8723780203)
Food_Establishments_Health.521,SWEET CASCADES,8167 MAIN ST,ELLICOTT CITY,MD,21043,,STE 102,POINT (1369714.5086145233 583007.0858310917)
Food_Establishments_Health.522,PACHANGA COCINA MEXICANA,10291 BALTIMORE NATIONAL PK,ELLICOTT CITY,MD,21042,,,POINT (1349651.5104664494 587472.2611369888)
Food_Establishments_Health.523,FULTON WINE INC.,11845 SCAGGSVILLE RD,Fulton,MD,20759,,,POINT (1333766.5841979708 541036.7207351953)
Food_Establishments_Health.524,DOLLAR SHOP,7260 MONTGOMERY RD,Elkridge,MD,21075,,STE 1,POINT (1389066.0404737701 561380.9690287085)
Food_Establishments_Health.525,HARPERS CHOICE LIQUORS,5485 HARPERS FARM RD,COLUMBIA,MD,21044,21044,,POINT (1343555.903776325 566670.5789440775)
Food_Establishments_Health.526,ROUNDABOUT FINE WINE & SPIRITS,8305 ICE CRYSTAL DR,LAUREL,MD,20723,,,POINT (1341331.6570486056 537971.0648835029)
Food_Establishments_Health.527,LYNDWOOD SQUARE WINE & SPIRITS,6010 MARSHALEE DR,ELKRIDGE,MD,21075,,,POINT (1374887.0529126439 562122.8723780203)
Food_Establishments_Health.528,YOUR WINE & SPIRITS,10805 BIRMINGHAM WAY,Woodstock,MD,21163,,STE #28,POINT (1343328.5038148202 597603.9976457948)
Food_Establishments_Health.529,JESSUP DISCOUNT LIQUORS,7880 WASHINGTON BLVD,Elkridge,MD,21075,,STE F,POINT (1373373.687145665 548846.4607258792)
Food_Establishments_Health.530,RICHBURN LIQUORS,6030 FORELAND GARTH,COLUMBIA,MD,21045,,,POINT (1364705.8561805505 561008.4077018155)
Food_Establishments_Health.531,JASONS WINE & SPIRITS,9339 BALTIMORENATIONAL PK,ELLICOTT CITY,MD,21042,,,POINT (1359229.5266056703 586556.8080101063)
Food_Establishments_Health.532,ALLVIEW LIQUORS,9495 OLD ANNAPOLIS RD,ELLICOTT CITY,MD,21042,,,POINT (1357637.7268751352 573232.9847829797)
Food_Establishments_Health.533,OWEN BROWN WINE & SPIRITS INC,7180 CRADLEROCK WAY,COLUMBIA,MD,21045,21045,,POINT (1357130.5400884065 553710.5371225503)
Food_Establishments_Health.534,TOUCHE TOUCHET BAKERY,10400 SHAKER DR,COLUMBIA,MD,21046,,,POINT (1348888.535306033 552797.4253080128)
Food_Establishments_Health.535,PHO DAT THANH,9400 SNOWDEN RIVER PKWY #124,COLUMBIA,MD,21045,,,POINT (1358484.6966159274 549984.0458614905)
Food_Establishments_Health.536,STARBUCKS @ GIANT FOOD #344,6020 MARSHALEE DR,Elkridge,MD,21075,,,POINT (1375079.9185170606 562041.2191099895)
Food_Establishments_Health.537,AN LOI,7104 MINSTREL WAY,COLUMBIA,MD,21045,,,POINT (1356989.4760196223 550275.5392484391)
Food_Establishments_Health.538,KATANA RESTAURANT,6343 TEN OAKS RD,CLARKSVILLE,MD,21029,,,POINT (1327821.699490054 560812.9081210106)
Food_Establishments_Health.539,SHANGRI-LA ASSISTED LIVING,4475 MONTGOMERY RD,Ellicott City,MD,21043,,,POINT (1366645.6334583564 576270.2522224894)
Food_Establishments_Health.540,LISBON LIQUORS,16109 FREDERICK ROAD,LISBON,MD,21765,,,POINT (1291233.4261471527 608357.6452462327)
Food_Establishments_Health.541,MAPLE LAWN MARKET,8181 MAPLE LAWN BLVD,FULTON,MD,20759,,,POINT (1339215.9886808838 539187.3766467137)
Food_Establishments_Health.542,JOHNS HOPKINS EXXON,7570 MONTPELIER RD,Laurel,MD,20723,,,POINT (1342800.2452169866 543804.1519269475)
Food_Establishments_Health.543,SNOWBALLS,12260 CLARKSVILLE PK,Clarksville,MD,21029,,,POINT (1329391.256753312 562357.5889406033)
Food_Establishments_Health.544,NORMANDY WINE & SPIRITS,8450 BALTIMORE NATIONAL PK,Ellicott City,MD,21043,,,POINT (1367060.9237355452 590033.0715142975)
Food_Establishments_Health.545,JOHNNYS BISTRO ON MAIN,8167 MAIN ST,ELLICOTT CITY,MD,21043,,,POINT (1369714.5086145233 583007.0858310917)
Food_Establishments_Health.546,TROY FARMS LIQUORS,6161 MEADOWRIDGE RD,ELKRIDGE,MD,21075,,,POINT (1374547.5626226235 559167.8435346276)
Food_Establishments_Health.547,STARBUCKS #10641,7090 DEEPAGE DR,COLUMBIA,MD,21044,,,POINT (1357860.1515479072 549770.6937740553)
Food_Establishments_Health.548,ROYAL FARMS #54,8268 LARK BROWN RD,ELKRIDGE,MD,21075,,,POINT (1370210.8668316565 554507.4613119687)
Food_Establishments_Health.549,ROYAL PIZZA,9400 SNOWDEN RIVER PKWY,COLUMBIA,MD,21046,,,POINT (1358484.6966159274 549984.0458614905)
Food_Establishments_Health.550,DECANTER FINE WINES,6420 FREETOWN RD,COLUMBIA,MD,21044,,,POINT (1345362.5189145112 556584.7906900416)
Food_Establishments_Health.551,GAME SPORTS BAR & GRILL LLC.,11200 SCAGGSVILLE RD,Laurel,MD,20723,,,POINT (1340588.5830431213 539202.8878409992)
Food_Establishments_Health.552,PINE ORCHARD MART,10193 BALTIMORE NATIONAL PK,ELLICOTT CITY,MD,21042,,,POINT (1350935.134959578 587362.8047848615)
Food_Establishments_Health.553,PAPA JOHNS 1728,8851 GORMAN RD  SUITE #300,LAUREL,MD,20723,,,POINT (1363332.0911621405 533151.4734213862)
Food_Establishments_Health.554,Q DOBA MEXICAN GRILL,6476 DOBBIN CENTRE WAY,COLUMBIA,MD,21045,,,POINT (1363366.3328551857 558202.6375204144)
Food_Establishments_Health.555,DAYTON OAKS ELEMENTARY SCHOOL,4691 TEN OAKS RD,DAYTON,MD,21036,,,POINT (1316976.4480441192 573337.1731823308)
Food_Establishments_Health.556,GREAT WALL RESTAURANT,6325 WASHINGTON BLVD,ELKRIDGE,MD,21075,,,POINT (1389291.3917869732 560533.4139598302)
Food_Establishments_Health.557,LAKEVIEW DELI,9861 BROKENLAND PKWY,COLUMBIA,MD,21044,,,POINT (1354601.0447637117 552357.2585871588)
Food_Establishments_Health.558,DOBBIN CENTER CROWN,6345 DOBBIN RD,COLUMBIA,MD,21045,,,POINT (1363267.997736697 557252.6500364437)
Food_Establishments_Health.559,STELLA NOTTE,8809 BALTIMORE NATIONAL PK,ELLICOTT CITY,MD,21043,,,POINT (1364222.6678453577 587072.4820540855)
Food_Establishments_Health.560,CHEEBURGER CHEEBURGER,8872 MCGAW RD,Columbia,MD,21045,,,POINT (1363658.1189061773 554229.1378069606)
Food_Establishments_Health.561,MOM'S ORGANIC MARKET,7351 ASSATEAGUE DR,Jessup,MD,20794,,,POINT (1373027.1729186098 547379.6285417568)
Food_Establishments_Health.562,COLUMBIA'S BEST DELI,6490 DOBBIN RD,COLUMBIA,MD,21045,,,POINT (1363224.976122358 555785.232524235)
Food_Establishments_Health.563,ARIRANG ADULT MEDICAL DAYCARE LTD.,9170 RUMSEY RD SUITE C,COLUMBIA,MD,21045,,,POINT (1363403.501188662 570712.8547076647)
Food_Establishments_Health.564,GARY J. ARTHUR 50 CENTER AT GLENWOOD,2400 ROUTE 97,COOKSVILLE,MD,21723,,,POINT (1305907.893933283 596777.514388021)
Food_Establishments_Health.565,MACYS,10300 LITTLE PATUXENT PKWY,COLUMBIA,MD,21044,,,POINT (1351971.1656722263 564203.7137246106)
Food_Establishments_Health.566,MT. AIRY CHRISTIAN ACADEMY,16700 OLD FREDERICK ROAD,MT. AIRY,MD,21771,,,POINT (1285104.1630920698 612849.4529800538)
Food_Establishments_Health.567,ST. ANDREWS EPISCOPAL CHURCH,2892 ROUTE 97,GLENWOOD,MD,21738,,,POINT (1304740.16440123 592498.766077592)
Food_Establishments_Health.568,STARBUCKS @ GIANT #348,6050 DAYBREAK CIR,Clarksville,MD,21029,,,POINT (1330508.648069948 562620.1085872828)
Food_Establishments_Health.569,EDIBLE ARRANGEMENTS,6925 OAKLAND MILLS ROAD   SUITE T,Columbia,MD,21045,,,POINT (1361631.1277435212 551402.0031504118)
Food_Establishments_Health.570,WOODBINE WINE & SPIRITS,703 LISBON CENTER DR  SUITE A,WOODBINE,MD,21797,,,POINT (1293297.292979242 613569.1138620884)
Food_Establishments_Health.571,SUBWAY,703 LISBON CENTER DR,WOODBINE,MD,21797,,,POINT (1293297.292979242 613569.1138620884)
Food_Establishments_Health.572,DUNKIN DONUTS,9469 BALTIMORE NATIONAL PK,ELLICOTT CITY,MD,21042,,,POINT (1358111.549960948 586585.4890863321)
Food_Establishments_Health.573,U.S. 1 LIQUORS,8167 WASHINGTON BLVD,JESSUP,MD,20794,,,POINT (1370964.476742693 544701.4598831565)
Food_Establishments_Health.574,THE HOME DEPOT #2575,9051 SNOWDEN RIVER PKWY,COLUMBIA,MD,21046,,,POINT (1363155.6147441384 550837.7468752746)
Food_Establishments_Health.575,THE HOME DEPOT #2566,9190 BALTIMORE NATIONAL PK,ELLICOTT CITY,MD,21042,,,POINT (1360814.0097351274 587343.7816220587)
Food_Establishments_Health.576,JIMMY JOHNS #728,6191 OLD DOBBIN LN #920,COLUMBIA,MD,21045,,,POINT (1365450.6861702935 558282.5348041866)
Food_Establishments_Health.577,SUBWAY,9105 ALL SAINTS RD #K,LAUREL,MD,20707,,,POINT (1356059.3896905836 529943.2901806938)
Food_Establishments_Health.578,PARKVIEW DELI,10480 LITTLE PATUXENT PKWY,COLUMBIA,MD,21044,,,POINT (1351111.318713537 562941.7463706728)
Food_Establishments_Health.579,LA BOULANGERIE,8815 BALTIMORE NATIONAL PK,ELLICOTT CITY,MD,21043,,A,POINT (1364209.4979634173 586801.7678141986)
Food_Establishments_Health.580,ORTHODOX CHURCH OF ST. MATTHEW,7271 EDEN BROOK DR,COLUMBIA,MD,21046,,,POINT (1350048.6555729646 546805.1290251103)
Food_Establishments_Health.581,LISBON BP,15882 FREDERICK RD,LISBON,MD,21765,,,POINT (1293204.8111416157 607840.2152179948)
Food_Establishments_Health.582,LILYS MEXICAN MARKET,6490 DOBBIN RD,Columbia,MD,21045,,STE N,POINT (1363224.976122358 555785.232524235)
Food_Establishments_Health.583,DUNKIN DONUTS BASKIN ROBBINS,703 LISBON CENTER DR #F,WOODBINE,MD,21797,,,POINT (1293297.292979242 613569.1138620884)
Food_Establishments_Health.584,YETNAL HOUSE,10194 BALTIMORE NATIONAL PK,ELLICOTT CITY,MD,21043,,6,POINT (1350757.1952213605 587818.7753640441)
Food_Establishments_Health.585,PANDA EXPRESS RESTAURANT #1436,7351 ASSATEAGUE DR,Jessup,MD,20794,,,POINT (1373027.1729186098 547379.6285417568)
Food_Establishments_Health.586,CAF ON THE QUAD @ HO. COM. COLLEGE,10901 LITTLE PATUXENT PKWY,Columbia,MD,21044,,,POINT (1346400.012947375 564257.5639085448)
Food_Establishments_Health.587,SUBWAY,7500 MONTPELIER RD #110,LAUREL,MD,20723,,,POINT (1342955.0644957977 544090.9626892061)
Food_Establishments_Health.588,STARBUCKS @ HOWARD COMM. COLLEGE,10901 LITTLE PATUXENT PKWY,COLUMBIA,MD,21044,,,POINT (1346400.012947375 564257.5639085448)
Food_Establishments_Health.589,CINDY'S SPIRITS,7250 MONTGOMERY RD,Elkridge,MD,21075,,,POINT (1389222.0304087535 561485.7427561459)
Food_Establishments_Health.590,WETZEL'S PRETZELS,10300 LITTLE PATUXENT PKWY,COLUMBIA,MD,21044,,#2605,POINT (1351971.1656722263 564203.7137246106)
Food_Establishments_Health.591,GATEWAY PIZZA AND SUBS INC.,6520 OLD WATERLOO RD,ELKRIDGE,MD,21075,,,POINT (1370724.784891377 555378.72216834)
Food_Establishments_Health.592,WOODY'S BAR,8806 WASHINGTON BLVD,JESSUP,MD,20794,,,POINT (1366270.1454910322 538133.2007633919)
Food_Establishments_Health.593,STARBUCKS COFFEE #11964,7351 ASSATEAGUE DR,JESSUP,MD,20794,,STE #90,POINT (1373027.1729186098 547379.6285417568)
Food_Establishments_Health.594,MEADOWRIDGE WINE & SPIRIT,6501 HUNTSHIRE DR #101,ELKRIDGE,MD,21075,,,POINT (1376535.3368035012 555837.6193879537)
Food_Establishments_Health.595,SLEEP INN,10127 NORTH SECOND ST,LAUREL,MD,20723,,,POINT (1358105.9893441289 524286.0942271649)
Food_Establishments_Health.596,JUDGE'S BENCH,8385 MAIN STREET,ELLICOTT CITY,MD,21043,,,POINT (1368804.0307763738 583387.549087149)
Food_Establishments_Health.597,SEA- KING SEAFOOD MKTS.,3417 PLUM TREE DR,ELLICOTT CITY,MD,21043,,,POINT (1358986.908113923 586509.1037710776)
Food_Establishments_Health.598,THE RUMOR MILL,8069 TIBER ALLEY,ELLICOTT CITY,MD,21043,,,POINT (1370112.531713168 582987.1846761595)
Food_Establishments_Health.599,JAE'S GRILL,7221 LEE DEFOREST DR,Columbia,MD,21046,,B100,POINT (1363539.29730467 548683.739517904)
Food_Establishments_Health.600,PB & J SALES,7540 WASHINGTON BLVD,ELKRIDGE,MD,21075,,,POINT (1377128.8594829508 551056.6595795291)
Food_Establishments_Health.601,SUBWAY,10795 BIRMINGHAM WAY,Woodstock,MD,21163,,,POINT (1343488.2983823642 597519.1250732896)
Food_Establishments_Health.602,FIVE BELOW,8261 GATEWAY OVERLOOK DR,Elkridge,MD,21075,,,POINT (1370910.3338947156 552753.8183655877)
Food_Establishments_Health.603,OLDE TYME LIQUORS,13559 TRIADELPHIA RD,ELLICOTT CITY,MD,21042,,,POINT (1316827.7747102135 581680.7323876673)
Food_Establishments_Health.604,DOLLAR BUYS,8775 CLOUDLEAP CT #18,COLUMBIA,MD,21045,,,POINT (1364498.6500380207 560935.8270191215)
Food_Establishments_Health.605,THE VITAMIN SHOPPE,6250 COLUMBIA CROSSING CIR,COLUMBIA,MD,21044,,,POINT (1365103.879279195 557758.666167)
Food_Establishments_Health.606,COSTCO WHOLESALE,6675 MARIE CURIE DR,Elkridge,MD,21075,,,POINT (1370840.0945243665 553365.1935516675)
Food_Establishments_Health.607,ROMA'S PIZZA & SUBS,10132 BALTIMORE NATIONAL PK,ELLICOTT CITY,MD,21042,,,POINT (1351563.1919961157 587642.2989460421)
Food_Establishments_Health.608,MCDONALD'S,10001 WASHINGTON BLVD,LAUREL,MD,20723,,,POINT (1358722.3398189417 525889.893183468)
Food_Establishments_Health.609,BEST BUY STORE #263,8251 GATEWAY OVERLOOK DR,Elkridge,MD,21075,,,POINT (1370832.4852592454 552870.0059907067)
Food_Establishments_Health.610,VETERANS ELEMENTARY SCHOOL,4355 MONTGOMERY RD,Ellicott City,MD,21043,,,POINT (1365306.1101329916 578188.3723611045)
Food_Establishments_Health.611,KINGS CONTRIVANCE EXXON,7201 EDEN BROOK DR,COLUMBIA,MD,21046,,,POINT (1350376.43930126 547565.1775450954)
Food_Establishments_Health.612,OFFICE DEPOT #2672,8231 GATEWAY OVERLOOK DR,ELKRIDGE,MD,21075,,BLDG A,POINT (1370679.421964693 553103.2592330741)
Food_Establishments_Health.613,TRI PIZZA & SUBS,3900 TEN OAKS RD,Glenelg,MD,21737,,STE 6,POINT (1316008.0227254317 581917.4975985523)
Food_Establishments_Health.614,SOCCER ASSOC. OF COLUMBIA,4560 CENTENNIAL LN,ELLICOTT CITY,MD,21042,,,POINT (1348727.8627463595 575343.3851979253)
Food_Establishments_Health.615,TERE'S LATIN MARKET,8525 BALTIMORE NATIONAL PK,ELLICOTT CITY,MD,21043,,A,POINT (1366935.9561891325 589023.087901487)
Food_Establishments_Health.616,LA QUINTA INN & SUITES,7300 CRESTMONT RD,JESSUP,MD,20794,,,POINT (1372202.1529810517 548071.1936756517)
Food_Establishments_Health.617,BUSHY PARK ELEMENTARY SCHOOL,14601 CARRS MILL RD,Glenwood,MD,21738,,,POINT (1306020.5695898845 595457.5995535454)
Food_Establishments_Health.618,RANAZUL,8171 MAPLE LAWN BLVD,FULTON,MD,20759,,STE #170,POINT (1339134.6280768963 539600.6182756006)
Food_Establishments_Health.619,COSI,6181 OLD DOBBIN LN  SUITE #200,COLUMBIA,MD,21045,,,POINT (1365640.3324702359 558656.5594512952)
Food_Establishments_Health.620,HOULIHAN'S COLUMBIA,8240 GATEWAY OVERLOOK DR,ELKRIDGE,MD,21075,21075,,POINT (1370058.9741932766 552879.6639041298)
Food_Establishments_Health.621,MIMIS CAF # 122,8250 GATEWAY OVERLOOK DR,Elkridge,MD,21075,,,POINT (1370324.4204803875 552600.4624069923)
Food_Establishments_Health.622,SUBWAY #34665,6790 BUSINESS PKWY #A,ELKRIDGE,MD,21075,21075,,POINT (1378342.8299338166 552127.8099773519)
Food_Establishments_Health.623,HAPPY GARDEN,7284 CRADLEROCK WAY,COLUMBIA,MD,21045,21045,UNIT C,POINT (1356604.330138875 553545.7672662731)
Food_Establishments_Health.624,FRIENDSHIP LIQUOR INC.,12800 FREDERICK RD,West Friendship,MD,21794,,,POINT (1324974.663678573 596273.8395698097)
Food_Establishments_Health.625,JO-ANN FABRIC AND CRAFT #1906,6161 COLUMBIA CROSSING CIR,COLUMBIA,MD,21045,21045,,POINT (1365696.816630558 556481.1876187768)
Food_Establishments_Health.626,PUB DOG,8865 STANFORD BLVD,Columbia,MD,21045,,,POINT (1363852.1551667666 555168.296721336)
Food_Establishments_Health.627,DUCHESS,4126 OLD COLUMBIA PK,ELLICOTT CITY,MD,21043,,,POINT (1363445.6448108715 579049.3899759664)
Food_Establishments_Health.628,MORNINGSTAR,7916 DORSEY RUN RD,JESSUP,MD,20794,20794,STE 5,POINT (1374928.3185427238 541842.4248459075)
Food_Establishments_Health.629,KIDDIE ACADEMY OF ELKRIDGE,6534 OLD WATERLOO RD,Elkridge,MD,21075,,,POINT (1370919.1138160094 555036.8905659746)
Food_Establishments_Health.630,RUBY TUESDAY #4976,6080 DAYBREAK CIR,CLARKSVILLE,MD,21029,21029,,POINT (1330079.0172546462 562551.3325371494)
Food_Establishments_Health.631,THE JOHNS HOPKINS UNIV. APPLIED PHYSICS LAB. LLC (MP6 CAFE),7651 MONTPELIER RD,Laurel,MD,20723,,,POINT (1343017.1092729394 544929.1525087047)
Food_Establishments_Health.632,TRADER JOE'S #658,6610 MARIE CURIE DR,Elkridge,MD,21075,,,POINT (1370253.303117909 554229.4304710038)
Food_Establishments_Health.633,VILLAGE LIQUORS OF CLARKSVILLE,12210 CLARKSVILLE PK,CLARKSVILLE,MD,21029,21029,UNIT 7,POINT (1330141.9400239172 563125.5393897528)
Food_Establishments_Health.634,MA UNLIMITED @ US RT 1 FLEA MKT,7540 WASHINGTON  BLVD,ELKRIDGE,MD,21075,21075,,POINT (1377128.8594829508 551056.6595795291)
Food_Establishments_Health.635,GENERAL NUTRITION CENTER #52,10300 LITTLE PATUXENT PKWY,COLUMBIA,MD,21044,21044,,POINT (1351971.1656722263 564203.7137246106)
Food_Establishments_Health.636,BAGEL BIN & DELI,10451 TWIN RIVERS RD,Columbia,MD,21044,,,POINT (1347846.358648479 565651.2300818871)
Food_Establishments_Health.637,DUNKIN DONUTS,4872 MONTGOMERY RD#107,ELLICOTT CITY,MD,21043,,,POINT (1369074.7450162608 572048.8660645122)
Food_Establishments_Health.638,FACCI RISTORANTE,7530 MONTPELIER RD,LAUREL,MD,20723,,STE 110,POINT (1343154.9540372493 543868.245352391)
Food_Establishments_Health.639,VICTORIA GASTRO PUB,8201 SNOWDEN RIVER PKWY,COLUMBIA,MD,21045,,,POINT (1368976.7025618153 562126.9696746239)
Food_Establishments_Health.640,DOLLAR TREE #3766,712 LISBON CENTER DR,WOODBINE,MD,21797,,,POINT (1293383.9215360058 612907.4004605918)
Food_Establishments_Health.641,SUBWAY,8765 CENTRE PARK DR,Columbia,MD,21045,,STE 12A,POINT (1364057.6053250374 568245.6968241547)
Food_Establishments_Health.642,CASUAL GOURMET,2490 ROUTE 97,GLENWOOD,MD,21738,MD,21738,POINT (1306245.9209030876 595965.9569964465)
Food_Establishments_Health.643,EDIBLE ARRANGEMENTS,3355 SAINT JOHNS LN,ELLICOTT CITY,MD,21042,21042,#C,POINT (1361832.7732692317 586802.9384703711)
Food_Establishments_Health.644,DOLLAR PLUS,9105 ALL SAINTS RD,LAUREL,MD,20723,20723,D,POINT (1356059.3896905836 529943.2901806938)
Food_Establishments_Health.645,SMOOTHIE KING,8874 MCGAW RD,COLUMBIA,MD,21045,21045,STE C,POINT (1363294.630164621 554227.3818227019)
Food_Establishments_Health.646,LARK BROWN LIQUORS,6590 OLD WATERLOO RD,ELKRIDGE,MD,21075,,B,POINT (1371129.8319270564 554543.1663252295)
Food_Establishments_Health.647,PAZANI TRATTORIA ITALIANA,6060 MARSHALEE DR SUITE 11,ELKRIDGE,MD,21075,21075,,POINT (1375270.4428091324 561807.965867622)
Food_Establishments_Health.648,MCDONALD'S,6095 DAYBREAK CIR,CLARKSVILLE,MD,21029,,,POINT (1330086.041191681 562151.5534542461)
Food_Establishments_Health.649,LUCKY'S FOOD & DELI,7300 WASHINGTON BLVD,Elkridge,MD,21075,,,POINT (1379085.0259471715 552684.4569873681)
Food_Establishments_Health.650,COMFORT SUITES,7146 OLD WATERLOO RD,Elkridge,MD,21075,,,POINT (1373019.5636534886 549142.9294015608)
Food_Establishments_Health.651,DUNKIN DONUTS,7530 MONTPELIER RD,Laurel,MD,20723,,,POINT (1343154.9540372493 543868.245352391)
Food_Establishments_Health.652,STAR LIQUORS & CO.,8610 WASHINGTON BLVD,Jessup,MD,20794,,STE 102,POINT (1366534.1284579274 539137.3310953401)
Food_Establishments_Health.653,SIMPLY DESSERTS,10622 BIG WOODS CT,Columbia,MD,21044,,,POINT (1348198.7261563968 568005.7123087955)
Food_Establishments_Health.654,GRASSROOTS CRISIS INTERVENTION,6700 FREETOWN RD,Columbia,MD,21044,,,POINT (1346643.802095295 553475.527895924)
Food_Establishments_Health.655,SUBWAY,6420 FREETOWN RD SUITE 100,Columbia,MD,21044,,,POINT (1345362.5189145112 556584.7906900416)
Food_Establishments_Health.656,KLOBY'S SMOKEHOUSE,7500 Montpelier Rd,Laurel,MD,20723,,STE 116,POINT (1342955.0644957977 544090.9626892061)
Food_Establishments_Health.657,THE ORIGINIAL WOODSTOCK SNOWBALL STAND,10720 OLD FREDERICK RD,Woodstock,MD,21163,,,POINT (1345423.6856995234 589126.3983087087)
Food_Establishments_Health.658,KIMKO INC.,10176 BALTIMORE NATIONAL PK,Ellicott City,MD,21043,,,POINT (1351043.1279914896 587800.9228574137)
Food_Establishments_Health.659,CLARK'S ELIOAK FARM,10500 CLARKSVILLE PK,Ellicott City,MD,21042,,,POINT (1347417.6058253068 571841.9525860256)
Food_Establishments_Health.660,STARBUCKS @ HARRIS TEETER,8620 GUILFORD RD,Columbia,MD,21046,,,POINT (1350812.5087255104 547540.0084373871)
Food_Establishments_Health.661,HARRIS TEETER #322,8620 GUILFORD RD,Columbia,MD,21046,,,POINT (1350812.5087255104 547540.0084373871)
Food_Establishments_Health.662,AFC SUSHI @ HARRIS TEETER #322,8620 GUILFORD RD,Columbia,MD,21046,,,POINT (1350812.5087255104 547540.0084373871)
Food_Establishments_Health.663,FAT BURGER RESTAURANT,6630 MARIE CURIE DR,Elkridge,MD,21075,,,POINT (1370077.9973560795 554133.4366648601)
Food_Establishments_Health.664,ELLICOTT CITY HEALTH & REHAB. CTR,3000 NORTH RIDGE RD,Ellicott City,MD,21043,,,POINT (1363103.520544463 591531.8040791202)
Food_Establishments_Health.665,TACO BELL EXPRESS,10300 LITTLE PATUXENT PKWY # 1340,Columbia,MD,21044,,,POINT (1351971.1656722263 564203.7137246106)
Food_Establishments_Health.666,SHERATON COLUMBIA HOTEL,10207 WINCOPIN CIR,Columbia,MD,21044,,,POINT (1353456.1430270222 564873.9143833576)
Food_Establishments_Health.667,KOKO'S MINI MARKET,7060 OAKLAND MILLS RD  #G,Columbia,MD,21046,,,POINT (1360648.9472148072 549673.8219757823)
Food_Establishments_Health.668,EAGLE PHARMACY,2470 LONG STONE LN,Marriottsville,MD,21104,,#G,POINT (1341189.714987692 598213.9095116588)
Food_Establishments_Health.669,TRIANGLE LIQUORS,8801 BALTIMORE NATIONAL PK,Ellicott City,MD,21042,,,POINT (1363947.270980781 586658.6550971124)
Food_Establishments_Health.670,FAST WOK,12186 CLARKSVILLE PK SUITE 16,Clarksville,MD,21029,,,POINT (1330294.7106544264 563293.8212145474)
Food_Establishments_Health.671,FAIRWAY HILLS GOLF CLUB,5100 COLUMBIA RD,Columbia,MD,21044,,,POINT (1356484.9232092816 571675.7194095328)
Food_Establishments_Health.672,WILLIAM SONOMA #907,10300  LITTLE PATUXENT PKWY,Columbia,MD,21044,,SPACES 102,POINT (1351971.1656722263 564203.7137246106)
Food_Establishments_Health.673,INDUSTRIAL DELI,9143 RED BRANCH RD,Columbia,MD,21045,,A,POINT (1363372.4788000912 569709.3097038028)
Food_Establishments_Health.674,MARBLE SLAB CREAMERY,10300 LITTLE PATUXENT PKWY,Columbia,MD,21044,,,POINT (1351971.1656722263 564203.7137246106)
Food_Establishments_Health.675,HOLIDAY INN EXPRESS HOTEL & SUITES ELKRIDGE-WEST,6064 MARSHALEE DR,Elkridge,MD,21075,,,POINT (1375062.9440025596 561398.8215353389)
Food_Establishments_Health.676,MIMI'S KABOB,12345 WAKE FOREST RD,Clarksville,MD,21029,,,POINT (1328628.2815928955 559984.083550892)
Food_Establishments_Health.677,CHOE'S CAFE' INC T/A KIM BAB NARA,9339 BALTIMORE NATIONAL PK #F,Ellicott City,MD,21042,,,POINT (1359229.5266056703 586556.8080101063)
Food_Establishments_Health.678,K & C STORES INC T/A BISTRO BLANC,3800 TEN OAKS RD,DAYTON,MD,21737,21737,,POINT (1315953.8798774544 582647.9870501823)
Food_Establishments_Health.679,OH WHAT A CAKE!,6656 DOBBIN RD SUITE #K,Columbia,MD,21045,,,POINT (1361863.7956578024 553850.4305351621)
Food_Establishments_Health.680,CHA YA ASIAN CAFE,8874 MCGAW RD #G,Columbia,MD,21045,,,POINT (1363294.630164621 554227.3818227019)
Food_Establishments_Health.681,TRAVEL CENTERS OF AMERICA,7541 ASSATEAGUE DR,Jessup,MD,20794,,,POINT (1374028.66927417 545879.1399926754)
Food_Establishments_Health.682,TURF VALLEY MEMBER GRILL,2700 TURF VALLEY RD,Ellicott City,MD,21042,,,POINT (1344805.5792404518 593490.604519729)
Food_Establishments_Health.683,CRICKETT'S FAT DADDY SALOON,9920 WASHINGTON BLVD,Laurel,MD,20723,,,POINT (1359105.437051387 526850.7092370342)
Food_Establishments_Health.684,K B/TRIPLE NINES BAR & BILLIARDS,7540 WASHINGTON BLVD,Elkridge,MD,21075,,,POINT (1377128.8594829508 551056.6595795291)
Food_Establishments_Health.685,MONTGOMERY EXXON,6310 WASHINGTON BLVD,Elkridge,MD,21075,,,POINT (1389492.4519845974 561117.8640539427)
Food_Establishments_Health.686,KAYS DINER,8221 PRESTON STREET,Jessup,MD,20794,,,POINT (1370699.9084477117 539550.86538827)
Food_Establishments_Health.687,ELKRIDGE EXXON,7311 WASHINGTON BLVD,Elkridge,MD,21075,,,POINT (1379294.8660660891 552316.870949208)
Food_Establishments_Health.688,ATHOLTON HIGH SCHOOL,6520 FREETOWN RD,Columbia,MD,21044,,,POINT (1346179.3442588618 554094.2196830818)
Food_Establishments_Health.689,DIAMONDBACK TAVERN,3733 OLD COLUMBIA PK,Ellicott City,MD,21043,,,POINT (1369337.2646629403 582910.799360905)
Food_Establishments_Health.690,WALGREENS #10539,12400 AUTO DR,Clarksville,MD,21029,,,POINT (1329011.0861612977 561752.3596994291)
Food_Establishments_Health.691,NEW YORK J & P RESTAURANT,8305 ICE CRYSTAL DR #107,Laurel,MD,20723,,,POINT (1341331.6570486056 537971.0648835029)
Food_Establishments_Health.692,STARBUCKS #13809,5705 RICHARDS VALLEY RD,Ellicott City,MD,21042,,,POINT (1368315.574488405 563516.2458873193)
Food_Establishments_Health.693,UPPER CRUST PIZZERIA & DELI,8835 CENTRE PARK DR,Columbia,MD,21045,,STE 103,POINT (1364834.9210235667 568732.9824559512)
Food_Establishments_Health.694,STAINED GLASS PUB,6751 DORSEY ROAD,Elkridge,MD,21075,,,POINT (1381277.957622277 553452.7001005607)
Food_Establishments_Health.695,BURGER KING,9195 BALTIMORE NATIONAL PK,Ellicott City,MD,21042,,,POINT (1360675.5796427312 586392.3308178723)
Food_Establishments_Health.696,GINZA OF TOKYO,7530 MONTPELIER RD #101,Laurel,MD,20723,,,POINT (1343154.9540372493 543868.245352391)
Food_Establishments_Health.697,QUIZNOS,6500 WASHINGTON BLVD,Elkridge,MD,21075,,,POINT (1387540.0901529372 559311.8342438431)
Food_Establishments_Health.698,GLEN MAR UNITED METHODIST CHURCH,4701 NEW CUT RD,Ellicott City,MD,21043,,,POINT (1368513.708045598 573671.688183618)
Food_Establishments_Health.699,TEN OAKS TAVERN,3900 TEN OAKS RD,Glenelg,MD,21737,,PO BOX 325,POINT (1316008.0227254317 581917.4975985523)
Food_Establishments_Health.700,KATANA SUSHI,6060 MARSHALEE DR,Elkridge,MD,21075,,,POINT (1375270.4428091324 561807.965867622)
Food_Establishments_Health.701,ROCKBURN BRANCH PARK CONCESSION,5400 LANDING RD,Elkridge,MD,21075,,,POINT (1380538.9809133965 566198.5118425234)
Food_Establishments_Health.702,7-ELEVEN,6590 OLD WATERLOO RD,Elkridge,MD,21075,,A,POINT (1371129.8319270564 554543.1663252295)
Food_Establishments_Health.703,SECOND CHANCE SALOON,5888 Robert Oliver PL,Columbia,MD,21045,,A,POINT (1356078.9981814728 562335.053809283)
Food_Establishments_Health.704,NORMANDY CROWN,8505 BALTIMORE NATIONAL PK,Ellicott City,MD,21043,,,POINT (1367034.8766357074 589194.2963667128)
Food_Establishments_Health.705,ROYAL TAJ,8874 MCGAW RD SUITE E,Columbia,MD,21045,,,POINT (1363294.630164621 554227.3818227019)
Food_Establishments_Health.706,VZW-HANOVER CALL CENTER,7401 COCA COLA DR,Hanover,MD,21076,,,POINT (1388702.2590681706 553972.1787771004)
Food_Establishments_Health.707,VZW - MONTPELIER OFFICE PARK,7600 MONTPELIER RD,Laurel,MD,20723,,,POINT (1343580.1948919042 544290.5595666147)
Food_Establishments_Health.708,COLD STONE CREAMERY,5705 RICHARDS VALLEY RD,Ellicott City,MD,21043,,STE B-2,POINT (1368315.574488405 563516.2458873193)
Food_Establishments_Health.709,TRAVEL CENTER OF AMERICA-TRAVEL STORE,7401 ASSATEAGUE DR,Jessup,MD,20794,,,POINT (1373889.3611896443 546347.6951257121)
Food_Establishments_Health.710,7-ELEVEN,4882 MONTGOMERY RD,Ellicott City,MD,21043,,,POINT (1369130.0585204107 571815.9054861878)
Food_Establishments_Health.711,PHILLY'S BEST PIZZA,5134 THUNDERHILL RD,Columbia,MD,21045,,,POINT (1360293.360402415 569096.7638615506)
Food_Establishments_Health.712,SAVAGE LIQUORS,8851 GORMAN RD,Laurel,MD,20723,,STE 100,POINT (1363332.0911621405 533151.4734213862)
Food_Establishments_Health.713,PASTA BLITZ TO GO,2490 RT 97,Glenwood,MD,21738,,STE 6,POINT (1306245.9209030876 595965.9569964465)
Food_Establishments_Health.714,SHELL @ ALL SAINTS,9280 ALL SAINTS RD,Laurel,MD,20723,,,POINT (1354333.257164256 529137.5860699817)
Food_Establishments_Health.715,THE WINE BIN,8390  MAIN STREET,Ellicott City,MD,21043,,,POINT (1368854.9543198769 583491.7374865001)
Food_Establishments_Health.716,LOONEY'S PUB - MAPLE LAWN,8180 MAPLE LAWN BLVD,Fulton,MD,20759,,,POINT (1338766.749374693 539589.497041962)
Food_Establishments_Health.717,MICHAEL'S DELI CAFE,10710 CHARTER DR,Columbia,MD,21044,,,POINT (1345659.2802542357 563415.8621205288)
Food_Establishments_Health.718,SNOWDEN RIVER LIQUORS,9350 SNOWDEN RIVER PKWY,Columbia,MD,21045,,A,POINT (1358844.9660530093 549950.9748246178)
Food_Establishments_Health.719,BISTRO @ MERKLE,7001 COLUMBIA GATEWAY DR,Columbia,MD,21046,,,POINT (1369151.4229955585 549931.6589977719)
Food_Establishments_Health.720,Columbia Mall,10300 Little Patuxent Pkwy,Columbia,MD,21044,,,POINT (1351971.1656722263 564203.7137246106)
Food_Establishments_Health.721,COAL FIRE PIZZA llc,5725 RICHARDS VALLEY RD,COLUMBIA,MD,21043,21043,,POINT (1368464.2478223103 563714.6721085554)
Food_Establishments_Health.722,LAS VEGAS TEX MEX R,7968 WASHINGTON BLVD,Jessup,MD,20794,,,POINT (1372511.4988746305 547569.8601697854)
Food_Establishments_Health.723,JESSUP DELI,7840  WASHINGTON BLVD,Elkridge,MD,21075,,,POINT (1373479.3388652317 548619.6460924605)
Food_Establishments_Health.724,BAJA FRESH,6435 DOBBIN RD,Columbia,MD,21045,,,POINT (1363551.5891944813 556604.6918449738)
Food_Establishments_Health.725,UNION JACK'S OF COLUMBIA,10400 LITTLE PATUXENT PKWY,Columbia,MD,21044,,,POINT (1352339.6297025157 562948.4776436646)
Food_Establishments_Health.726,YAMA SUSHI,4725  DORSEY HALL DR,Ellicott City,MD,21042,,STE G,POINT (1356993.865980269 573988.0580142319)
Food_Establishments_Health.727,LITTLE FRENCH MARKET,3744 OLD COLUMBIA PK,Ellicott City,MD,21043,,,POINT (1369195.0299379835 582880.0696363772)
Food_Establishments_Health.728,ROMANO'S MACARONI GRILL,6181 COLUMBIA CROSSING CIR,Columbia,MD,21045,,,POINT (1364974.2291080924 556761.5597720867)
Food_Establishments_Health.729,MERRIWEATHER PT.PAV. KITCHEN,10475 LITTLE PATUXENT PKWY,Columbia,MD,21044,,,POINT (1351260.8700395718 561709.3380850903)
Food_Establishments_Health.730,PURE WINE CAFE,8210 MAIN ST,Ellicott City,MD,21043,,,POINT (1369536.5688763056 583121.517471952)
Food_Establishments_Health.731,AURANG SUSHI,8801 BALTIMORE NATIONAL PK,Ellicott City,MD,21043,,,POINT (1363947.270980781 586658.6550971124)
Food_Establishments_Health.732,CHIPOTLE MEXICAN GRILL #1320,10300 LITTLE PATUXENT PKWY,Columbia,MD,21044,,,POINT (1351971.1656722263 564203.7137246106)
Food_Establishments_Health.733,CHINA CAFE,10805 BIRMINGHAM WAY #22,Woodstock,MD,21163,,,POINT (1343328.5038148202 597603.9976457948)
Food_Establishments_Health.734,ARBY'S  THE MALL IN COLUMBIA,10300 LITTLE PATUXENT PKWY,Columbia,MD,21044,,,POINT (1351971.1656722263 564203.7137246106)
Food_Establishments_Health.735,BON FRESCO SANDWICH & BAKERY,6945 OAKLAND MILLS RD,Columbia,MD,21045,,STE B,POINT (1361219.056770807 551403.1738065843)
Food_Establishments_Health.736,POLLO FUEGO LLC,7351 ASSATEAGUE DR,Jessup,MD,20794,,STE 290,POINT (1373027.1729186098 547379.6285417568)
Food_Establishments_Health.737,LIGHTHOUSE SENIOR LIVING,3100 NORTH RIDGE RD,Ellicott City,MD,21043,,,POINT (1362586.9685083544 589892.8854376426)
Food_Establishments_Health.738,R & R DELI,7894 WASHINGTON BLVD,Elkridge,MD,21075,,,POINT (1373306.6670797905 548543.8461052921)
Food_Establishments_Health.739,FIVE GUYS OPS LLC,10300 LITTLE PATUXENT PKWY,COLUMBIA,MD,21044,21044,#1325,POINT (1351971.1656722263 564203.7137246106)
Food_Establishments_Health.740,SUBWAY  43885,3881 TEN OAKS RD SUITE E,Glenelg,MD,21737,,,POINT (1316219.326164565 582353.8596868457)
Food_Establishments_Health.741,SUBWAY  33119,12800 FREDERICK RD SUITE 106,West Friendship,MD,21794,,,POINT (1324974.663678573 596273.8395698097)
Food_Establishments_Health.742,COMFORT INN,8828 WASHINGTON BLVD,Jessup,MD,20794,,,POINT (1365887.633586673 537460.6587922998)
Food_Establishments_Health.743,WATERLOO SHELL,5651 WATERLOO RD,Ellicott City,MD,21043,,,POINT (1367778.5359692778 564312.2920846085)
Food_Establishments_Health.744,BETHANY UNITED METHODIST CHURCH,2875 BETHANY LN,Ellicott City,MD,21043,,,POINT (1353141.5291806674 592252.050289241)
Food_Establishments_Health.745,AZUL 17,9400 SNOWDEN RIVER PKWY,Columbia,MD,21044,,STE 126,POINT (1358484.6966159274 549984.0458614905)
Food_Establishments_Health.746,CAZABE RESTAURANT,8801 WASHINGTON BLVD,Jessup,MD,20794,,,POINT (1366364.383312917 537926.5799489485)
Food_Establishments_Health.747,RUBY THAI KITCHEN,10300 LITTLE PATUXENT PKWY #1370,Columbia,MD,21044,,,POINT (1351971.1656722263 564203.7137246106)
Food_Establishments_Health.748,HARRIS TEETER #323,8184 WESTSIDE DR,Fulton,MD,20759,,,POINT (1337488.9781624267 540092.2938680439)
Food_Establishments_Health.749,COLUMBIA AUTO CARE & WASH,10611 LITTLE PATUXENT PKWY,Columbia,MD,21044,,,POINT (1348909.0217890514 563308.1617526603)
Food_Establishments_Health.750,TUTTI FRUTTI,9191 BALTIMORE NATIONAL PK,Ellicott City,MD,21042,,STE 1A,POINT (1360762.5008635381 586373.8929831557)
Food_Establishments_Health.751,VENNARI'S  PIZZA/SUBS,5865 ROBERT OLIVER PL,Columbia,MD,21045,,STE D,POINT (1355943.7873935509 562352.9063159134)
Food_Establishments_Health.752,SUBWAY,5485 HARPERS FARM RD,Columbia,MD,21044,,UNIT N,POINT (1343555.903776325 566670.5789440775)
Food_Establishments_Health.753,SIDAMO COFFEE & TEA #2,8180 Maple Lawn Blvd  #F,Fulton,MD,20759,,,POINT (1338766.749374693 539589.497041962)
Food_Establishments_Health.754,TRATTORIA MONTESE,2470 LONGSTONE LN,Marriottsville,MD,21104,,,POINT (1341189.714987692 598213.9095116588)
Food_Establishments_Health.755,AUNTIE ANNE'S PRETZELS,10300 LITTLE PATUXENT PKWY,Columbia,MD,21044,,SPACE 1017,POINT (1351971.1656722263 564203.7137246106)
Food_Establishments_Health.756,MCDONALDS # 6430,6385 DOBBIN RD,Columbia,MD,21045,,,POINT (1363633.535126555 557375.2762705114)
Food_Establishments_Health.757,JP'S FINE WINE & SPIRITS,7351 ASSATEAGUE DR,Jessup,MD,20794,,STE 100,POINT (1373027.1729186098 547379.6285417568)
Food_Establishments_Health.758,DROVER'S,17004 FREDERICK RD,Mount Airy,MD,21771,,,POINT (1282297.8075825823 611538.0254028286)
Food_Establishments_Health.759,BAGEL BIN,6030 DAYBREAK CIR,Clarksville,MD,21029,,,POINT (1330669.0279655783 562295.5441634617)
Food_Establishments_Health.760,CHARLEYS GRILLED SUBS,10300 LITTLE PATUXENT PKWY,Columbia,MD,21044,,SPACE #136,POINT (1351971.1656722263 564203.7137246106)
Food_Establishments_Health.761,PORTALLI'S,8085 MAIN ST,Ellicott City,MD,21043,,,POINT (1370068.924770743 583035.4742432744)
Food_Establishments_Health.762,7-11 #11725,9049 FREDERICK RD,Ellicott City,MD,21042,,,POINT (1361788.5809987204 584374.4122405531)
Food_Establishments_Health.763,WATERLOO EXXON,10611 LITTLE PATUXENT PKWY,Columbia,MD,21044,,,POINT (1348909.0217890514 563308.1617526603)
Food_Establishments_Health.764,COLUMBIA FINE WINE & SPIRITS,10400 SHAKER DR,COLUMBIA,MD,21046,,,POINT (1348888.535306033 552797.4253080128)
Food_Establishments_Health.765,FIVE GUYS OPERATIONS LLC,6435 DOBBIN CENTER WAY,COLUMBIA,MD,21045,21045,7,POINT (1363551.5891944813 556604.6918449738)
Food_Establishments_Health.766,ST. JOHNS LIQUOR,9150 BALTIMORE NATIONAL PK,Ellicott City,MD,21043,,,POINT (1361195.9363114003 586944.2952031986)
Food_Establishments_Health.767,PUMP IT UP OF ELKRIDGE,7184 TROY HILL DR STE H,Elkridge,MD,21075,,,POINT (1383216.8569079537 556718.538157748)
Food_Establishments_Health.768,TCBY,9400 SNOWDEN RIVER PKWY,Columbia,MD,21045,,,POINT (1358484.6966159274 549984.0458614905)
Food_Establishments_Health.769,NSA - EMERSON BLDG,8955 STEPHENS ROAD,Laurel,MD,20723,,,POINT (1355524.1071557153 531116.872993609)
Food_Establishments_Health.770,LEDO PIZZA,6030 DAYBREAK CIR,Clarksville,MD,21029,,,POINT (1330669.0279655783 562295.5441634617)
Food_Establishments_Health.771,PARS MARKET LLC,9400 SNOWDEN RIVER PKWY,Columbia,MD,21045,,,POINT (1358484.6966159274 549984.0458614905)
Food_Establishments_Health.772,DUNKIN DONUTS - SNOWDEN DONUTS,8205 SNOWDEN  RIVER PKWY,Columbia,MD,21045,,,POINT (1368869.0021939466 562052.3403436281)
Food_Establishments_Health.773,HAN JOONG KWAN,9338 BALTIMORE NATIONAL PK,Ellicott City,MD,21042,,,POINT (1359464.2431682535 586911.516830369)
Food_Establishments_Health.774,NAZAR PRODUCE MARKET,6955 OAKLAND MILLS RD,Columbia,MD,21045,,STE A,POINT (1361232.5193167904 551144.7514565084)
Food_Establishments_Health.775,RIVER HILL GRILLE,6040 DAYBREAK CIR,Clarksville,MD,21029,,,POINT (1330713.5129001325 562564.5024190899)
Food_Establishments_Health.776,HONEY PIG BBQ,10045 BALTIMORE NATIONAL PK,Ellicott City,MD,21042,,,POINT (1352141.7888093658 586856.7886543054)
Food_Establishments_Health.777,EDIBLE ARRANGEMENTS,703 LISBON CENTER DR SUITE D,Woodbine,MD,21797,,,POINT (1293297.292979242 613569.1138620884)
Food_Establishments_Health.778,7 STAR FOOD MART,9002 BALTIMORE ST,Savage,MD,20763,,,POINT (1362175.1901996832 535893.4428413869)
Food_Establishments_Health.779,SMOKIN HOT LLC,2465 RT 97,Glenwood,MD,21738,,,POINT (1306722.3779652885 596025.9531252863)
Food_Establishments_Health.780,ENCORE AT TURF VALLEY,11150 RESORT RD,Ellicott City,MD,21042,,,POINT (1340962.3150261869 595443.5516794755)
Food_Establishments_Health.781,BIPPY  PUB,10194 BALTIMORE NATIONAL PK,Ellicott City,MD,21042,,STE 7,POINT (1350757.1952213605 587818.7753640441)
Food_Establishments_Health.782,TOWN CENTRE EXXON,10141 LITTLE PATUXENT PKWY,Columbia,MD,21044,,,POINT (1352660.9748218625 565171.2610511687)
Food_Establishments_Health.783,CENTRE PARK EXXON-7-ELEVEN,8850 CENTRE PARK DR,Columbia,MD,21045,,,POINT (1365342.6931383817 568660.4017732572)
Food_Establishments_Health.784,MEADOWS FROZEN CUSTARD,6470 FREETOWN RD,Columbia,MD,21044,,,POINT (1345339.6911191477 556329.5876444401)
Food_Establishments_Health.785,THE POTTERY STOP & COFFEE SHOP,9050 BALTIMORE NATIONAL PK #109,Ellicott City,MD,21042,,,POINT (1361978.812626749 586689.3848216401)
Food_Establishments_Health.786,TWIST & TURN TAVERN,13380 CLARKSVILLE PK,Highland,MD,20777,,,POINT (1324390.2135844603 551044.0750256748)
Food_Establishments_Health.787,MAYFLOWER VI CARRYOUT,10750 HICKORY RIDGE RD,Columbia,MD,21045,,,POINT (1345044.3930996386 562629.4738366627)
Food_Establishments_Health.788,STANFORD GRILL,8900 STANFORD BLVD,Columbia,MD,21045,,,POINT (1364875.8939896037 555966.391566927)
Food_Establishments_Health.789,EL HIDALGO,6060 MARSHALEE DR,Elkridge,MD,21075,,,POINT (1375270.4428091324 561807.965867622)
Food_Establishments_Health.790,WINGS SPORTS CAFE,8406 WASHINGTON BLVD,Jessup,MD,20794,,,POINT (1368295.3806694294 540854.9763644172)
Food_Establishments_Health.791,LEE'S DELI,6350 STEVENS FOREST RD,Columbia,MD,21046,,,POINT (1353623.2541956445 557783.5426106652)
Food_Establishments_Health.792,RETRO FITNESS,7351 ASSATEAGUE DR,Jessup,MD,20794,,STE 300,POINT (1373027.1729186098 547379.6285417568)
Food_Establishments_Health.793,BON APPETITE BAKERY,10155 BALTIMORE NATIONAL PK,Ellicott City,MD,21042,,STE 106,POINT (1351406.3240690029 587243.6905193113)
Food_Establishments_Health.794,RIVER HILL SUNOCO,5015 SIGNAL BELL LN,Clarksville,MD,21029,,,POINT (1329656.4103763795 561987.9542541415)
Food_Establishments_Health.795,ON THE BORDER,8230 GATEWAY OVERLOOK DR,Elkridge,MD,21075,,,POINT (1370032.9270934388 553170.571962992)
Food_Establishments_Health.796,ZAPATA'S RESTAURANT,5485 HARPERS FARM RD,Columbia,MD,21044,,,POINT (1343555.903776325 566670.5789440775)
Food_Establishments_Health.797,CAFE GATEWAY,6841 BENJAMIN FRANKLIN DR,Columbia,MD,21046,,,POINT (1370350.1749161822 550109.0134079033)
Food_Establishments_Health.798,FUDDRUCKERS,6486 DOBBIN WAY,Columbia,MD,21045,,,POINT (1363243.1212930316 557786.4692510964)
Food_Establishments_Health.799,7-ELEVEN,6510 WASHINGTON BLVD,Elkridge,MD,21075,,,POINT (1387455.217580432 559241.3022094509)
Food_Establishments_Health.800,AUCTION CAFE  LLC  HOWARD CAFE,3430 COURTHOUSE DR,Ellicott City,MD,21043,,,POINT (1367258.7646286949 586027.6714201436)
Food_Establishments_Health.801,ICHIBAN CAFE,6250 COLUMBIA CROSSING CIR,Columbia,MD,21046,,STE D,POINT (1365103.879279195 557758.666167)
Food_Establishments_Health.802,CENTENNIAL HIGH SCHOOL CONCESSION STAND -INDOOR,4300 CENTENNIAL LN,Ellicott City,MD,21042,,,POINT (1349521.8602953467 577681.1855743758)
Food_Establishments_Health.803,KOLACHE KREATIONS,10455 FREDERICK RD,Ellicott City,MD,21042,,,POINT (1347589.399618619 588215.9204705593)
Food_Establishments_Health.804,CHILDREN OF AMERICA,8020 VILLAGE CREST DR,Ellicott City,MD,21043,,,POINT (1371692.6248819781 577411.0566625751)
Food_Establishments_Health.805,TONG NA MOO HOUSE,9445 BALTIMORE NATIONAL PK,Ellicott City,MD,21042,,,POINT (1358418.8472062252 586620.3161074636)
Food_Establishments_Health.806,SAVAGE BOYS & GIRLS CLUB,8400 FAIR STREET,Savage,MD,20763,,,POINT (1360832.447569844 536347.6574363107)
Food_Establishments_Health.807,WAVERLY WOODS SHELL,10781 BIRMINGHAM WAY,Woodstock,MD,21163,,,POINT (1343670.6280812286 597799.4972265995)
Food_Establishments_Health.808,BIG LOTS #5155,6171 COLUMBIA CROSSING CIR,Columbia,MD,21045,,,POINT (1365628.9185725541 556333.9776050869)
Food_Establishments_Health.809,ELLICOTT LIGHTHOUSE TOFU & BBQ,9380 BALTIMORE NATIONAL PK,Ellicott City,MD,21043,,,POINT (1359101.6324188265 586956.2944289665)
Food_Establishments_Health.810,PUDGIE'S,12447 CLARKSVILLE PK,Clarksville,MD,21029,,STE 1E,POINT (1328589.9426032465 560457.0286445755)
Food_Establishments_Health.811,RECREATIONAL EQUIPMENT INC.,6100 DOBBIN RD,Columbia,MD,21045,,STE B,POINT (1365979.23743217 557854.9526371867)
Food_Establishments_Health.812,PLAYERS BAR & GRILL,10795  BIRMINGHAM WAY,Woodstock,MD,21163,,,POINT (1343488.2983823642 597519.1250732896)
Food_Establishments_Health.813,AIDA BISTRO & WINE BAR,6741 GATEWAY DR,Columbia,MD,21046,,,POINT (1368154.9019287315 552822.301751678)
Food_Establishments_Health.814,TANDOOR  GRILL,7500 MONTPELIER RD,Laurel,MD,20723,,STE 104,POINT (1342955.0644957977 544090.9626892061)
Food_Establishments_Health.815,DUNKIN DONUTS/BASKIN ROBBINS,8600 WASHINGTON BLVD,Jessup,MD,20794,,,POINT (1366803.0867135555 539170.9874602989)
Food_Establishments_Health.816,MELVILLE CHAPEL U.M. CHURCH,5660 FURNACE AVE,Elkridge,MD,21075,,,POINT (1395358.6100649147 563900.2211118941)
Food_Establishments_Health.817,HIGHLAND WINE & SPIRITS,13390 CLARKSVILLE PK,Highland,MD,20777,,STE B FIRS,POINT (1324327.8761432755 550939.8866263238)
Food_Establishments_Health.818,LINDEN LINTHICUM UNITED METHODIST CHURCH,12101 LINDEN LINTHICUM LN,Clarksville,MD,21029,,,POINT (1330789.312887301 563322.7949548163)
Food_Establishments_Health.819,FRISCO TAP HOUSE,6659 DOBBIN RD,COLUMBIA,MD,21045,,,POINT (1361705.464410474 554011.3957588787)
Food_Establishments_Health.820,FLAVORS OF INDIA,7185 COLUMBIA GATEWAY DR,Columbia,MD,21046,,,POINT (1367592.1089738098 552472.8608841916)
Food_Establishments_Health.821,ASIAN COURT,9180 BALTIMORE NATIONAL PK,Ellicott City,MD,21042,,,POINT (1360668.5557056963 586894.2496518248)
Food_Establishments_Health.822,SEDONA  GRILL,10805 BIRMINGHAM WAY,Woodstock,MD,21163,,UNIT #24,POINT (1343328.5038148202 597603.9976457948)
Food_Establishments_Health.823,SUBWAY,7106 MINSTREL WAY,Columbia,MD,21045,,,POINT (1356731.6389976325 550385.8735926957)
Food_Establishments_Health.824,SAM & ELSIES,9994 WASHINGTON BLVD,Laurel,MD,20723,,,POINT (1358670.8309473523 526150.6568458888)
Food_Establishments_Health.825,ASIAN PALACE,10801 HICKORY RIDGE ROAD,Columbia,MD,21044,,,POINT (1344742.0711430947 561912.4469310163)
Food_Establishments_Health.826,LUNA BELLA RISTORANTE,6420 FREETOWN RD,Columbia,MD,21044,,,POINT (1345362.5189145112 556584.7906900416)
Food_Establishments_Health.827,KABOB CONNECTION,10300 LITTLE PATUXENT PKWY,Columbia,MD,21044,,STE 145,POINT (1351971.1656722263 564203.7137246106)
Food_Establishments_Health.828,BGR THE  BURGER JOINT,6250 COLUMBIA CROSSING CIR,Columbia,MD,21045,,STE D,POINT (1365103.879279195 557758.666167)
Food_Establishments_Health.829,ANNA'S COFFEE & ROASTERY,8827 CENTRE PARK DR,Columbia,MD,21045,,STE D,POINT (1364761.1696847004 568623.2334397808)
Food_Establishments_Health.830,SIAM SPICE THAI CUISINE,5810 ROBERT OLIVER PL,Columbia,MD,21045,,,POINT (1355567.7140981404 562024.5372595317)
Food_Establishments_Health.831,TUTTI FRUTTI,6250 COLUMBIA CROSSING CIR,Columbia,MD,21045,,,POINT (1365103.879279195 557758.666167)
Food_Establishments_Health.832,JERRYS SUBS & PIZZA OF COLUMBIA,7180 CRADLEROCK WAY,Columbia,MD,21045,,B,POINT (1357130.5400884065 553710.5371225503)
Food_Establishments_Health.833,KUPCAKES & COMPANY,6010 MEADOW RIDGE CENTER DR,Elkridge,MD,21075,,STE H,POINT (1373910.7256647921 562038.2924695583)
Food_Establishments_Health.834,RAINBOW OF HOWARD COUNTY LLC,7277 EDENBROOK DRIVE,COLUMBIA,MD,21046,21046,,POINT (1350034.6076988948 546930.6818996092)
Food_Establishments_Health.835,108 DELI & LIQUOR,12447 CLARKSVILLE PK,Clarksville,MD,21029,,STE 1D,POINT (1328589.9426032465 560457.0286445755)
Food_Establishments_Health.836,OLLIE'S BARGAIN OUTLET INC,7351 ASSATEAGUE DRIVE,JESSUP,MD,20794,20794,,POINT (1373027.1729186098 547379.6285417568)
Food_Establishments_Health.837,NORTH LAUREL 50 CENTER,9411 WHISKEY BOTTOM RD,Laurel,MD,20723,,,POINT (1358824.772234034 527930.6395561508)
Food_Establishments_Health.838,DESI BAZAAR,9179 RED BRANCH RD,Columbia,MD,21045,,,POINT (1362589.0171566564 569649.6062390062)
Food_Establishments_Health.839,ALEX'S SNOW CONES & ICE CREAM LLC,16041 FREDERICK RD,Lisbon,MD,21765,,,POINT (1291583.7450067687 608241.7502851568)
Food_Establishments_Health.840,WILLIAMSONS NURSERY - SNOWBALLS,8895 FREDERICK RD,Ellicott City,MD,21043,,,POINT (1363310.4340229495 583469.2023551798)
Food_Establishments_Health.841,TINO'S ITALIAN BISTRO LLC,8775 CENTRE PARK DR,COLUMBIA,MD,21045,21045,,POINT (1363877.9096025613 568243.0628477667)
Food_Establishments_Health.842,DOMINO'S PIZZA LLC  #4620,6010 MEADOWRIDGE CENTER DR,Elkridge,MD,21075,,UNIT F,POINT (1373910.7256647921 562038.2924695583)
Food_Establishments_Health.843,ASIAN EXPRESS,7500 MONTPELIER RD,Laurel,MD,20723,,,POINT (1342955.0644957977 544090.9626892061)
Food_Establishments_Health.844,WALGREENS#11949,5585 TWIN KNOLLS RD,Columbia,MD,21045,,,POINT (1357838.201744673 565745.467903772)
Food_Establishments_Health.845,THE JOHNS HOPKINS UNIV. APPLIED PHYSICS LAB. BLDG 200,11101 JOHNS  HOPKINS RD,Laurel,MD,20723,,,POINT (1340891.1976637084 543742.9851419353)
Food_Establishments_Health.846,K & B DELI INC  D/B/A NY DELI,9350 SNOWDEN RIVER PKWY,Columbia,MD,21045,,,POINT (1358844.9660530093 549950.9748246178)
Food_Establishments_Health.847,JASON'S DELI,8874 MCGAW RD,Columbia,MD,21045,,,POINT (1363294.630164621 554227.3818227019)
Food_Establishments_Health.848,JERRY'S SUB & PIZZA,7351 ASSATEAGUE DR,Jessup,MD,20794,,,POINT (1373027.1729186098 547379.6285417568)
Food_Establishments_Health.849,COLISEUM HAIR STUDIO,9105 ALL SAINTS  RD,Laurel,MD,20723,,M,POINT (1356059.3896905836 529943.2901806938)
Food_Establishments_Health.850,LOFT BALLROOM,9375 WASHINGTON BLVD,Laurel,MD,20723,,,POINT (1362911.5329321756 531555.8690582906)
Food_Establishments_Health.851,ACCRA INTERNATIONAL FOODS,10051 NORTH SECOND ST,Laurel,MD,20723,,,POINT (1358819.796945301 525241.642327955)
Food_Establishments_Health.852,KOTO SAKE JAPANESE STEAK HOUSE,6410 FREETOWN RD,Columbia,MD,21044,,,POINT (1345379.4934290121 556756.5844833537)
Food_Establishments_Health.853,NOURISHING JOURNEY,10440 SHAKER DR,Columbia,MD,21046,,STE 105,POINT (1349096.9121047352 552991.1689045589)
Food_Establishments_Health.854,TURKISH FAMILY MARKET,8457 BALTIMORE NATIONAL PK,Ellicott City,MD,21043,,,POINT (1367366.1723325204 589214.197521645)
Food_Establishments_Health.855,TONYS PIZZERIA,12800 FREDERICK RD,West Friendship,MD,21794,,,POINT (1324974.663678573 596273.8395698097)
Food_Establishments_Health.856,HCC  CULINARY PROGRAM KITCHEN,10901 LITTLE PATUXENT PKWY,Columbia,MD,21044,,,POINT (1346400.012947375 564257.5639085448)
Food_Establishments_Health.857,DELI TOWN,8785 CLOUDEAP CT,Columbia,MD,21045,,,POINT (1364298.467832526 561264.1960755032)
Food_Establishments_Health.858,LONG LIFE ADULT MEDICAL CENTER,9075 GUILFORD RD,Columbia,MD,21046,,,POINT (1355243.1496743192 547856.670932044)
Food_Establishments_Health.859,RESIDENCE INN - COLUMBIA,4950 BEAVER RUN CT,Ellicott City,MD,21043,,,POINT (1364726.635327612 571906.0460114691)
Food_Establishments_Health.860,KURAMO RESTAURANT LLC,8775 CLOUDLEAP CT,Columbia,MD,21045,,,POINT (1364498.6500380207 560935.8270191215)
Food_Establishments_Health.861,SUBWAY -52187,2480 RT 97,Glenwood,MD,21738,,,POINT (1306226.3124121984 596232.5739397297)
Food_Establishments_Health.862,EAST MOON ASIAN BISTRO,5725 RICHARDS VALLEY RD SUITE A,Ellicott City,MD,21043,,,POINT (1368464.2478223103 563714.6721085554)
Food_Establishments_Health.863,COLUMBIA HALAL MEAT,6520 OLD WATERLOO RD #J,Elkridge,MD,21075,,,POINT (1370724.784891377 555378.72216834)
Food_Establishments_Health.864,YOGO  POP,6010 MEADOWRIDGE CENTER DR,Elkridge,MD,21075,,,POINT (1373910.7256647921 562038.2924695583)
Food_Establishments_Health.865,NORDSTROM at HOME DEPARTMENT,10300 LITTLE PATUXENT PKWY,Columbia,MD,21044,,,POINT (1351971.1656722263 564203.7137246106)
Food_Establishments_Health.866,THE CORNER STABLE,8630 GUILFORD RD,Columbia,MD,21046,,,POINT (1350561.4029765124 547425.5767965268)
Food_Establishments_Health.867,T J MAX #1250,6231 COLUMBIA CROSSING CIR,Columbia,MD,21046,,,POINT (1364634.1534899857 558092.3031761579)
Food_Establishments_Health.868,GREEN VALLEY MARKETPLACE,7280 MONTGOMERY RD,Elkridge,MD,21075,,,POINT (1389018.0435706982 561047.6246835937)
Food_Establishments_Health.869,SUSHI NARI INC.,8640 GUILFORD RD,Columbia,MD,21046,,,POINT (1350653.8848141388 547261.684932379)
Food_Establishments_Health.870,RUDY'S MEDITERRANEAN GRILL,7185 COLUMBIA GATEWAY DR,Columbia,MD,21046,,,POINT (1367592.1089738098 552472.8608841916)
Food_Establishments_Health.871,MCDONALDS,8191 WESTSIDE BLVD,Fulton,MD,20759,,,POINT (1338341.8011840815 539472.7240887567)
Food_Establishments_Health.872,A & S FOOD MART INC.,7901 WATERLOO RD,Jessup,MD,20794,,,POINT (1375247.615013769 542173.4278786773)
Food_Establishments_Health.873,SUBWAY,8775 CLOUDLEAP CT,Columbia,MD,21045,,,POINT (1364498.6500380207 560935.8270191215)
Food_Establishments_Health.874,BOOKS-A-MILLION DBA JOE MUGGS CAFE,6151 COLUMBIA CROSSING CIR,Columbia,MD,21045,,,POINT (1365724.3270506116 556662.3466614686)
Food_Establishments_Health.875,MAIWAND KABOB,6131 COLUMBIA CROSSING CIR,COLUMBIA,MD,21045,21045,,POINT (1365469.4166690533 557008.5682244808)
Food_Establishments_Health.876,SHANGHAI TOKYO  CAFE & PENANG STAR,7185 COLUMBIA GATEWAY DR,Columbia,MD,21046,,,POINT (1367592.1089738098 552472.8608841916)
Food_Establishments_Health.877,LINDA'S BAKERY,9350 SNOWDEN RIVER PKWY,Columbia,MD,21045,,,POINT (1358844.9660530093 549950.9748246178)
Food_Establishments_Health.878,NEW MIROC JO RESTAURANT,10194 BALTIMORE NATIONAL  PK,Ellicott City,MD,21042,,,POINT (1350757.1952213605 587818.7753640441)
Food_Establishments_Health.879,VILLAGE GREEN SPIRIT SHOP,9338 BALTIMORE NATIONALL PK,Ellicott City,MD,21042,,,POINT (1359464.2431682535 586911.516830369)
Food_Establishments_Health.880,MANGO GROVE & MIRCHI WOK,8865 STANFORD BLVD,Columbia,MD,21045,,,POINT (1363852.1551667666 555168.296721336)
Food_Establishments_Health.881,THE GREENE TURTLE COLUMBIA LLC,8872 MCGAW RD,Columbia,MD,21045,,,POINT (1363658.1189061773 554229.1378069606)
Food_Establishments_Health.882,ANTHONYS NY PIZZA,5805 CLARKSVILLE  SQUARE DR,Clarksville,MD,21029,,,POINT (1329645.8744708272 562980.9633524511)
Food_Establishments_Health.883,BON CHON CHICKEN,3419 PLUMTREE DR,Ellicott City,MD,21042,,,POINT (1359000.3706599066 586385.3068808374)
Food_Establishments_Health.884,EDIBLE ARRANGEMENTS,6010 MEADOWRIDGE CENTER DR,Elkridge,MD,21075,,,POINT (1373910.7256647921 562038.2924695583)
Food_Establishments_Health.885,TERRACE ON THE GREEN,2700 TURF VALLEY RD,Ellicott City,MD,21042,,,POINT (1344805.5792404518 593490.604519729)
Food_Establishments_Health.886,DESSERT AFFAIRS- CART,10300 LITTLE PATUXENT PKWY,Columbia,MD,21044,,,POINT (1351971.1656722263 564203.7137246106)
Food_Establishments_Health.887,TOYS R US,6100 DOBBIN RD,Columbia,MD,21045,,,POINT (1365979.23743217 557854.9526371867)
Food_Establishments_Health.888,LA PERLE CUISINE @ KAHLER HALL,5440 OLD TUCKER ROW,Columbia,MD,21044,,,POINT (1343975.5840141606 566559.9519357778)
Food_Establishments_Health.889,ABBY'S GOURMET,6724 ALEXANDER BELL DR,Columbia,MD,21046,,,POINT (1366268.3895067736 553647.029025193)
Food_Establishments_Health.890,REDBERRY CAFE,4725 DORSEY HALL DR,Ellicott City,MD,21042,,,POINT (1356993.865980269 573988.0580142319)
Food_Establishments_Health.891,NORA'S KAB0B,9338 BALTIMORE NATIONAL PK,Ellicott City,MD,21043,,,POINT (1359464.2431682535 586911.516830369)
Food_Establishments_Health.892,LA LA'S ICE CREAM PARLOR,8054 MAIN ST,Ellicott City,MD,21043,,,POINT (1370169.6012015764 583159.5637975577)
Food_Establishments_Health.893,MARYLAND JUNIORS SPORTS CENTER -CONCESSION STAND,8221 PRESTON CT,Jessup,MD,20794,,,POINT (1370699.9084477117 539550.86538827)
Food_Establishments_Health.894,STARBUCKS COFFEE COMPANY,6365 DOBBIN RD,Columbia,MD,21045,,,POINT (1363601.0494177686 557569.6051951437)
Food_Establishments_Health.895,MISSION PLACE PHARMACY,8160 WASHINGTON BVD,Jessup,MD,20794,,,POINT (1370878.7261780587 545083.3864594294)
Food_Establishments_Health.896,WEIGHT WATCHERS,7185 COLUMBIA GATEWAY DR,Columbia,MD,21046,,,POINT (1367592.1089738098 552472.8608841916)
Food_Establishments_Health.897,WEIGHT WATCHERS,10040 BALTIMORE NATIONAL PK,ELLICOTT CITY,MD,21042,,,POINT (1352715.7029979262 588049.3946300234)
Food_Establishments_Health.898,HONEYWELL,7000 COLUMBIA GATEWAY DR,Columbia,MD,21046,,,POINT (1368114.2216267376 549943.950887583)
Food_Establishments_Health.899,WEGMAN'S FOOD MARKET,8855 MCGAW RD,Columbia,MD,21045,,,POINT (1363339.9930913048 553479.0398644415)
Food_Establishments_Health.900,CROSSROADS CHURCH OF NAZARENE,2750 ROGERS AVE,Ellicott City,MD,21043,,,POINT (1365130.804371162 594315.9171213303)
Food_Establishments_Health.901,TUTTI FRUTTI,8170 MAPLE LAWN BLVD,Fulton,MD,20759,,,POINT (1338963.4196116705 539789.3865834137)
Food_Establishments_Health.902,SHILLA BAKERY AT LOTTE,8801 BALTIMORE NATIONAL PK,Ellicott City,MD,21043,,,POINT (1363947.270980781 586658.6550971124)
Food_Establishments_Health.903,CAFE AU LAIT,3290 NORTH RIDGE RD,Ellicott City,MD,21043,,,POINT (1363784.8424368487 587932.036348732)
Food_Establishments_Health.904,ROOTS MARKET BAKESHOP,5809 CLARKSVILLE SQUARE,Clarksville,MD,21029,,,POINT (1329584.1223577287 563188.754823067)
Food_Establishments_Health.905,LITTLE CAESARS,5805 STEVENS FOREST RD,Columbia,MD,21045,,,POINT (1355575.6160273047 562264.814438934)
Food_Establishments_Health.906,SINDY'S DELI & CAFE,9042 RT 108,Columbia,MD,21045,,,POINT (1361788.2883346772 568795.319897136)
Food_Establishments_Health.907,POTBELLY SANDWICH WORKS,6490 DOBBIN CENTER WAY,Columbia,MD,21045,,,POINT (1363149.468799233 557708.6206156262)
Food_Establishments_Health.908,FMN SWEET TREATS,10300 LITTLE PATUXENT PKWY,Columbia,MD,21044,,,POINT (1351971.1656722263 564203.7137246106)
Food_Establishments_Health.909,SWEET FROG,9150 BALTIMORE NATIONAL PK,Ellicott City,MD,21042,,,POINT (1361195.9363114003 586944.2952031986)
Food_Establishments_Health.910,LORIEN ELKRIDGE,7615 WASHINGTON BLVD,Elkridge,MD,21075,,,POINT (1376410.9545851748 550017.9948904926)
Food_Establishments_Health.911,YOGI CASTLE,8874 MCGAW RD,Columbia,MD,21045,,,POINT (1363294.630164621 554227.3818227019)
Food_Establishments_Health.912,CVS PHARMACY#7139,8197 WESTSIDE BLVD,Fulton,MD,20759,,,POINT (1338041.5278758393 539540.3294827177)
Food_Establishments_Health.913,SUSHI Q LLC,6325 WASHINGTON BLVD,Elkridge,MD,21075,,,POINT (1389291.3917869732 560533.4139598302)
Food_Establishments_Health.914,MANNA FOOD,8801 BALTIMORE NATIONAL PK,Ellicott City,MD,21043,,,POINT (1363947.270980781 586658.6550971124)
Food_Establishments_Health.915,DOLLAR TREE #4970,7351 ASSATEAGUE DR,Jessup,MD,20794,,,POINT (1373027.1729186098 547379.6285417568)
Food_Establishments_Health.916,MT. HEBRON HIGH SCHOOL -OUTDOOR CONCESSION STAND,9440 OLD FREDERICK RD,Ellicott City,MD,21042,,,POINT (1357580.3647226836 594579.6074241824)
Food_Establishments_Health.917,ONE DISH CUISINE,8001 HILLSBOROUGH RD,Ellicott City,MD,21043,,,POINT (1371760.8156040253 576756.3671981134)
Food_Establishments_Health.918,JERRYS SUBS & PIZZA,8180 MAPLE LAWN BLVD,Fulton,MD,20759,,,POINT (1338766.749374693 539589.497041962)
Food_Establishments_Health.919,CINNABON,10300 LITTLE PATUXENT PKWY,Columbia,MD,21044,,,POINT (1351971.1656722263 564203.7137246106)
Food_Establishments_Health.920,HAMMOND HIGH SCHOOL,8800 GUILFORD RD,Columbia,MD,21046,,,POINT (1351867.5626009617 546652.6510586442)
Food_Establishments_Health.921,GANESH BROTHERS/GRACE,8450 BALTIMORE NATIONAL PK,Ellicott City,MD,21043,,,POINT (1367060.9237355452 590033.0715142975)
Food_Establishments_Health.922,OAKLAND MILLS HIGH INDOOR CONCESSION STAND,9410 KILAMANJARO RD,Columbia,MD,21045,,,POINT (1357881.2233590118 561565.3473758748)
Food_Establishments_Health.923,HOMEWOOD SUITES,7531 MONTPELIER RD,Fulton,MD,20759,,,POINT (1342550.8954522477 544205.9796581527)
Food_Establishments_Health.924,HAMPTON INN & SUITES COLUMBIA SOUTH,7045 MINSTREL WAY,Columbia,MD,21046,,,POINT (1355906.0337319882 549624.0690884517)
Food_Establishments_Health.925,NEXUS YOUTH CENTER,9197 RED BRANCH RD,Columbia,MD,21045,,,POINT (1361188.034382236 569586.6834697351)
Food_Establishments_Health.926,PIZZA PRESTO,9105 ALL SAINTS RD,Laurel,MD,20723,,,POINT (1356059.3896905836 529943.2901806938)
Food_Establishments_Health.927,7-ELEVEN,7311 WASHINGTON BLVD,Elkridge,MD,21075,,,POINT (1379294.8660660891 552316.870949208)
Food_Establishments_Health.928,YOGI CASTLE,10132 BALTIMORE NATIONAL PK,Ellicott City,MD,21042,,,POINT (1351563.1919961157 587642.2989460421)
Food_Establishments_Health.929,ROMA'S III,6790 BUSINESS PKWY,Elkridge,MD,21075,,,POINT (1378342.8299338166 552127.8099773519)
Food_Establishments_Health.930,TEA ON THE TIBER,8081 MAIN ST,Ellicott City,MD,21043,,,POINT (1370086.48461333 583046.8881409562)
Food_Establishments_Health.931,ALE HOUSE COLUMBIA,6480 DOBBIN CENTER WAY,Columbia,MD,21046,,,POINT (1363400.2818841876 557908.802821121)
Food_Establishments_Health.932,GRILLE CHICK'N POLLO,6420 FREETOWN RD,Columbia,MD,21044,,,POINT (1345362.5189145112 556584.7906900416)
Food_Establishments_Health.933,CHINA TASTE,10030 BALTIMORE NATIONAL PK,Ellicott City,MD,21042,,,POINT (1352930.518405577 588143.3397878653)
Food_Establishments_Health.934,XITOMATE COCINA MEXICANA,5850 WATERLOO RD,Columbia,MD,21045,,,POINT (1369153.178979817 561529.0570345278)
Food_Establishments_Health.935,MAC'S #86,8251 SNOWDEN RIVER PKWY,Columbia,MD,21046,,,POINT (1368733.2060779384 561920.3488601806)
Food_Establishments_Health.936,C & B DELI,8457 BALTIMORE NATIONAL PK,Ellicott City,MD,21043,,,POINT (1367366.1723325204 589214.197521645)
Food_Establishments_Health.937,KFC -KO71047,7125 MINSTREL WAY,Columbia,MD,21045,,,POINT (1356286.2043240024 550169.3022007862)
Food_Establishments_Health.938,Q DOBA MEXICAN GRILL #2432,9050 BALTIMORE NATIONAL PK,Ellicott City,MD,21042,,,POINT (1361978.812626749 586689.3848216401)
Food_Establishments_Health.939,SHILLA BAKERY ELLICOTT CITY,9339 BALTIMORE NATIONAL PK,Ellicott City,MD,21042,,,POINT (1359229.5266056703 586556.8080101063)
Food_Establishments_Health.940,SWANSFIELD POOL SNACK BAR,5659 CEDAR LN,Columbia,MD,21044,,,POINT (1344303.9530705425 564871.5730710127)
Food_Establishments_Health.941,WATERLOO  RD SHELL,5651 WATERLOO RD,Ellicott City,MD,21043,,,POINT (1367778.5359692778 564312.2920846085)
Food_Establishments_Health.942,XITOMATE,11085 RESORT RD,Ellicott City,MD,21042,,,POINT (1341522.4740047203 594445.859956476)
Food_Establishments_Health.943,CAFE A MUSE,8801 BALTIMORE NATIONAL PK,Ellicott City,MD,21043,,,POINT (1363947.270980781 586658.6550971124)
Food_Establishments_Health.944,MATCHA TIME CAFE,3785 HAMILTON ST,Ellicott City,MD,21043,,,POINT (1368825.1025874785 583076.4472093114)
Food_Establishments_Health.945,WHIRLZ YOGURT BAR,4725 DORSEY HALL DR,Ellicott City,MD,21042,,,POINT (1356993.865980269 573988.0580142319)
Food_Establishments_Health.946,ELKRIDGE LIQUORS,5827 WASHINGTON BLVD,Elkridge,MD,21075,,,POINT (1394399.8426596501 564437.2596310212)
Food_Establishments_Health.947,JIMMY JOHNS #2223,8827 CENTRE PARK DR,Columbia,MD,21045,,,POINT (1364761.1696847004 568623.2334397808)
Food_Establishments_Health.948,ALL SAINTS LIQUORS,9105 ALL SAINTS RD,Laurel,MD,20723,,,POINT (1356059.3896905836 529943.2901806938)
Food_Establishments_Health.949,MOMS ORGANIC MARKET WAREHOUSE,7351 ASSSATEAGUE DR,Jessup,MD,20794,,,POINT (1373027.1729186098 547379.6285417568)
Food_Establishments_Health.950,JIMMY JOHN'S SANDWICHES & SUBS,9339 BALTIMORE  NATIONAL PK,Ellicott City,MD,21043,,,POINT (1359229.5266056703 586556.8080101063)
Food_Establishments_Health.951,OH! DELI,9151 RUMSEY RD,Columbia,MD,21045,,,POINT (1363195.709718046 570167.6215953303)
Food_Establishments_Health.952,SUSHI TENDOU,8194 WESTSIDE BLVD,FULTON,MD,20759,20759,,POINT (1337992.652980638 539769.4854284815)
Food_Establishments_Health.953,TIGI'S ETHIOPIAN RESTAURANT & MARKET,8459 BALTIMORE NATIONAL  PK,Ellicott City,MD,21043,,,POINT (1367449.5815848098 589271.8523381399)
Food_Establishments_Health.954,COLUMBIA PALACE WINE & SPIRITS,8775 CENTRE PARK DR,Columbia,MD,21045,,,POINT (1363877.9096025613 568243.0628477667)
Food_Establishments_Health.955,CURRY KABOB,10451 TWIN RIVERS RD,Columbia,MD,21044,,,POINT (1347846.358648479 565651.2300818871)
Food_Establishments_Health.956,SUSHI BY JAY @ WEIS MARKET #62,10825 BIRMINGHAM WAY,Woodstock,MD,21163,,,POINT (1343200.6096279763 597750.3296673552)
Food_Establishments_Health.957,YOLAVIE SOFTSERVE,11085 RESORT RD,Ellicott City,MD,21043,,,POINT (1341522.4740047203 594445.859956476)
Food_Establishments_Health.958,KABOB PLUS,6590 OLD WATERLOO RD,Elkridge,MD,21075,,,POINT (1371129.8319270564 554543.1663252295)
Food_Establishments_Health.959,HARRIS TEETER #382,11075 RESORT RD,Ellicott City,MD,21042,,,POINT (1341495.5489127534 594105.7843383694)
Food_Establishments_Health.960,EL PATIO MARKET,7968 WASHINGTON BLVD,Jessup,MD,20794,,,POINT (1372511.4988746305 547569.8601697854)
Food_Establishments_Health.961,GREENBERRIES,6925 OAKLAND MILLS RD,Columbia,MD,21045,,,POINT (1361631.1277435212 551402.0031504118)
Food_Establishments_Health.962,TIAN CHINESE RESTAURANT,8801 BALTIMORE NATIONAL PK,Ellicott City,MD,21043,,,POINT (1363947.270980781 586658.6550971124)
Food_Establishments_Health.963,GALAXY RESTAURANT,10226 BALTIMORE NATIONAL PK,ELLICOTT CITY,MD,21042,,,POINT (1350353.6115058966 587757.9012430749)
Food_Establishments_Health.964,DUNKIN DONUTS,10430 SHAKER DR,Columbia,MD,21046,,,POINT (1348949.9947550884 553023.9472773884)
Food_Establishments_Health.965,RAINBOW TERRACE,9135 GUILFORD RD,Columbia,MD,21046,,,POINT (1356741.0042470125 547044.2355483401)
Food_Establishments_Health.966,AFC SUSHI @ HARRIS TEETER #382,11075 RESORT RD,Ellicott City,MD,21042,,,POINT (1341495.5489127534 594105.7843383694)
Food_Establishments_Health.967,GONE GREENS @ LOFT BALLROOM,9375 WASHINGTON BLVD,Laurel,MD,20723,,,POINT (1362911.5329321756 531555.8690582906)
Food_Establishments_Health.968,PANDA EXPRESS,10300 LITTLE PATUXENT PKWY  #1415,Columbia,MD,21044,,,POINT (1351971.1656722263 564203.7137246106)
Food_Establishments_Health.969,SPURRIER'S RESTAURANT AT HOLIDAY INN,7900 WASHINGTON  BLVD,Jessup,MD,20794,,,POINT (1372756.751342766 548330.2013538138)
Food_Establishments_Health.970,TRAVEL CENTERS OF AMERICA C-STORE,7879 POCOMOKE AVE,Jessup,MD,20794,,,POINT (1373773.1735645253 546702.1112819316)
Food_Establishments_Health.971,RAINBOW SNOWBALLS @ FLEA MARKET,7540 WASHINGTON BLVD,Elkridge,MD,21075,,,POINT (1377128.8594829508 551056.6595795291)
Food_Establishments_Health.972,SUSHI BY JAY @ WEIS MARKET #45,9250 WASHINGTON BLVD,Laurel,MD,20723,,,POINT (1362936.994703927 533100.5498778832)
Food_Establishments_Health.973,GRILLE 620,11099 RESORT RD,Ellicott City,MD,21042,,,POINT (1341333.7056969074 594469.5657439688)
Food_Establishments_Health.974,POLLO FELIZ & TAQUERIA,8525 BALTIMORE NATIONAL PK,Ellicott City,MD,21043,,,POINT (1366935.9561891325 589023.087901487)
Food_Establishments_Health.975,AFIA INTERNATIONAL,6528 OLD WATERLOO RD,Elkridge,MD,21075,,,POINT (1370870.8242488944 555221.8542412271)
Food_Establishments_Health.976,THE FACTORY GRILL,8600 FOUNDRY STREET,Savage,MD,20763,,,POINT (1361596.0080583468 535040.6198197323)
Food_Establishments_Health.977,PIZZA BOLI'S,7060 OAKLAND MILLS RD,Columbia,MD,21046,,,POINT (1360648.9472148072 549673.8219757823)
Food_Establishments_Health.978,BEAN & BURGANDY,9469 BALTIMORE NATIONAL PK,Ellicott City,MD,21042,,,POINT (1358111.549960948 586585.4890863321)
Food_Establishments_Health.979,WASABI SUSHI,10300 LITTLE PATUXENT PKWY,Columbia,MD,21044,,,POINT (1351971.1656722263 564203.7137246106)
Food_Establishments_Health.980,ROGER CARTER COMMUNITY CENTER,3000 MILLTOWNE DR,Ellicott City,MD,21043,,,POINT (1367616.6927534319 584925.4986337499)
Food_Establishments_Health.981,PETITE CELLARS,11079 RESORT RD,Ellicott City,MD,21042,,,POINT (1341480.330382511 594269.9688665603)
Food_Establishments_Health.982,SAVAGE VOLUNTEER FIRE CO. INC.,8521 CORRIDOR RD,Savage,MD,20763,,,POINT (1365352.936379891 535197.7804108883)
Food_Establishments_Health.983,THE PERFECT POUR,6630 MARIE CURIE DR,Elkridge,MD,21075,,,POINT (1370077.9973560795 554133.4366648601)
Food_Establishments_Health.984,RIVER HOUSE PIZZA CO,3741 HAMILTON ST,Ellicott City,MD,21043,,,POINT (1369157.2762764208 582838.2186782109)
Food_Establishments_Health.985,SUBWAY,11085 RESORT RD,Ellicott City,MD,21042,,,POINT (1341522.4740047203 594445.859956476)
Food_Establishments_Health.986,TUTTI  FRUITI INC -COLUMBIA MALL,10300 LITTLE PATUXENT PKWY #1640,Columbia,MD,21044,,,POINT (1351971.1656722263 564203.7137246106)
Food_Establishments_Health.987,COLUMBIA GROCERIES & DELI,10400 SHAKER DR,Columbia,MD,21046,,,POINT (1348888.535306033 552797.4253080128)
Food_Establishments_Health.988,BON FRESCO II,10907 GUILFORD RD,Annapolis Junction,MD,20701,,,POINT (1370698.445127496 533361.0208762609)
Food_Establishments_Health.989,MAMA MILLIE'S,3881 TEN OAKS RD,Glenelg,MD,21737,,,POINT (1316219.326164565 582353.8596868457)
Food_Establishments_Health.990,CLARKSVILLE CATERERS LLC,13010 RT 108,Clarksville,MD,21029,,,POINT (1325913.822592948 554576.8226901884)
Food_Establishments_Health.991,LOVE DOVE FARMS,14834 OLD FREDERICK RD,Woodbine,MD,21797,,,POINT (1305233.595977932 607735.4414905575)
Food_Establishments_Health.992,BEST HUNAN,8630 GUILFORD RD,Columbia,MD,21046,,,POINT (1350561.4029765124 547425.5767965268)
Food_Establishments_Health.993,CALIFORNIA GRILL & PIZZA,6801 DOUGLAS LEGUM DR,Elkridge,MD,21075,,,POINT (1382551.6315379397 552424.5713170766)
Food_Establishments_Health.994,FACCI RISTORANTE,11095 RESORT RD,Ellicott City,MD,21042,,,POINT (1341307.3659330264 594307.4298640798)
Food_Establishments_Health.995,MIMI'S KABOB II,11095 RESORT RD,Ellicott City,MD,21042,,,POINT (1341307.3659330264 594307.4298640798)
Food_Establishments_Health.996,STEVENS FOREST EXXON,6300 STEVENS FOREST RD,Columbia,MD,21046,,,POINT (1354116.1004442603 557540.3387908316)
Food_Establishments_Health.997,SKYZONE,7175 OAKLAND MILLS RD,Columbia,MD,21046,,,POINT (1361263.8343694045 549017.6691911051)
Food_Establishments_Health.998,DUCKETTS LANE  ELEMENTARY SCHOOL,6501 DUCKETTS LN,Elkridge,MD,21075,,,POINT (1384374.9285265836 559038.193363525)
Food_Establishments_Health.999,NSA CANX II,7205 RIVERWOOD DR,Columbia,MD,21046,,,POINT (1347370.1942503212 548024.6600927955)
Food_Establishments_Health.1000,R G'S BBQ CAFE,9990 N WASHINGTON BLVD,Laurel,MD,20723,,,POINT (1358731.1197402352 526236.4074105233)
Food_Establishments_Health.1001,40 WEST CITGO DBA JAISAI INC.,8300 BALTIMORE NATIONAL PK,Ellicott City,MD,21043,,,POINT (1369080.8909611662 591091.9300223093)
Food_Establishments_Health.1002,KINGS CONTRIVANCE LIQUOR SHOP,8630 GUILFORD RD,Columbia,MD,21046,,,POINT (1350561.4029765124 547425.5767965268)
Food_Establishments_Health.1003,GOLDEN BAR AND GRILL,8801 BALTIMORE NATIONAL PK,Ellicott City,MD,21043,,,POINT (1363947.270980781 586658.6550971124)
Food_Establishments_Health.1004,NEW CHINA KITCHEN,6501 HUNTSHIRE DR,Elkridge,MD,21075,,,POINT (1376535.3368035012 555837.6193879537)
Food_Establishments_Health.1005,ZOE 'S KITCHEN,10300 LITTLE PATUXENT PKWY 33140,Columbia,MD,21044,,,POINT (1351971.1656722263 564203.7137246106)
Food_Establishments_Health.1006,URBAN MARKET,9105 ALL SAINTS RD,Laurel,MD,20723,,,POINT (1356059.3896905836 529943.2901806938)
Food_Establishments_Health.1007,A CUP OF JOY,10320 LITTLE PATUXENT PKWY,Columbia,MD,21044,,,POINT (1352525.7640339406 563736.6219117895)
Food_Establishments_Health.1008,TLV TREE FARM llc,15155 TRIADELPHIA MILL RD,GLENELG.,MD,21737,21737,,POINT (1302427.825796531 571869.463006079)
Food_Establishments_Health.1009,ERNESTO'S FINE MEXICAN FOOD,10040 BALTIMORE NATIONAL PK,ELLICOTT CITY,MD,21042,,,POINT (1352715.7029979262 588049.3946300234)
Food_Establishments_Health.1010,CHICK FIL A @JOHNS HOPKINS RD.,10975 JOHNS HOPKINS RD,Laurel,MD,20723,,,POINT (1342400.4661340835 543364.2778701367)
Food_Establishments_Health.1011,CHICK-FIL-A,10300 LITTLE PATUXENT PKWY,Columbia,MD,21044,,,POINT (1351971.1656722263 564203.7137246106)
Food_Establishments_Health.1012,WHOLE FOODS MARKET,10275 LITTLE PATUXENT PKWY,Columbia,MD,21044,,,POINT (1353164.6496400738 563542.000323114)
Food_Establishments_Health.1013,JASMINE SMOOTHIE WORLD,10300 LITTLE PATUXENT PKWY,Columbia,MD,21044,,,POINT (1351971.1656722263 564203.7137246106)
Food_Establishments_Health.1014,KFC  K071044,4394 MONTGOMERY RD,Ellicott City,MD,21043,,,POINT (1364536.9890276697 577248.3354545998)
Food_Establishments_Health.1015,ZUM ZUM PIZZERIA,3570 SAINT JOHNS LN,Ellicott City,MD,21042,,,POINT (1361299.5393826652 584790.287845828)
Food_Establishments_Health.1016,THE GRILLE AT MAPLE LAWN,8191 MAPLE LAWN BLVD,Fulton,MD,20759,,,POINT (1338965.7609240154 539387.2661881654)
Food_Establishments_Health.1017,SEASONS  52   #4543,10300 LITTLE PATUXENT PKWY,Columbia,MD,21044,,,POINT (1351971.1656722263 564203.7137246106)
Food_Establishments_Health.1018,PIZZA PRIME TIME,10119 WASHINGTON BLVD,Laurel,MD,20723,,,POINT (1357830.885143595 524524.3227582654)
Food_Establishments_Health.1019,RAIMONDI'S FLORIST,5725 RICHARDS VALLEY RD,Ellicott City,MD,21043,,,POINT (1368464.2478223103 563714.6721085554)
Food_Establishments_Health.1020,LITTLE KAMPALA RESTAURANT,10110  WASHINGTON BLVD,Laurel,MD,20723,,,POINT (1357778.4982798763 524971.5134161543)
Food_Establishments_Health.1021,SECOLARI,10300 LITTLE PATUXENT PKWY,Columbia,MD,21044,,,POINT (1351971.1656722263 564203.7137246106)
Food_Establishments_Health.1022,THE HIGHLAND INN,12857 HIGHLAND RD,Highland,MD,20777,,,POINT (1323758.9372434483 551392.0525729457)
Food_Establishments_Health.1023,CHUTNEY  INDIAN  RESTAURANT,9400 SNOWDEN RIVER PKWY,Columbia,MD,21045,,,POINT (1358484.6966159274 549984.0458614905)
Food_Establishments_Health.1024,TROPICAL SMOOTHIE CAFE,6455 DOBBIN RD,Columbia,MD,21045,,,POINT (1363860.0570959307 556486.7482355961)
Food_Establishments_Health.1025,COHO /HOBBITS GLEN,11130 WILLOWBOTTOM DR,Columbia,MD,21044,,,POINT (1340648.8718360043 567774.5077147299)
Food_Establishments_Health.1026,HARWOOD CONVENIENCE,6641 WASHINGTON BLVD,Elkridge,MD,21075,,,POINT (1386150.2286121554 557926.3626637083)
Food_Establishments_Health.1027,MONTPELIER LIQUORS,7530 MONTPELIER RD #106,Laurel,MD,20723,,,POINT (1343154.9540372493 543868.245352391)
Food_Establishments_Health.1028,RED PARROT ASIAN BISTRO,11105 RESORT RD  STE 100,Ellicott City,MD,21042,,,POINT (1341353.8995158828 594612.6784610549)
Food_Establishments_Health.1029,THE WHITE OAK TAVERN,10030 BALTIMORE NATIONAL  PK,Ellicott City,MD,21042,,,POINT (1352930.518405577 588143.3397878653)
Food_Establishments_Health.1030,YAMA ASIAN FUSION,10039 BALTIMORE NATIONAL PK,Ellicott City,MD,21042,,,POINT (1352672.6813835874 587121.3569492868)
Food_Establishments_Health.1031,WILD BUFFALO GRILL,10024 WASHINGTON BLVD,Laurel,MD,20723,,,POINT (1358374.947599757 525747.073130425)
Food_Establishments_Health.1032,TARGET NUTRITION,8569 BALTIMORE NATIONAL PK,Ellicott City,MD,21042,,,POINT (1366492.8628278472 588585.5551570212)
Food_Establishments_Health.1033,GET GOOD FIELD HOUSE,8751 FREESTATE DR,Laurel,MD,20707,,,POINT (1362538.6789412394 533204.152949148)
Food_Establishments_Health.1034,CRADLEROCK MART,6810 CRADLEROCK WAY,Columbia,MD,21045,,,POINT (1357456.8604964863 556297.1019356536)
Food_Establishments_Health.1035,MARIA BAJAS CAFE,7880 WASHINGTON BLVD,Elkridge,MD,21075,,,POINT (1373373.687145665 548846.4607258792)
Food_Establishments_Health.1036,JERSEY MIKES SUBS,6630 MARIE CURIE DR,Elkridge,MD,21075,,,POINT (1370077.9973560795 554133.4366648601)
Food_Establishments_Health.1037,CHEF PAOLINO,3419 PLUM TREE DR # 101,Ellicott City,MD,21042,,,POINT (1359000.3706599066 586385.3068808374)
Food_Establishments_Health.1038,PETIT LOUIS BISTRO,10215 WINCOPIN CIR,Columbia,MD,21044,,,POINT (1353236.3523306386 564319.6086856865)
Food_Establishments_Health.1039,ONE MALL LOBBY SHOP,10025 GOVERNOR WARFIELD PKWY  UNIT 105,Columbia,MD,21044,,,POINT (1352029.9911448937 565567.5281655544)
Food_Establishments_Health.1040,ROVIA'S BISTRO,10840 LITTLE PATUXENT PKWY,Columbia,MD,21044,,,POINT (1346980.658408927 564407.7005626659)
Food_Establishments_Health.1041,VINTAGE CELLARS,6030 DAYBREAK CIR,Clarksville,MD,21029,,,POINT (1330669.0279655783 562295.5441634617)
Food_Establishments_Health.1042,RAJA FOODS,6590 OLD WATERLOO RD,ELKRIDGE,MD,21075,,,POINT (1371129.8319270564 554543.1663252295)
Food_Establishments_Health.1043,CAFE MEZCLA,6420 FREETOWN RD S,Columbia,MD,21044,,,POINT (1345362.5189145112 556584.7906900416)
Food_Establishments_Health.1044,D & W SALES AND WHOLESALE,7540 WASHINGTON BLVD,Jessup,MD,20794,,,POINT (1377128.8594829508 551056.6595795291)
Food_Establishments_Health.1045,MCDONALDS CRADLEROCK,7244 CRADLEROCK WAY,Columbia,MD,21045,,,POINT (1356297.9108857273 553426.6530007229)
Food_Establishments_Health.1046,MCDONALDS    COLUMBIA MALL,10300 LITTLE PATUXENT PKWY,Columbia,MD,21044,,,POINT (1351971.1656722263 564203.7137246106)
Food_Establishments_Health.1047,SOCCER STOP,9505 BERGER RD,Columbia,MD,21046,,,POINT (1357617.8257202029 548885.3850436143)
Food_Establishments_Health.1048,MIDAS RX,6030 MEADOWRIDGE DR,Elkridge,MD,21075,,,POINT (1374085.1534344922 561802.4052508028)
Food_Establishments_Health.1049,BED BATH & BEYOND # 52,9021 SNOWDEN RIVER PKWY,Columbia,MD,21046,,,POINT (1363668.0694836434 551488.6317071756)
Food_Establishments_Health.1050,KOR SHI RESTAURANT,9400 SNOWDEN RIVER PKWY,Columbia,MD,21046,,,POINT (1358484.6966159274 549984.0458614905)
Food_Establishments_Health.1051,RITA'S   KINGS CONTRIVANCE,8640 GUILFORD RD,Columbia,MD,21046,,,POINT (1350653.8848141388 547261.684932379)
Food_Establishments_Health.1052,RITA'S  HARPERS CHOICE,5485 HARPERS FARM RD,Columbia,MD,21044,,,POINT (1343555.903776325 566670.5789440775)
Food_Establishments_Health.1053,CAFE ABBY,6740 ALEXANDER BELL DR,Columbia,MD,21046,,,POINT (1365946.7517233836 554508.339304098)
Food_Establishments_Health.1054,VIET PEARL VIETNAMESE BISTRO & BBQ,8801 Baltimore National PK #25A,Ellicott City,MD,21043,,,POINT (1363947.270980781 586658.6550971124)
Food_Establishments_Health.1055,RUTHIE'S DELI & CAFE,6355 TEN OAKS RD,Clarksville,MD,21029,,,POINT (1328004.3218529616 560994.945155832)
Food_Establishments_Health.1056,ACE SUSHI @ SAFEWAY 1459,4370 MONTGOMERY RD,Ellicott City,MD,21043,,,POINT (1363702.6038407318 577063.9571074336)
Food_Establishments_Health.1057,EUREST  DINING @ W R GRACE,7500 GRACE RD,Columbia,MD,21044,,,POINT (1340087.2495372551 555082.2534926584)
Food_Establishments_Health.1058,GYUNG HYANG GARDEN CHURCH,8665 OLD ANNAPOLIS RD,Columbia,MD,21045,,,POINT (1365904.9007652171 567042.8476069274)
Food_Establishments_Health.1059,PISCO RESTAURANT,6630 MARIE CURIE DR,Elkridge,MD,21075,,,POINT (1370077.9973560795 554133.4366648601)
Food_Establishments_Health.1060,DAVIDS NATURAL MARKET,5410 LYNX LN,Columbia,MD,21044,,,POINT (1347511.8436471918 565998.9149651148)
Food_Establishments_Health.1061,SONIC DRIVE IN,10160 BALTIMORE NATIONAL PK,Ellicott City,MD,21042,,,POINT (1351463.9788854977 587614.7885259887)
Food_Establishments_Health.1062,GREAT AMERICAN COOKIES,10300 LITTLE PATUXENT PKWY,Columbia,MD,21044,,,POINT (1351971.1656722263 564203.7137246106)
Food_Establishments_Health.1063,SOFT STUFF ICE CREAM,10039 BALTIMORE NATIONAL PK,Ellicott City,MD,21042,,,POINT (1352672.6813835874 587121.3569492868)
Food_Establishments_Health.1064,ACE SUSHI @ SAFEWAY 1281,10000 BALTIMORE NATIONAL PK,Ellicott City,MD,21042,,,POINT (1353230.7917138191 587578.4981846417)
Food_Establishments_Health.1065,VILLA ITALIAN KITCHEN,10300 LITTLE  PATUXENT PKWY,Columbia,MD,21044,,,POINT (1351971.1656722263 564203.7137246106)
Food_Establishments_Health.1066,SHOPHOUSE,10300 LITTLE PATUXENT PKWY,Columbia,MD,21044,,,POINT (1351971.1656722263 564203.7137246106)
Food_Establishments_Health.1067,MARISQUERIA LA COSTENA,7540 WASHINGTON BLVD,Elkridge,MD,21075,,,POINT (1377128.8594829508 551056.6595795291)
Food_Establishments_Health.1068,HUNAN FAMILY,10451 TWIN RIVERS RD SUITE 101A,Columbia,MD,21044,,,POINT (1347846.358648479 565651.2300818871)
Food_Establishments_Health.1069,MAGGIANO'S  LITTLE ITALY,10300 LITTLE PATUXENT PKWY,Columbia,MD,21044,,,POINT (1351971.1656722263 564203.7137246106)
Food_Establishments_Health.1070,SUBWAY  42283,13380 CLARKSVILLE PK,Highland,MD,20777,,,POINT (1324390.2135844603 551044.0750256748)
Food_Establishments_Health.1071,SUBWAY #21527 (WATERLOO),6010 UNIVERSITY BLVD,Ellicott City,MD,21043,,,POINT (1369807.8684442788 561843.3782168397)
Food_Establishments_Health.1072,WILHIDES,3956 COOKS LN,Ellicott City,MD,21043,,,POINT (1364452.4091192076 581105.6475429346)
Food_Establishments_Health.1073,CHERRY TREE SPIRIT SHOPPE  -ABAH LLC,11200 SCAGGSVILLE RD,Laurel,MD,20723,,,POINT (1340588.5830431213 539202.8878409992)
Food_Establishments_Health.1074,SPRINGHILL SUITES,7055 MINSTREL WAY,NULL,MD,21046,,,POINT (1355641.75810105 549773.0350864003)
Food_Establishments_Health.1075,MISSION BBQ COLUMBIA LLC,6270 COLUMBIA CROSSING CIR,Columbia,MD,21045,,,POINT (1365206.8970223735 558130.0568377204)
Food_Establishments_Health.1076,IHOP,7371 ASSATEAGUE DR,Jessup,MD,20794,,,POINT (1373517.9705189238 547059.1614145393)
Food_Establishments_Health.1077,ASIAN AMERICAN MARKET,8610 WASHINGTON BLVD SUITE# 118,JESSUP,MD,20794,,,POINT (1366534.1284579274 539137.3310953401)
Food_Establishments_Health.1078,BUFFALO WILD WINGS (WAA COLUMBIA CROSSING LLC,6191 COLUMBIA CROSSING CIR,COLUMBIA,MD,21045,21045,,POINT (1364728.391311871 556962.912633754)
Food_Establishments_Health.1079,COHO GRILL @ KAHLER HALL,5440 OLD TUCKER ROW,Columbia,MD,21044,,,POINT (1343975.5840141606 566559.9519357778)
Food_Establishments_Health.1080,DUKES FAMOUS DELI,7540 WASHINGTON BLVD,Elkridge,MD,21075,,,POINT (1377128.8594829508 551056.6595795291)
Food_Establishments_Health.1081,HEALTHY CHOICE @ LOFT BALLROOM,9375 WASHINGTON BLVD,Laurel,MD,20723,,,POINT (1362911.5329321756 531555.8690582906)
Food_Establishments_Health.1082,ROMA'S MARKET AND PIZZERIA,5325 PHELPS LUCK DR,Columbia,MD,21045,,,POINT (1363860.93508806 567070.943355067)
Food_Establishments_Health.1083,GLENWOOD WINE AND SPIRITS,2465 RT 97,Glenwood,MD,21738,,,POINT (1306722.3779652885 596025.9531252863)
Food_Establishments_Health.1084,GREAT HARVEST BREAD CO,8835 CENTRE PARK DR,Columbia,MD,21045,,,POINT (1364834.9210235667 568732.9824559512)
Food_Establishments_Health.1085,ANANDA RESTAURANT,7421 MAPLE LAWN BLVD,Fulton,MD,20759,,,POINT (1339966.6719514893 543934.9727542226)
Food_Establishments_Health.1086,GADSBYS  BAR AMERICAN LLC,8850 COLUMBIA 100 PKWY,Columbia,MD,21045,,,POINT (1364971.5951317044 570311.6123045458)
Food_Establishments_Health.1087,TOUS LE JOURS,9380 BALTIMORE NATIONAL PK,Ellicott City,MD,21043,,,POINT (1359101.6324188265 586956.2944289665)
Food_Establishments_Health.1088,HAN SUNG RESTAURANT,3570 SAINT JOHNS LN,Ellicott City,MD,21043,,,POINT (1361299.5393826652 584790.287845828)
Food_Establishments_Health.1089,RIVERSIDE COFFEE,8865 STANFORD BLVD,Columbia,MD,21045,,,POINT (1363852.1551667666 555168.296721336)
Food_Establishments_Health.1090,SNOW CAFE,9065 FREDERICK RD,Ellicott City,MD,21042,,,POINT (1361584.594160665 584386.411466321)
Food_Establishments_Health.1091,PROSPERITY RESTAURANT INC.,2020 MARRIOTTSVILLE RD,Marriottsville,MD,21104,,,POINT (1340726.1351433883 600762.4279991565)
Food_Establishments_Health.1092,CHAMPPS AMERICANA,103  LITTLE PATUXENT PKWY,Columbia,MD,21044,,,POINT (1351971.1656722263 564203.7137246106)
Food_Establishments_Health.1093,GENJI LLC.,10275 LITTLE PATUXENT PKWY,Columbia,MD,21045,,,POINT (1353164.6496400738 563542.000323114)
Food_Establishments_Health.1094,RENATA'S TASTY BITES,9421 FREDERICK RD,Ellicott City,MD,21043,,,POINT (1357780.5469281783 585014.4685028587)
Food_Establishments_Health.1095,PAX SQUARE DOLLAR STORE,9900 WASHINGTON BVD,Laurel,MD,20723,,,POINT (1359358.2987846436 527223.5632279704)
Food_Establishments_Health.1096,103 WINE &  SPIRITS,6010 MEADOWRIDGE CENTER DR,Elkridge,MD,21075,,,POINT (1373910.7256647921 562038.2924695583)
Food_Establishments_Health.1097,FLOYD'S CROSSROADS PUB,4809 TEN OAKS RD,Dayton,MD,21036,,,POINT (1316138.5508886636 572769.1122746329)
Food_Establishments_Health.1098,T & J WAFFLES LLC,9855 WASHINGTON BLVD,Laurel,MD,20723,,,POINT (1360052.7905589696 527594.953898691)
Food_Establishments_Health.1099,THOMAS VIADUCT MIDDLE SCHOOL,7000 BANBURY DR,Hanover,MD,21076,,,POINT (1387391.1241549884 553122.8677239633)
Food_Establishments_Health.1100,ASIAN ONE,9900 WASHINGTON BLVD,Laurel,MD,20723,,,POINT (1359358.2987846436 527223.5632279704)
Food_Establishments_Health.1101,INTERNATIONAL FOOD MARKET,8722 TOWN & COUNTRY BLVD,Ellicott City,MD,21043,,,POINT (1365146.6082294907 590441.9231825375)
Food_Establishments_Health.1102,K9 & COFFEE INC.,3830 TEN OAKS RD,Glenelg,MD,21737,,,POINT (1316008.9007175611 582351.5183745007)
Food_Establishments_Health.1103,WALGREENS #15553,10097 BALTIMORE NATIONAL PK,Ellicott City,MD,21042,,,POINT (1351966.7757115795 587140.3801120896)
Food_Establishments_Health.1104,CVS,5405 LYNX LN,Columbia,MD,21045,,,POINT (1347824.1161812018 565909.0671038766)
Food_Establishments_Health.1105,DASH IN,6295 WASHINGTON BLVD,Elkridge,MD,21075,,,POINT (1389822.8696892809 561120.4980303309)
Food_Establishments_Health.1106,DUNKIN DONUTS,2020 MARRIOTTSVILLE RD UNIT  H,Marriottsville,MD,21104,,,POINT (1340726.1351433883 600762.4279991565)
Food_Establishments_Health.1107,SUBWAY #29266,6251 COLUMBIA CROSSING CIR,Columbia,MD,21045,,,POINT (1364840.7743044293 558311.5085444555)
Food_Establishments_Health.1108,SUBWAY #31312,4398 MONTGOMERY RD,Ellicott City,MD,21043,,,POINT (1364292.0292235774 577439.1524107147)
Food_Establishments_Health.1109,CAPITAL TEAS INC.,10300 LITTLE PATUXENT PKWY SPACE #5522,Columbia,MD,21044,,,POINT (1351971.1656722263 564203.7137246106)
Food_Establishments_Health.1110,OAKLAND MILLS LIQUORS,5888 ROBERT OLIVER PL,Columbia,MD,21045,,,POINT (1356078.9981814728 562335.053809283)
Food_Establishments_Health.1111,AUCTION CAFE II,7120 DORSEY RUN RD,Hanover,MD,21076,,,POINT (1378280.4924926318 547847.013018621)
Food_Establishments_Health.1112,TWISTED CORK,6524 OLD WATERLOO RD,Elkridge,MD,21075,,,POINT (1370710.444353264 555281.2650419807)
Food_Establishments_Health.1113,OSCAR SUSHI I NC. @ DAVIDS NATURAL MARKET,5410 LYNX LN,Columbia,MD,21044,,,POINT (1347511.8436471918 565998.9149651148)
Food_Establishments_Health.1114,PINOT'S PALETTE,11105 RESORT RD ste 105,Ellicott City,MD,21042,,,POINT (1341353.8995158828 594612.6784610549)
Food_Establishments_Health.1115,SUBZI MANDI,6656 DOBBIN RD STE E,Columbia,MD,21045,,,POINT (1361863.7956578024 553850.4305351621)
Food_Establishments_Health.1116,PIZZA PRIME TIME 2,6790 BUSINESS PKWY,Elkridge,MD,21075,,,POINT (1378342.8299338166 552127.8099773519)
Food_Establishments_Health.1117,Quikshakes of Ymca at E.C.,4331 Montgomery Rd,Ellicott City,MD,21043,,,POINT (1365142.80359693 577479.8327127085)
Food_Establishments_Health.1118,LAKESIDE CAFE & DELI,11000 BROKENLAND PKWY STE 130,Columbia,MD,21044,,,POINT (1350316.7358364633 562825.851409597)
Food_Establishments_Health.1119,LAKESIDE CAFE & DELI,11000 BROKENLAND PKWY,Columbia,MD,21044,,,POINT (1350316.7358364633 562825.851409597)
Food_Establishments_Health.1120,WILHIDES UNIQUE FLOWERS,3956 COOKS LN,Ellicott City,MD,21043,,,POINT (1364452.4091192076 581105.6475429346)
Food_Establishments_Health.1121,ROYAL TAJ,8335 BENSON DR,Columbia,MD,21045,,,POINT (1368728.8161172918 553472.893919536)
Food_Establishments_Health.1122,DOBBIN SQUARE LIQUORS,6480 DOBBIN CENTER WAY,Columbia,MD,21045,,,POINT (1363400.2818841876 557908.802821121)
Food_Establishments_Health.1123,RED LOBSTER #0768,9011 SNOWDEN SQUARE DR,Columbia,MD,21045,,,POINT (1363570.6123572842 552494.8106874257)
Food_Establishments_Health.1124,JEHOVAH JAVA,3715 OLD COLUMBIA PK,Ellicott City,MD,21043,,,POINT (1369441.4530622913 582956.4549516318)
Food_Establishments_Health.1125,COURTYARD KITCHEN -RIVER HOUSE PIZZA CO,3741 HAMILTON ST,Ellicott City,MD,21043,,,POINT (1369157.2762764208 582838.2186782109)
Food_Establishments_Health.1126,H MART ELLICOTT CITY llc,3301 NORTH RIDGE RD,ELLICOTT CITY,MD,21043,21043,,POINT (1364281.493318025 587917.9884746621)
Food_Establishments_Health.1127,ROYAL GARDEN ADULT MEDICAL DAYCARE CENTER,9212 BERGER RD STE 100,Columbia,MD,21046,,,POINT (1360387.8908883433 550169.009536743)
County_Offices_Major.fid-e93e948_150795a390a_1e17,Board of Education,10910 CLARKSVILLE PK,Ellicott City,MD,21042,,,POINT (1343577.268251473 571437.4908784323)
County_Offices_Major.fid-e93e948_150795a390a_1e18,Ascend One Building,8930 STANFORD BLVD,Columbia,MD,21045,,,POINT (1364028.6315847684 555789.6224848819)
County_Offices_Major.fid-e93e948_150795a390a_1e19,Recreation and Parks Headquarters,7120 OAKLAND MILLS RD,Columbia,MD,21046,,,POINT (1360206.4391816081 549294.2367118543)
County_Offices_Major.fid-e93e948_150795a390a_1e1a,Gateway Building,6751 COLUMBIA GATEWAY DR,Columbia,MD,21046,,,POINT (1368566.9729014458 552749.721068984)
County_Offices_Major.fid-e93e948_150795a390a_1e1b,Dorsey Building,9250 BENDIX RD,Columbia,MD,21045,,,POINT (1361003.948699113 572039.2081510891)
County_Offices_Major.fid-e93e948_150795a390a_1e1c,Ellicott City Campus,3430 COURT HOUSE DR,Ellicott City,MD,21043,,,POINT (1367258.7646286949 586027.6714201436)
